{
"type": "FeatureCollection",
"name": "raw_history_a019",
"crs": { "type": "name", "properties": { "name": "urn:ogc:def:crs:OGC:1.3:CRS84" } },
"features": [
{ "type": "Feature", "properties": { "OBJECTID": 295, "CR_ID": "{5ADB0407-7A5C-4DEC-A5B5-3EDFDB875F6C}", "SURVEY_ID": null, "GEOM_ID": "{56B35D28-6054-4FB8-A59B-5268A782A048}", "RESNAME": "South San Francisco Hillside Sign", "BND_TYPE": "Circumscribed polygon", "BND_OTHER": "Polygon boundaries originally derived from bounding XY coordinates specificed in NRIS", "IS_EXTANT": "Unknown", "EXTANT_OTH": "Feature is likely but not guaranteed to be extant.  Feature was created as part of batch process from NRIS and status needs to be confirmed individually.", "CONTRIBRES": "Unknown", "RESTRICT_": "Unrestricted", "SOURCE": "National Register of Historic Places -- National Park Service", "SRC_DATE": "1996-07-11T00:00:00Z", "SRC_SCALE": "1:24000", "SRC_ACCU": "+/- 12 meters", "VERT_ERROR": "Not Applicable", "SRC_COORD": "Coordinates are typically provided in UTM format, and datum is assumed GCS_North_American_1927 except for sites in certain locations such as Pacifc Ocean islands.", "MAP_METHOD": "Derived by XY event point or centroid generation", "MAP_MTH_OT": "Coordinates are extracted directly from NPS NRIS and processed from assumed coordinate systems based upon location and CERTDATE via XY Event layers into WGS 84 system.  In some instances, clearly incorrect location data has been manually adjusted.", "CREATEDATE": "2012-08-01T00:00:00Z", "EDIT_DATE": "2012-08-17T00:00:00Z", "EDIT_BY": "Matt Stutts, NPS, Cultural Resources GIS", "ORIGINATOR": "National Register of Historic Places -- National Park Service", "CONSTRANT": "Extant status and datum information for resource not recorded by source; coordinate pairs used to generate points not checked for accuracy by source", "CR_NOTES": null, "ALPHA_CODE": null, "UNIT_CODEO": null, "UNIT": null, "UNIT_OTHER": null, "UNIT_TYPE": null, "GROUP_CODE": null, "REG_CODE": null, "META_MIDF": null, "NR_PROPERTYID": "96000761", "GlobalID": "{6A814395-E750-4142-85D8-F03170AD0199}", "SHAPE_Length": 0.018291240582061313, "SHAPE_Area": 1.4055945107161305e-05 }, "geometry": { "type": "MultiPolygon", "coordinates": [ [ [ [ -122.422606455999983, 37.665477511000063 ], [ -122.415992175999975, 37.663101400000073 ], [ -122.416284115999986, 37.662021272000061 ], [ -122.423534486999984, 37.662778124000056 ], [ -122.422606455999983, 37.665477511000063 ] ] ] ] } },
{ "type": "Feature", "properties": { "OBJECTID": 296, "CR_ID": "{A753E931-53EC-4C44-A11A-FDD3046B375B}", "SURVEY_ID": null, "GEOM_ID": "{CDF54598-BEA3-42DA-A2E1-9735D2EA7FDF}", "RESNAME": "Lake Nemaha Dam Guardrail", "BND_TYPE": "Circumscribed polygon", "BND_OTHER": "Polygon boundaries originally derived from bounding XY coordinates specificed in NRIS", "IS_EXTANT": "Unknown", "EXTANT_OTH": "Feature is likely but not guaranteed to be extant.  Feature was created as part of batch process from NRIS and status needs to be confirmed individually.", "CONTRIBRES": "Unknown", "RESTRICT_": "Unrestricted", "SOURCE": "National Register of Historic Places -- National Park Service", "SRC_DATE": "2008-07-02T00:00:00Z", "SRC_SCALE": "1:24000", "SRC_ACCU": "+/- 12 meters", "VERT_ERROR": "Not Applicable", "SRC_COORD": "Coordinates are typically provided in UTM format, and datum is assumed GCS_North_American_1927 except for sites in certain locations such as Pacifc Ocean islands.", "MAP_METHOD": "Derived by XY event point or centroid generation", "MAP_MTH_OT": "Coordinates are extracted directly from NPS NRIS and processed from assumed coordinate systems based upon location and CERTDATE via XY Event layers into WGS 84 system.  In some instances, clearly incorrect location data has been manually adjusted.", "CREATEDATE": "2012-08-01T00:00:00Z", "EDIT_DATE": "2012-08-17T00:00:00Z", "EDIT_BY": "Matt Stutts, NPS, Cultural Resources GIS", "ORIGINATOR": "National Register of Historic Places -- National Park Service", "CONSTRANT": "Extant status and datum information for resource not recorded by source; coordinate pairs used to generate points not checked for accuracy by source", "CR_NOTES": null, "ALPHA_CODE": null, "UNIT_CODEO": null, "UNIT": null, "UNIT_OTHER": null, "UNIT_TYPE": null, "GROUP_CODE": null, "REG_CODE": null, "META_MIDF": null, "NR_PROPERTYID": "08000620", "GlobalID": "{88D346D0-1D89-476C-96CC-E8687168DD88}", "SHAPE_Length": 0.010634066572919612, "SHAPE_Area": 4.9368175973780279e-07 }, "geometry": { "type": "MultiPolygon", "coordinates": [ [ [ [ -96.038119138999946, 39.776140489000056 ], [ -96.037293524999939, 39.770894632000079 ], [ -96.037838370999964, 39.773160607000079 ], [ -96.038119138999946, 39.776140489000056 ] ] ] ] } },
{ "type": "Feature", "properties": { "OBJECTID": 297, "CR_ID": "{48DCBB7A-E8B6-4025-8515-F77955236BC7}", "SURVEY_ID": null, "GEOM_ID": "{A0F77D75-60C5-4DE1-A3E7-6B88D475728A}", "RESNAME": "WPA Stone Structures in Memorial Park and Calvary Cemetery", "BND_TYPE": "Circumscribed polygon", "BND_OTHER": "Polygon boundaries originally derived from bounding XY coordinates specificed in NRIS", "IS_EXTANT": "Unknown", "EXTANT_OTH": "Feature is likely but not guaranteed to be extant.  Feature was created as part of batch process from NRIS and status needs to be confirmed individually.", "CONTRIBRES": "Unknown", "RESTRICT_": "Unrestricted", "SOURCE": "National Register of Historic Places -- National Park Service", "SRC_DATE": "2010-07-06T00:00:00Z", "SRC_SCALE": "1:24000", "SRC_ACCU": "+/- 12 meters", "VERT_ERROR": "Not Applicable", "SRC_COORD": "Coordinates are typically provided in UTM format, and datum is assumed GCS_North_American_1927 except for sites in certain locations such as Pacifc Ocean islands.", "MAP_METHOD": "Derived by XY event point or centroid generation", "MAP_MTH_OT": "Coordinates are extracted directly from NPS NRIS and processed from assumed coordinate systems based upon location and CERTDATE via XY Event layers into WGS 84 system.  In some instances, clearly incorrect location data has been manually adjusted.", "CREATEDATE": "2012-08-01T00:00:00Z", "EDIT_DATE": "2012-08-17T00:00:00Z", "EDIT_BY": "Matt Stutts, NPS, Cultural Resources GIS", "ORIGINATOR": "National Register of Historic Places -- National Park Service", "CONSTRANT": "Extant status and datum information for resource not recorded by source; coordinate pairs used to generate points not checked for accuracy by source", "CR_NOTES": null, "ALPHA_CODE": null, "UNIT_CODEO": null, "UNIT": null, "UNIT_OTHER": null, "UNIT_TYPE": null, "GROUP_CODE": null, "REG_CODE": null, "META_MIDF": null, "NR_PROPERTYID": "10000424", "GlobalID": "{E701E736-478C-44BB-9AEA-9953B8DD3721}", "SHAPE_Length": 0.016114517224122084, "SHAPE_Area": 9.2762715721054685e-06 }, "geometry": { "type": "MultiPolygon", "coordinates": [ [ [ [ -97.065054377999957, 47.934173857000076 ], [ -97.062251883999977, 47.930347378000079 ], [ -97.066757407999944, 47.931593188000079 ], [ -97.068774493999967, 47.931357252000055 ], [ -97.065054377999957, 47.934173857000076 ] ] ] ] } },
{ "type": "Feature", "properties": { "OBJECTID": 298, "CR_ID": "{30ED4FDE-5763-4FED-AC74-407CC6AE725B}", "SURVEY_ID": null, "GEOM_ID": "{E1CE1B3B-DF28-43E1-B3C0-2E3A35F03458}", "RESNAME": "Confederate Mothers Memorial Park", "BND_TYPE": "Circumscribed polygon", "BND_OTHER": "Polygon boundaries originally derived from bounding XY coordinates specificed in NRIS", "IS_EXTANT": "Unknown", "EXTANT_OTH": "Feature is likely but not guaranteed to be extant.  Feature was created as part of batch process from NRIS and status needs to be confirmed individually.", "CONTRIBRES": "Unknown", "RESTRICT_": "Unrestricted", "SOURCE": "National Register of Historic Places -- National Park Service", "SRC_DATE": "1996-05-03T00:00:00Z", "SRC_SCALE": "1:24000", "SRC_ACCU": "+/- 12 meters", "VERT_ERROR": "Not Applicable", "SRC_COORD": "Coordinates are typically provided in UTM format, and datum is assumed GCS_North_American_1927 except for sites in certain locations such as Pacifc Ocean islands.", "MAP_METHOD": "Derived by XY event point or centroid generation", "MAP_MTH_OT": "Coordinates are extracted directly from NPS NRIS and processed from assumed coordinate systems based upon location and CERTDATE via XY Event layers into WGS 84 system.  In some instances, clearly incorrect location data has been manually adjusted.", "CREATEDATE": "2012-08-01T00:00:00Z", "EDIT_DATE": "2012-08-17T00:00:00Z", "EDIT_BY": "Matt Stutts, NPS, Cultural Resources GIS", "ORIGINATOR": "National Register of Historic Places -- National Park Service", "CONSTRANT": "Extant status and datum information for resource not recorded by source; coordinate pairs used to generate points not checked for accuracy by source", "CR_NOTES": null, "ALPHA_CODE": null, "UNIT_CODEO": null, "UNIT": null, "UNIT_OTHER": null, "UNIT_TYPE": null, "GROUP_CODE": null, "REG_CODE": null, "META_MIDF": null, "NR_PROPERTYID": "96000500", "GlobalID": "{428F95E4-86AA-43BA-A87A-6AD96C7312D4}", "SHAPE_Length": 0.012469195882396131, "SHAPE_Area": 9.5064769108137986e-06 }, "geometry": { "type": "MultiPolygon", "coordinates": [ [ [ [ -93.142427827999938, 35.259745042000077 ], [ -93.13890973599996, 35.259658927000032 ], [ -93.13890527999996, 35.257043954000039 ], [ -93.14253303299995, 35.257039769000073 ], [ -93.142427827999938, 35.259745042000077 ] ] ] ] } },
{ "type": "Feature", "properties": { "OBJECTID": 299, "CR_ID": "{603F430D-04C7-4317-BDDC-6514C85683E5}", "SURVEY_ID": null, "GEOM_ID": "{CEE096A8-0B01-4B81-B971-B73F9EF16E39}", "RESNAME": "National Road Mile Markers Nos. 8, 9, 10, 11, 13, 14", "BND_TYPE": "Circumscribed polygon", "BND_OTHER": "Polygon boundaries originally derived from bounding XY coordinates specificed in NRIS", "IS_EXTANT": "Unknown", "EXTANT_OTH": "Feature is likely but not guaranteed to be extant.  Feature was created as part of batch process from NRIS and status needs to be confirmed individually.", "CONTRIBRES": "Unknown", "RESTRICT_": "Unrestricted", "SOURCE": "National Register of Historic Places -- National Park Service", "SRC_DATE": "1993-02-11T00:00:00Z", "SRC_SCALE": "1:24000", "SRC_ACCU": "+/- 12 meters", "VERT_ERROR": "Not Applicable", "SRC_COORD": "Coordinates are typically provided in UTM format, and datum is assumed GCS_North_American_1927 except for sites in certain locations such as Pacifc Ocean islands.", "MAP_METHOD": "Derived by XY event point or centroid generation", "MAP_MTH_OT": "Coordinates are extracted directly from NPS NRIS and processed from assumed coordinate systems based upon location and CERTDATE via XY Event layers into WGS 84 system.  In some instances, clearly incorrect location data has been manually adjusted.", "CREATEDATE": "2012-08-01T00:00:00Z", "EDIT_DATE": "2012-08-17T00:00:00Z", "EDIT_BY": "Matt Stutts, NPS, Cultural Resources GIS", "ORIGINATOR": "National Register of Historic Places -- National Park Service", "CONSTRANT": "Extant status and datum information for resource not recorded by source; coordinate pairs used to generate points not checked for accuracy by source", "CR_NOTES": null, "ALPHA_CODE": null, "UNIT_CODEO": null, "UNIT": null, "UNIT_OTHER": null, "UNIT_TYPE": null, "GROUP_CODE": null, "REG_CODE": null, "META_MIDF": null, "NR_PROPERTYID": "92000873", "GlobalID": "{7DB9C1CA-F0AE-4F82-8B13-46CCCF85C8D3}", "SHAPE_Length": 0.19030121719422066, "SHAPE_Area": 0.00022543515825207145 }, "geometry": { "type": "MultiPolygon", "coordinates": [ [ [ [ -80.53846383399997, 40.104505241000027 ], [ -80.620158959999969, 40.056689741000071 ], [ -80.60604028399996, 40.065111819000037 ], [ -80.594601099999977, 40.07597415400005 ], [ -80.580011106999962, 40.08358049900005 ], [ -80.553980240999977, 40.100151209000046 ], [ -80.53846383399997, 40.104505241000027 ] ] ] ] } },
{ "type": "Feature", "properties": { "OBJECTID": 300, "CR_ID": "{B54A847A-6E23-434A-A355-07528A0DE054}", "SURVEY_ID": null, "GEOM_ID": "{479D5085-1924-4BFE-BF97-75DAF6BCBD4B}", "RESNAME": "Union Station Plaza and Columbus Fountain (Boundary Increase)", "BND_TYPE": "Circumscribed polygon", "BND_OTHER": "Polygon boundaries originally derived from bounding XY coordinates specificed in NRIS", "IS_EXTANT": "Unknown", "EXTANT_OTH": "Feature is likely but not guaranteed to be extant.  Feature was created as part of batch process from NRIS and status needs to be confirmed individually.", "CONTRIBRES": "Unknown", "RESTRICT_": "Unrestricted", "SOURCE": "National Register of Historic Places -- National Park Service", "SRC_DATE": "2007-10-12T00:00:00Z", "SRC_SCALE": "1:24000", "SRC_ACCU": "+/- 12 meters", "VERT_ERROR": "Not Applicable", "SRC_COORD": "Coordinates are typically provided in UTM format, and datum is assumed GCS_North_American_1927 except for sites in certain locations such as Pacifc Ocean islands.", "MAP_METHOD": "Derived by XY event point or centroid generation", "MAP_MTH_OT": "Coordinates are extracted directly from NPS NRIS and processed from assumed coordinate systems based upon location and CERTDATE via XY Event layers into WGS 84 system.  In some instances, clearly incorrect location data has been manually adjusted.", "CREATEDATE": "2012-08-01T00:00:00Z", "EDIT_DATE": "2012-08-17T00:00:00Z", "EDIT_BY": "Matt Stutts, NPS, Cultural Resources GIS", "ORIGINATOR": "National Register of Historic Places -- National Park Service", "CONSTRANT": "Extant status and datum information for resource not recorded by source; coordinate pairs used to generate points not checked for accuracy by source", "CR_NOTES": null, "ALPHA_CODE": "NAMA", "UNIT_CODEO": null, "UNIT": "National Mall and Memorial Parks", "UNIT_OTHER": null, "UNIT_TYPE": null, "GROUP_CODE": null, "REG_CODE": "NCR", "META_MIDF": "WASO-Generated Possible NCR", "NR_PROPERTYID": "07001062", "GlobalID": "{A283CA6B-3D6F-4C8A-B3F7-48258784A6F5}", "SHAPE_Length": 0.0039001348092237475, "SHAPE_Area": 4.9344667857197417e-07 }, "geometry": { "type": "MultiPolygon", "coordinates": [ [ [ [ -77.00721822099996, 38.896899747000077 ], [ -77.005466344999945, 38.896515392000026 ], [ -77.006552553999938, 38.896190367000031 ], [ -77.00721822099996, 38.896899747000077 ] ] ] ] } },
{ "type": "Feature", "properties": { "OBJECTID": 301, "CR_ID": "{7F487E93-B6A1-4545-9AA0-A7E4E6932E0A}", "SURVEY_ID": null, "GEOM_ID": "{5CC321DF-D3E9-4F5C-822B-28FA1A0C673E}", "RESNAME": "Old National Pike Milestones", "BND_TYPE": "Circumscribed polygon", "BND_OTHER": "Polygon boundaries originally derived from bounding XY coordinates specificed in NRIS", "IS_EXTANT": "Unknown", "EXTANT_OTH": "Feature is likely but not guaranteed to be extant.  Feature was created as part of batch process from NRIS and status needs to be confirmed individually.", "CONTRIBRES": "Unknown", "RESTRICT_": "Unrestricted", "SOURCE": "National Register of Historic Places -- National Park Service", "SRC_DATE": "1975-11-27T00:00:00Z", "SRC_SCALE": "1:24000", "SRC_ACCU": "+/- 12 meters", "VERT_ERROR": "Not Applicable", "SRC_COORD": "Coordinates are typically provided in UTM format, and datum is assumed GCS_North_American_1927 except for sites in certain locations such as Pacifc Ocean islands.", "MAP_METHOD": "Derived by XY event point or centroid generation", "MAP_MTH_OT": "Coordinates are extracted directly from NPS NRIS and processed from assumed coordinate systems based upon location and CERTDATE via XY Event layers into WGS 84 system.  In some instances, clearly incorrect location data has been manually adjusted.", "CREATEDATE": "2012-08-01T00:00:00Z", "EDIT_DATE": "2012-08-17T00:00:00Z", "EDIT_BY": "Matt Stutts, NPS, Cultural Resources GIS", "ORIGINATOR": "National Register of Historic Places -- National Park Service", "CONSTRANT": "Extant status and datum information for resource not recorded by source; coordinate pairs used to generate points not checked for accuracy by source", "CR_NOTES": null, "ALPHA_CODE": null, "UNIT_CODEO": null, "UNIT": null, "UNIT_OTHER": null, "UNIT_TYPE": null, "GROUP_CODE": null, "REG_CODE": null, "META_MIDF": "WASO-Generated Possible NCR", "NR_PROPERTYID": "75002107", "GlobalID": "{63AFD48E-EEF3-4795-90B2-60076894D8A7}", "SHAPE_Length": 2.2681289152969186, "SHAPE_Area": 0.071171940111920309 }, "geometry": { "type": "MultiPolygon", "coordinates": [ [ [ [ -77.698898377999967, 39.591857752000067 ], [ -76.676294266999946, 39.281994845000042 ], [ -76.709248067999965, 39.278361803000053 ], [ -76.739773465999974, 39.27043087100003 ], [ -76.812203758999942, 39.269775842000058 ], [ -76.900793198999963, 39.288094271000034 ], [ -76.87086874299996, 39.274613800000054 ], [ -76.93574958499994, 39.298600075000024 ], [ -76.988788374999956, 39.312481469000033 ], [ -77.006089410999948, 39.317229865000058 ], [ -77.039706984999953, 39.328538213000058 ], [ -77.075711579999961, 39.337812024000073 ], [ -77.111261293999974, 39.347082839000052 ], [ -77.198259091999944, 39.368355355000062 ], [ -77.248374620999982, 39.381992525000044 ], [ -77.247906634999936, 39.36740629500008 ], [ -77.285374174999959, 39.384514422000052 ], [ -77.32129058299995, 39.392812126000081 ], [ -77.358122920999961, 39.397025891000055 ], [ -77.391406663999987, 39.409409353000058 ], [ -77.427105941999969, 39.414074910000068 ], [ -77.499577839999972, 39.423800363000055 ], [ -77.51089210799995, 39.431574559000069 ], [ -77.544798214999958, 39.443900047000056 ], [ -77.590094075999957, 39.465331391000063 ], [ -77.617758325999944, 39.483990289000076 ], [ -77.634022603999938, 39.48983867000004 ], [ -77.68000342199997, 39.551757069000075 ], [ -77.698898377999967, 39.591857752000067 ] ] ] ] } },
{ "type": "Feature", "properties": { "OBJECTID": 302, "CR_ID": "{99ADDFB0-4DE2-4A35-A0F2-E3430E579065}", "SURVEY_ID": null, "GEOM_ID": "{BB0FE6B1-8BCA-4A3A-BF25-7E00202475A5}", "RESNAME": "American Revolution Statuary", "BND_TYPE": "Circumscribed polygon", "BND_OTHER": "Polygon boundaries originally derived from bounding XY coordinates specificed in NRIS", "IS_EXTANT": "Unknown", "EXTANT_OTH": "Feature is likely but not guaranteed to be extant.  Feature was created as part of batch process from NRIS and status needs to be confirmed individually.", "CONTRIBRES": "Unknown", "RESTRICT_": "Unrestricted", "SOURCE": "National Register of Historic Places -- National Park Service", "SRC_DATE": "1978-07-14T00:00:00Z", "SRC_SCALE": "1:24000", "SRC_ACCU": "+/- 12 meters", "VERT_ERROR": "Not Applicable", "SRC_COORD": "Coordinates are typically provided in UTM format, and datum is assumed GCS_North_American_1927 except for sites in certain locations such as Pacifc Ocean islands.", "MAP_METHOD": "Derived by XY event point or centroid generation", "MAP_MTH_OT": "Coordinates are extracted directly from NPS NRIS and processed from assumed coordinate systems based upon location and CERTDATE via XY Event layers into WGS 84 system.  In some instances, clearly incorrect location data has been manually adjusted.", "CREATEDATE": "2012-08-01T00:00:00Z", "EDIT_DATE": "2012-08-17T00:00:00Z", "EDIT_BY": "Matt Stutts, NPS, Cultural Resources GIS", "ORIGINATOR": "National Register of Historic Places -- National Park Service", "CONSTRANT": "Extant status and datum information for resource not recorded by source; coordinate pairs used to generate points not checked for accuracy by source", "CR_NOTES": null, "ALPHA_CODE": "NAMA", "UNIT_CODEO": null, "UNIT": "National Mall and Memorial Parks", "UNIT_OTHER": null, "UNIT_TYPE": null, "GROUP_CODE": null, "REG_CODE": "NCR", "META_MIDF": "WASO-Generated Possible NCR", "NR_PROPERTYID": "78000256", "GlobalID": "{A54BD891-9911-42AD-9C5D-841E583DF032}", "SHAPE_Length": 0.28871576895464723, "SHAPE_Area": 0.00086991960873562368 }, "geometry": { "type": "MultiPolygon", "coordinates": [ [ [ [ -77.086024236999947, 38.937766544000056 ], [ -77.025366374999976, 38.910272844000076 ], [ -76.999411954999971, 38.89360081600006 ], [ -77.027141363999988, 38.903754590000062 ], [ -77.031700214999944, 38.901873236000029 ], [ -77.041533623999953, 38.90701768100007 ], [ -77.025955550999981, 38.894494545000043 ], [ -77.035331683999971, 38.899827678000065 ], [ -77.030027453999935, 38.89577532800007 ], [ -77.037521407999975, 38.899789462000058 ], [ -77.037610902999972, 38.898886868000034 ], [ -77.050045912999963, 38.902273181000055 ], [ -77.039376080999943, 38.888043644000049 ], [ -77.086024236999947, 38.937766544000056 ] ] ] ] } },
{ "type": "Feature", "properties": { "OBJECTID": 303, "CR_ID": "{969DB8AC-71D7-49A1-8617-71D456AE2E44}", "SURVEY_ID": null, "GEOM_ID": "{48BE5EBC-1D6A-46A8-AA36-11B0FF3A4A11}", "RESNAME": "Civil War Monuments in Washington, DC", "BND_TYPE": "Circumscribed polygon", "BND_OTHER": "Polygon boundaries originally derived from bounding XY coordinates specificed in NRIS", "IS_EXTANT": "Unknown", "EXTANT_OTH": "Feature is likely but not guaranteed to be extant.  Feature was created as part of batch process from NRIS and status needs to be confirmed individually.", "CONTRIBRES": "Unknown", "RESTRICT_": "Unrestricted", "SOURCE": "National Register of Historic Places -- National Park Service", "SRC_DATE": "1978-09-20T00:00:00Z", "SRC_SCALE": "1:24000", "SRC_ACCU": "+/- 12 meters", "VERT_ERROR": "Not Applicable", "SRC_COORD": "Coordinates are typically provided in UTM format, and datum is assumed GCS_North_American_1927 except for sites in certain locations such as Pacifc Ocean islands.", "MAP_METHOD": "Derived by XY event point or centroid generation", "MAP_MTH_OT": "Coordinates are extracted directly from NPS NRIS via XY Event layers into WGS 84 system.  This particular feature has been manually adjusted without primary source documentation outside of the NRIS coordinates.", "CREATEDATE": "2012-08-01T00:00:00Z", "EDIT_DATE": "2013-06-18T00:00:00Z", "EDIT_BY": "Matt Stutts, NPS, Cultural Resources GIS", "ORIGINATOR": "National Register of Historic Places -- National Park Service", "CONSTRANT": "Extant status and datum information for resource not recorded by source; coordinate pairs used to generate points not checked for accuracy by source", "CR_NOTES": null, "ALPHA_CODE": "NAMA", "UNIT_CODEO": null, "UNIT": "National Mall and Memorial Parks", "UNIT_OTHER": null, "UNIT_TYPE": null, "GROUP_CODE": null, "REG_CODE": "NCR", "META_MIDF": "WASO-Generated Possible NCR", "NR_PROPERTYID": "78000257", "GlobalID": "{A2BF9856-B1E0-4A96-B7D6-FF2073652B36}", "SHAPE_Length": 0.19673886113523023, "SHAPE_Area": 0.00047477466373417506 }, "geometry": { "type": "MultiPolygon", "coordinates": [ [ [ [ -77.046190310999975, 38.916577120000056 ], [ -77.029497989999982, 38.909570329000076 ], [ -76.990084440999965, 38.889885801000048 ], [ -77.016605715999958, 38.894115880000072 ], [ -77.012242621999974, 38.890677161000042 ], [ -77.012562898999988, 38.889770602000056 ], [ -77.02155339899997, 38.893759961000058 ], [ -77.022360078999952, 38.893745983000031 ], [ -77.036346918999982, 38.907108318000041 ], [ -77.034002686999941, 38.901743019000037 ], [ -77.034345412999983, 38.897592297000074 ], [ -77.040339753999945, 38.905596916000036 ], [ -77.038850988999968, 38.901928713000075 ], [ -77.043222173999936, 38.909601111000029 ], [ -77.041789879999953, 38.895840415000066 ], [ -77.050441102999969, 38.911997351000025 ], [ -77.046190310999975, 38.916577120000056 ] ] ] ] } },
{ "type": "Feature", "properties": { "OBJECTID": 304, "CR_ID": "{17F7DC9F-DB9C-49BD-BA66-9520B56CD427}", "SURVEY_ID": null, "GEOM_ID": "{9064FA66-7511-411D-9B08-7EB0BE9E3619}", "RESNAME": "The Epic of American Civilization Murals", "BND_TYPE": "Perimeter polygon", "BND_OTHER": "Boundary derived from verbal boundary description on page 22 of NHL nomination prepared by Roger Reed & Alexander Lord on 08/00/2012 and attached boundary map on page 24.", "IS_EXTANT": "Unknown", "EXTANT_OTH": "Resource is likely but not guaranteed to be extant.", "CONTRIBRES": "Unknown", "RESTRICT_": "Unrestricted", "SOURCE": "ESRI World Imagery basemap", "SRC_DATE": "2022-04-01T00:00:00Z", "SRC_SCALE": "0.3 meters per pixel", "SRC_ACCU": "+/- 1 meter", "VERT_ERROR": "Not Applicable", "SRC_COORD": "WGS 1984 Web Mercator (auxiliary sphere)", "MAP_METHOD": "Digitized", "MAP_MTH_OT": "The polygon was derived from ESRI World Imagery basemap.", "CREATEDATE": "2023-06-14T00:00:00Z", "EDIT_DATE": "2023-06-14T00:00:00Z", "EDIT_BY": "N. Van Nostrand, H&PA GIS Technician, NPS", "ORIGINATOR": "National Register of Historic Places -- National Park Service", "CONSTRANT": "None", "CR_NOTES": "Murals located inside library", "ALPHA_CODE": null, "UNIT_CODEO": null, "UNIT": null, "UNIT_OTHER": null, "UNIT_TYPE": null, "GROUP_CODE": null, "REG_CODE": null, "META_MIDF": null, "NR_PROPERTYID": "13000283", "GlobalID": "{C35CB021-0BD8-428D-A474-37EB7D77ACF1}", "SHAPE_Length": 0.0037856806154299644, "SHAPE_Area": 4.3637059814019923e-07 }, "geometry": { "type": "MultiPolygon", "coordinates": [ [ [ [ -72.288401686999975, 43.705381370000055 ], [ -72.288237851999952, 43.705384514000059 ], [ -72.288230692999946, 43.705197872000042 ], [ -72.288197391999972, 43.705199112000059 ], [ -72.288192229999936, 43.705092081000032 ], [ -72.288228540999967, 43.705090884000072 ], [ -72.288221700999941, 43.704910406000067 ], [ -72.288384277999967, 43.704908394000029 ], [ -72.288391740999941, 43.705092273000048 ], [ -72.288658423999948, 43.705086269000049 ], [ -72.288657216999979, 43.705060368000034 ], [ -72.288719663999984, 43.705059744000039 ], [ -72.288720818999934, 43.705082469000047 ], [ -72.288733405999949, 43.705082546000028 ], [ -72.288733862999948, 43.705088772000067 ], [ -72.288954433999947, 43.705083898000055 ], [ -72.288948515999948, 43.704896843000029 ], [ -72.289109589999953, 43.704895598000064 ], [ -72.289116148999938, 43.705076592000069 ], [ -72.289154579999945, 43.705075835000059 ], [ -72.289157212999953, 43.705183023000075 ], [ -72.289120013999934, 43.705183224000052 ], [ -72.289126885999963, 43.705372846000046 ], [ -72.289213617999962, 43.705370951000077 ], [ -72.289217262999955, 43.705459455000039 ], [ -72.288961916999938, 43.705461763000073 ], [ -72.288963297999942, 43.705529874000035 ], [ -72.288404361999937, 43.705535286000043 ], [ -72.288401686999975, 43.705381370000055 ] ] ] ] } },
{ "type": "Feature", "properties": { "OBJECTID": 305, "CR_ID": "{BD480147-0C64-4615-9EB8-FEC9D7507174}", "SURVEY_ID": null, "GEOM_ID": "{B26F20F5-D7FC-4BD7-9DFA-C84A1385ADD2}", "RESNAME": "Davis-Ferris Organ", "BND_TYPE": "Buffer polygon", "BND_OTHER": "The boundary was derived from the verbal boundary description in the NHL nomination prepared by Steven C. Mallory et al., 12/3/2015.", "IS_EXTANT": "True", "EXTANT_OTH": "Visual confirmation using Esri World Imagery Basemap (Source Date: 3/23/2021)", "CONTRIBRES": null, "RESTRICT_": "Unrestricted", "SOURCE": "Esri World Imagery Saratoga County Orthos Saratoga County2021", "SRC_DATE": "2021-03-23T00:00:00Z", "SRC_SCALE": "0.3048-meter resolution per pixel", "SRC_ACCU": "1.22-meter", "VERT_ERROR": "Not Applicable", "SRC_COORD": "WGS 1984 Web Mercator (auxiliary sphere)", "MAP_METHOD": "Digitized", "MAP_MTH_OT": "The polygon was derived from a 10-foot buffer around the Round Lake Auditorium building footprint, estimated from features visible in the orthoimagery.", "CREATEDATE": "2017-07-01T00:00:00Z", "EDIT_DATE": "2024-05-16T00:00:00Z", "EDIT_BY": "Megan Cahill, SUU & NPS IR-1 HPA", "ORIGINATOR": "National Register of Historic Places -- National Park Service", "CONSTRANT": "These data exist to assist cultural resource professionals in making informed management decisions; however, the act of using these data does not constitute compliance with Section 106 of the NHPA.", "CR_NOTES": null, "ALPHA_CODE": null, "UNIT_CODEO": null, "UNIT": null, "UNIT_OTHER": null, "UNIT_TYPE": null, "GROUP_CODE": null, "REG_CODE": null, "META_MIDF": null, "NR_PROPERTYID": "100000864", "GlobalID": "{500326C0-6005-43C5-B4E5-5D386BA4F15F}", "SHAPE_Length": 0.0017283545995757424, "SHAPE_Area": 1.7238039287600894e-07 }, "geometry": { "type": "MultiPolygon", "coordinates": [ [ [ [ -73.794191410999986, 42.936711155000069 ], [ -73.793809870999951, 42.937019735000035 ], [ -73.793513575999953, 42.936821957000063 ], [ -73.793870068999979, 42.936533635000046 ], [ -73.793918327999961, 42.936566013000061 ], [ -73.793928781999966, 42.936557601000061 ], [ -73.794048004999979, 42.936553764000053 ], [ -73.79412261799996, 42.936603269000045 ], [ -73.794126847999962, 42.936668059000056 ], [ -73.794191410999986, 42.936711155000069 ] ] ] ] } }
]
}
