{"type": "FeatureCollection", "name": "Delaware_park", "crs": {"type": "name", "properties": {"name": "urn:ogc:def:crs:EPSG::3857"}}, "features": [{"type": "Feature", "properties": {"OBJECTID": 407, "CreationDate": "2025-01-14T11:11:14Z", "Creator": "NPS_WASO_LANDS", "EditDate": "2025-01-14T11:11:14Z", "Editor": "NPS_WASO_LANDS", "GlobalID": "{1BE4B541-A1AD-4123-9DE5-A0DB9D32EB82}", "AreaID": 429, "UNIT_CODE": "FRST", "GIS_Notes": "Lands - http://landsnet.nps.gov/tractsnet/documents/FRST/Metadata/frst_metadata.xml", "UNIT_NAME": "First State National Historical Park", "DATE_EDIT": "2015-06-18T00:00:00Z", "STATE": "DE", "REGION": "NE", "GNIS_ID": "2756166", "UNIT_TYPE": "National Historical Park", "CREATED_BY": "Lands", "METADATA": "https://irma.nps.gov/DataStore/Reference/Profile/2223243", "PARKNAME": "First State", "SHAPE_Length": 22895.279441872153, "SHAPE_Area": 7934331.29596685}, "geometry": {"type": "MultiPolygon", "coordinates": [[[[-8407205.1563, 4744062.711800002], [-8407244.182, 4744051.057400003], [-8407261.1442, 4744109.1822], [-8407223.9329, 4744120.1642], [-8407221.7919, 4744120.600299999], [-8407219.608, 4744120.6635000035], [-8407217.4457, 4744120.351400003], [-8407215.368, 4744119.6734], [-8407213.4357, 4744118.649599999], [-8407211.7059, 4744117.309699997], [-8407210.2293, 4744115.6932], [-8407209.0488, 4744113.847599998], [-8407208.1992, 4744111.826700002], [-8407197.2249, 4744077.8596], [-8407196.785, 4744076.006399997], [-8407196.6439, 4744074.1065], [-8407196.8052, 4744072.207900003], [-8407197.2651, 4744070.359300002], [-8407198.0113, 4744068.6076000035], [-8407199.0254, 4744066.997299999], [-8407200.2814, 4744065.5691], [-8407201.7474, 4744064.359300002], [-8407203.3862, 4744063.398699999], [-8407205.1563, 4744062.711800002]]], [[[-8407312.5502, 4744030.5317], [-8407314.441, 4744030.4212], [-8407316.3257, 4744030.612000003], [-8407318.1566, 4744031.0988000035], [-8407319.8883, 4744031.869099997], [-8407321.4773, 4744032.904299997], [-8407322.8837, 4744034.177900001], [-8407324.0727, 4744035.658500001], [-8407325.014, 4744037.308700003], [-8407325.6846, 4744039.087399997], [-8407335.777, 4744073.9736], [-8407336.201, 4744076.1193], [-8407336.2495, 4744078.306599997], [-8407335.9209, 4744080.4692], [-8407335.2251, 4744082.542300001], [-8407334.1827, 4744084.4636999965], [-8407332.8253, 4744086.175099999], [-8407331.1941, 4744087.625299998], [-8407329.3376, 4744088.770800002], [-8407327.3119, 4744089.5766], [-8407282.955, 4744102.8945999965], [-8407265.5942, 4744044.7245000005], [-8407310.7001, 4744030.9397], [-8407312.5502, 4744030.5317]]], [[[-8411697.7771, 4816601.096199997], [-8411697.7772, 4816601.092299998], [-8411755.0021, 4816666.753600001], [-8411688.8552, 4816741.706299998], [-8411655.9624, 4816778.2619], [-8411584.6273, 4816712.768299997], [-8411627.8818, 4816670.823200002], [-8411660.1604, 4816636.0185], [-8411677.8018, 4816619.640600003], [-8411697.7771, 4816601.096199997]]], [[[-8409211.3705, 4828080.125600003], [-8409163.7838, 4828053.232900001], [-8409155.5137, 4828069.967], [-8409074.4003, 4828071.530199997], [-8409066.9586, 4827976.470700003], [-8409177.6305, 4827899.577500001], [-8409216.8748, 4828054.0418], [-8409223.5747, 4828056.482000001], [-8409211.3705, 4828080.125600003]]], [[[-8411070.4109, 4843789.4516], [-8410858.9533, 4843426.263499998], [-8410783.9316, 4843294.000399999], [-8410781.375, 4843287.5801], [-8410803.4309, 4843267.250399999], [-8410704.7819, 4843081.861299999], [-8410679.2929, 4843095.557700001], [-8410437.9191, 4842642.882700004], [-8410427.1213, 4842622.631899998], [-8410457.8785, 4842623.7148], [-8410491.8103, 4842456.3983], [-8411000.3052, 4841713.785899997], [-8411131.9226, 4841798.570100002], [-8411136.4464, 4841792.415299997], [-8410922.4818, 4841653.759499997], [-8411013.8414, 4841507.426700003], [-8410906.4358, 4841463.395900004], [-8410951.5128, 4841215.332500003], [-8411045.9096, 4840908.935999997], [-8411096.5961, 4840904.6373], [-8411046.2625, 4840899.078299999], [-8410972.1116, 4840889.389700003], [-8410928.6045, 4840877.599699996], [-8410853.4123, 4840840.943999998], [-8410799.6806, 4840815.809600003], [-8410788.0462, 4840809.500600003], [-8410763.7036, 4840797.928400002], [-8410784.6832, 4840776.080600001], [-8410801.8646, 4840752.7905], [-8410829.5649, 4840717.626100004], [-8410834.7101, 4840721.287699997], [-8410834.7247, 4840721.298], [-8410863.2916, 4840793.371100001], [-8410969.4328, 4840794.629000001], [-8411057.9361, 4840790.7117], [-8411137.0261, 4840784.7299000025], [-8411068.3658, 4840665.051899999], [-8411342.4341, 4840606.526900001], [-8411229.5923, 4840406.524700001], [-8411216.2441, 4840381.430600002], [-8411119.2932, 4840185.890500002], [-8410867.8586, 4840323.517800003], [-8410831.8761, 4840260.637800001], [-8410796.2297, 4840213.916100003], [-8410754.7782, 4840173.669500001], [-8410717.4519, 4840144.566500001], [-8410688.6566, 4840123.033299997], [-8410701.4229, 4840088.983800001], [-8410817.3329, 4839873.704999998], [-8410929.7083, 4839815.5392], [-8411092.6338, 4839721.641199999], [-8411159.1216, 4839656.746600002], [-8411168.2868, 4839624.093199998], [-8411180.4902, 4839573.6087], [-8411205.2727, 4839482.602899998], [-8411162.7419, 4839446.273900002], [-8411091.2674, 4839405.440499999], [-8411019.6947, 4839416.960699998], [-8410972.7048, 4839409.1010000035], [-8410947.367, 4839436.356299996], [-8410860.1289, 4839358.157700002], [-8410685.8633, 4839300.5983000025], [-8410610.6624, 4839565.9794000015], [-8410489.0116, 4839540.1061], [-8410362.6973, 4839513.239299998], [-8410336.7398, 4839507.718099996], [-8410345.9373, 4839471.962300003], [-8410323.9313, 4839464.6347], [-8410317.1366, 4839471.317500003], [-8410161.7734, 4839420.237300001], [-8410154.4088, 4839389.120999999], [-8410115.271, 4839508.776100002], [-8410081.277, 4839497.568400003], [-8410078.1512, 4839496.229699999], [-8410075.299, 4839494.374300003], [-8410072.8046, 4839492.057300001], [-8410070.7411, 4839489.346199997], [-8410069.1695, 4839486.321000002], [-8410068.1357, 4839483.070799999], [-8410067.6704, 4839479.690899998], [-8410067.7872, 4839476.281099997], [-8410068.4826, 4839472.941200003], [-8410076.348, 4839445.7673999965], [-8410083.7178, 4839418.454000004], [-8410103.7015, 4839341.6149], [-8410104.1954, 4839341.748400003], [-8410112.8207, 4839309.953199998], [-8410123.496, 4839312.751800001], [-8410130.3046, 4839286.573200002], [-8410118.8008, 4839283.557400003], [-8410156.4087, 4839138.9516], [-8410354.0722, 4839193.468000002], [-8410356.0069, 4839194.094899997], [-8410471.606, 4839126.687200002], [-8410568.2438, 4839100.918799996], [-8410687.9804, 4838974.3301], [-8410722.6048, 4838962.230599999], [-8410817.6218, 4838959.933700003], [-8410883.7054, 4838718.561399996], [-8410978.3244, 4838755.896899998], [-8411017.5986, 4838694.532300003], [-8411023.5801, 4838684.243600003], [-8411028.6638, 4838673.4794000015], [-8411032.8123, 4838662.318599999], [-8411035.9957, 4838650.842299998], [-8411038.1904, 4838639.134999998], [-8411039.3804, 4838627.281999998], [-8411039.5572, 4838615.370700002], [-8411038.7188, 4838603.487499997], [-8411036.8724, 4838591.7195999995], [-8411034.0305, 4838580.153700002], [-8411030.2146, 4838568.873899996], [-8411025.4522, 4838557.9626], [-8411019.7786, 4838547.500100002], [-8411013.2349, 4838537.5625], [-8411005.8691, 4838528.223099999], [-8410997.7354, 4838519.549599998], [-8410928.9736, 4838452.145199999], [-8410921.2912, 4838443.9815], [-8410914.2892, 4838435.2228000015], [-8410908.013, 4838425.925999999], [-8410902.5035, 4838416.151900001], [-8410897.7963, 4838405.963600002], [-8410893.9224, 4838395.427699998], [-8410890.9069, 4838384.612599999], [-8410888.7692, 4838373.5886999965], [-8410887.5232, 4838362.4278], [-8410887.1773, 4838351.202200003], [-8410887.7335, 4838339.985299997], [-8410926.7896, 4838343.3477], [-8410927.6287, 4838333.9684000015], [-8411108.9481, 4838350.315200001], [-8411137.0084, 4838598.1674000025], [-8411133.199, 4838637.477399997], [-8411024.8015, 4838889.514200002], [-8411756.2812, 4839793.364100002], [-8411748.8587, 4839803.273500003], [-8411704.5871, 4839853.349200003], [-8411694.857, 4839864.182499997], [-8411638.7703, 4839910.878300004], [-8411625.1851, 4839924.643700004], [-8411739.9305, 4840066.419699997], [-8411759.4904, 4840055.3169], [-8411778.6675, 4840043.560699999], [-8411792.3154, 4840063.141400002], [-8411861.5661, 4840173.515799999], [-8412057.287, 4840035.0506], [-8412114.9723, 4839983.2434], [-8412240.9998, 4839919.634099998], [-8412523.4352, 4840376.793799996], [-8412561.0652, 4840351.682099998], [-8412617.1982, 4840278.559500001], [-8412649.7537, 4840253.829400003], [-8412635.2377, 4840103.722099997], [-8412599.2485, 4840015.320600003], [-8412840.7974, 4839933.294799998], [-8412932.2944, 4840018.064599998], [-8412985.9506, 4840081.774099998], [-8413045.4297, 4840199.461800002], [-8413045.2931, 4840388.477300003], [-8413006.8615, 4840378.744199999], [-8413015.4642, 4840413.841300003], [-8412983.454, 4840593.199900001], [-8412937.906, 4840777.633500002], [-8412850.5165, 4840914.250299998], [-8412859.4871, 4840948.685000002], [-8412787.5457, 4841057.873099998], [-8412756.7354, 4841198.709700003], [-8412731.3358, 4841194.134900004], [-8412738.0384, 4841326.406800002], [-8412779.2389, 4841417.330700003], [-8412807.3934, 4841404.2522], [-8412873.6729, 4841497.138700001], [-8412954.1118, 4841573.6087], [-8413031.3184, 4841702.222999997], [-8413127.8956, 4841828.371699996], [-8413208.2791, 4841896.358000003], [-8413252.8885, 4842021.549999997], [-8413122.0766, 4842060.9065999985], [-8413102.7706, 4842032.7346], [-8413090.5495, 4842014.100400001], [-8413079.0798, 4841994.990900002], [-8413068.3798, 4841975.4362], [-8413058.4665, 4841955.468199998], [-8413049.356, 4841935.118600003], [-8413014.6417, 4841853.240699999], [-8412985.4621, 4841865.710500002], [-8413023.1478, 4841954.5978000015], [-8413021.3456, 4841968.172499999], [-8413012.0039, 4841980.0726], [-8413027.696, 4841992.482199997], [-8413005.0814, 4842017.4750000015], [-8412992.5662, 4842033.415399998], [-8412980.5104, 4842049.708800003], [-8412968.924, 4842066.3418999985], [-8412951.6796, 4842089.8461000025], [-8412933.7719, 4842112.845200002], [-8412915.2156, 4842135.319700003], [-8412860.5109, 4842197.240800001], [-8412829.8966, 4842234.5891999975], [-8412819.5027, 4842250.1514], [-8412809.9237, 4842266.2321000025], [-8412801.1847, 4842282.7880000025], [-8412793.3096, 4842299.775200002], [-8412747.1372, 4842414.698700003], [-8412756.3599, 4842418.406499997], [-8412756.4425, 4842423.552100003], [-8412754.7989, 4842430.638599999], [-8412772.7286, 4842434.887800001], [-8412758.6402, 4842455.133000001], [-8412777.3059, 4842477.891099997], [-8412742.2169, 4842536.339100003], [-8412623.3749, 4842620.3461000025], [-8412621.5882, 4842621.7509], [-8412621.5766, 4842621.763499998], [-8412621.569, 4842621.770300001], [-8412620.1042, 4842623.255599998], [-8412541.3652, 4842700.5242], [-8412447.7616, 4842795.772399999], [-8412421.6398, 4842813.831900001], [-8412406.65, 4842859.791199997], [-8412389.9382, 4842895.884999998], [-8412364.9859, 4842934.194899999], [-8412321.4842, 4842977.770400003], [-8412300.756, 4843009.817699999], [-8412310.2975, 4843024.001400001], [-8412295.8065, 4843061.904799998], [-8412374.312, 4843159.928099997], [-8412471.3282, 4843261.4309], [-8412453.2495, 4843275.922200002], [-8412312.8047, 4843380.385799997], [-8412264.8777, 4843407.618600003], [-8412224.0914, 4843434.991599999], [-8412196.6567, 4843458.5227999985], [-8412074.7003, 4843589.741300002], [-8411980.0417, 4843660.850599997], [-8411946.3012, 4843683.046400003], [-8411869.9575, 4843727.6657000035], [-8411709.1958, 4843821.083800003], [-8411639.343, 4843862.7311], [-8411635.7259, 4843847.7557], [-8411622.1688, 4843741.596699998], [-8411585.2082, 4843717.874899998], [-8411558.6161, 4843689.979599997], [-8411516.2894, 4843727.252499998], [-8411515.5171, 4843651.624499999], [-8411310.5399, 4843722.089400001], [-8411320.4994, 4843768.135200001], [-8411201.6128, 4843825.684799999], [-8411115.7505, 4843867.247100003], [-8411070.4109, 4843789.4516]]]]}}]}