{"type": "FeatureCollection", "name": "Guam_park", "crs": {"type": "name", "properties": {"name": "urn:ogc:def:crs:EPSG::3857"}}, "features": [{"type": "Feature", "properties": {"OBJECTID": 356, "CreationDate": "2025-01-14T11:11:13Z", "Creator": "NPS_WASO_LANDS", "EditDate": "2025-01-14T11:11:13Z", "Editor": "NPS_WASO_LANDS", "GlobalID": "{C12181EA-1B2E-4DA8-BF94-D8456CB5589F}", "AreaID": 373, "UNIT_CODE": "WAPA", "GIS_Notes": "Lands - http://landsnet.nps.gov/tractsnet/documents/WAPA/Metadata/wapa_metadata.xml", "UNIT_NAME": "War in the Pacific National Historical Park", "DATE_EDIT": "2015-02-04T00:00:00Z", "STATE": "GU", "REGION": "PW", "GNIS_ID": "1828962", "UNIT_TYPE": "National Historical Park", "CREATED_BY": "Lands", "METADATA": "https://irma.nps.gov/DataStore/Reference/Profile/2220225", "PARKNAME": "War in the Pacific", "SHAPE_Length": 39726.15018766067, "SHAPE_Area": 8198056.667342982}, "geometry": {"type": "MultiPolygon", "coordinates": [[[[16108764.487899996, 1509655.4855999984], [16108636.351899996, 1509748.076299999], [16108727.520400003, 1509878.9778000005], [16108818.870800003, 1509816.9587000012], [16108910.220799997, 1509754.9393999986], [16108844.047700003, 1509750.558600001], [16108819.156400003, 1509728.2925999984], [16108805.321500003, 1509709.8674999997], [16108764.840099998, 1509655.9547000006], [16108764.487899996, 1509655.4855999984]]], [[[16107412.288000003, 1512603.918299999], [16107411.180600002, 1512439.0604000017], [16107480.854999997, 1512436.8561999984], [16107481.384999998, 1512330.1609000005], [16107481.914899997, 1512223.4659999982], [16107482.444799997, 1512116.7714999989], [16107479.5726, 1512116.3988999985], [16107336.121399999, 1512103.6024000011], [16107237.967500001, 1512111.2599], [16107185.283799998, 1512120.7767999992], [16107248.445799999, 1512207.205699999], [16107271.094400004, 1512217.4331], [16107286.463100001, 1512246.189199999], [16107279.169699997, 1512266.1482999995], [16107231.771499999, 1512318.6317999996], [16107264.303099997, 1512336.1053999998], [16107279.751699999, 1512356.2789999992], [16107280.9467, 1512380.6097999997], [16107247.815300003, 1512427.5058000013], [16107253.447499998, 1512433.2813000008], [16107244.732699998, 1512453.2270000018], [16107234.783, 1512453.1330000013], [16107227.463, 1512475.9530000016], [16107225.881700002, 1512493.1050000004], [16107328.963200003, 1512567.0362999998], [16107374.247699998, 1512588.9221], [16107412.288000003, 1512603.918299999]]], [[[16111342.395000003, 1512424.484099999], [16111321.387500003, 1512424.2892000005], [16111297.0119, 1512429.626699999], [16111280.304499999, 1512442.8253000006], [16111267.979000002, 1512460.5157000013], [16111262.318099998, 1512474.9296999983], [16111263.423699997, 1512474.9398999996], [16111338.946000002, 1512559.4728000015], [16111414.468900003, 1512644.0056999996], [16111489.992200002, 1512728.5386999995], [16111565.516000003, 1512813.071899999], [16111641.040200002, 1512897.6052], [16111716.564900003, 1512982.138700001], [16111731.0814, 1512966.6937000006], [16111747.992700003, 1512931.2399999984], [16111753.8165, 1512899.0218999982], [16111771.802900001, 1512866.9167000018], [16111790.854099996, 1512839.2727000006], [16111811.347099997, 1512774.9191000015], [16111820.854199998, 1512702.673700001], [16111833.729400001, 1512624.8960000016], [16111821.597599998, 1512621.4450999983], [16111825.077399999, 1512603.6722000018], [16111818.606299996, 1512585.8073000014], [16111805.501100004, 1512567.881000001], [16111787.902099997, 1512557.702300001], [16111770.2623, 1512551.9748000018], [16111763.628200002, 1512551.9133000001], [16111763.6791, 1512546.3498000018], [16111654.472599998, 1512517.517000001], [16111545.2663, 1512488.6840000004], [16111436.060199998, 1512459.8506000005], [16111342.395000003, 1512424.484099999]]], [[[16108764.487899996, 1509655.4855999984], [16108775.866800003, 1509636.6495000012], [16108723.517099999, 1509546.1391999982], [16108672.140199997, 1509481.1845999993], [16108643.273100004, 1509334.9367999993], [16108647.360299997, 1509285.0998000018], [16108633.452399999, 1509220.4965000004], [16108627.735200003, 1509185.1653000005], [16108638.995499998, 1509143.9109999985], [16108663.629600003, 1509094.2665], [16108672.303800002, 1509071.2349000014], [16108672.6074, 1509038.3933000006], [16108641.902000003, 1508960.2523000017], [16108627.567100003, 1508941.8713000007], [16108621.872299999, 1508904.1077999994], [16108588.2777, 1508877.0311999992], [16108524.590800002, 1508836.2919000015], [16108418.8213, 1508771.4376000017], [16108313.052100003, 1508706.5826999992], [16108219.484300002, 1508629.4752000012], [16108125.917400002, 1508552.3676999994], [16108032.350599997, 1508475.2600999996], [16108061.123400003, 1508370.308699999], [16108089.895800002, 1508265.3577999994], [16108082.722999997, 1508256.7752999999], [16108133.226499997, 1508154.5830999985], [16108183.7297, 1508052.3907999992], [16108234.232199997, 1507950.1988999993], [16108284.734499998, 1507848.007100001], [16108335.236100003, 1507745.8156999983], [16108335.247500002, 1507744.5993999988], [16108198.9243, 1507716.5612999983], [16108084.481799997, 1507740.424899999], [16107970.039399996, 1507764.2879000008], [16107884.4577, 1507869.3121999986], [16107891.869900003, 1507982.5075999983], [16107911.931500003, 1508035.0014999993], [16107968.003399998, 1508114.5947000012], [16108072.930200003, 1508270.0643999986], [16108044.146399997, 1508376.2316999994], [16108015.362499997, 1508482.3993000016], [16108095.325099997, 1508549.2424999997], [16108175.288199998, 1508616.0854999982], [16108255.251699999, 1508682.9285000004], [16108314.0695, 1508727.2718999982], [16108411.439999998, 1508785.3575000018], [16108508.810800001, 1508843.4428000003], [16108602.4665, 1508911.2248000018], [16108615.334299996, 1508957.5705000013], [16108634.4591, 1508980.862399999], [16108656.816200003, 1509046.7606000006], [16108656.535099998, 1509077.1695999987], [16108627.055100001, 1509127.985100001], [16108613.253700003, 1509182.5969000012], [16108614.1589, 1509215.4499000013], [16108627.082900003, 1509255.7144000009], [16108627.7179, 1509317.760499999], [16108626.3856, 1509331.1294], [16108629.775300004, 1509356.7069000006], [16108643.863300003, 1509401.8487000018], [16108655.331299998, 1509468.862399999], [16108659.963399999, 1509490.8024000004], [16108698.179899998, 1509541.0359000005], [16108716.062600002, 1509567.9660999998], [16108764.378700003, 1509655.2331000008], [16108764.487899996, 1509655.4855999984]]], [[[16104155.677000001, 1504025.1649000011], [16104181.776, 1503997.8748000003], [16104256.6025, 1504124.0353999995], [16104371.5172, 1504136.0903999992], [16104486.431999996, 1504148.1446999982], [16104601.347099997, 1504160.1988000013], [16104601.825800002, 1504027.8682000004], [16104511.030599996, 1503956.3779000007], [16104420.236000001, 1503884.8874999993], [16104329.4419, 1503813.3968999982], [16104404.042499997, 1503720.2730999999], [16104478.642499998, 1503627.1490000002], [16104553.2421, 1503534.0251000002], [16104449.162600003, 1503447.3665999994], [16104524.581299998, 1503347.876600001], [16104504.7839, 1503243.4048000015], [16104484.9864, 1503138.9334000014], [16104465.189000003, 1503034.4624000005], [16104370.784599997, 1503051.1601999998], [16104304.777999997, 1502876.1345999986], [16104226.155199997, 1502952.6446000002], [16104147.531900004, 1503029.1545999981], [16104068.908200003, 1503105.6644000001], [16103990.2839, 1503182.1741000004], [16103911.659199998, 1503258.6838000007], [16103833.034400001, 1503335.1931999996], [16103891.325000003, 1503360.2245999984], [16103867.341399997, 1503405.1270000003], [16103880.196900003, 1503412.1336000003], [16103828.041900001, 1503543.204500001], [16103908.545400001, 1503550.0890000015], [16103894.390699998, 1503681.5218999982], [16103827.289700001, 1503785.2969000004], [16103760.188000001, 1503889.0720999986], [16103847.324199997, 1503945.2309999987], [16103934.460500002, 1504001.389800001], [16104021.597199999, 1504057.5483999997], [16103960.6725, 1504151.057], [16103899.747299999, 1504244.5659000017], [16103898.9802, 1504245.3233999982], [16104017.960100003, 1504283.1717999987], [16104086.818999998, 1504154.1678999998], [16104155.677000001, 1504025.1649000011]]], [[[16111283.565899998, 1514823.2270000018], [16111294.460600004, 1514674.061999999], [16111294.696000002, 1514670.8407999985], [16111225.144299999, 1514675.789999999], [16111136.055600002, 1514688.9510000013], [16111120.043700002, 1514616.0551999994], [16111166.0423, 1514602.4932999983], [16111159.308399998, 1514427.5590000004], [16111148.153800003, 1514427.7743999995], [16111100.770900004, 1514428.6904000007], [16110825.865900002, 1514434.0020999983], [16110817.281099997, 1514434.1678999998], [16110814.790200002, 1514433.7584999986], [16110763.148500003, 1514425.2699000016], [16110727.0475, 1514420.7366999984], [16110682.722499996, 1514403.5359999985], [16110630.173299998, 1514373.6678999998], [16110600.212700002, 1514354.0859000012], [16110584.574199997, 1514343.8647000007], [16110548.8081, 1514302.9613999985], [16110518.458800003, 1514274.9563999996], [16110493.672700003, 1514252.0848999992], [16110442.589199997, 1514208.4017000012], [16110410.222900003, 1514183.8275000006], [16110376.543799996, 1514160.2248999998], [16110376.230499998, 1514160.0097000003], [16110288.4494, 1514099.7063000016], [16110236.463200003, 1514063.9125000015], [16110206.8341, 1514043.5119999982], [16110189.594999999, 1514032.7054000013], [16110135.5233, 1513998.6807000004], [16110115.370499998, 1513982.1446000002], [16110111.929799996, 1513979.3216999993], [16110106.255199999, 1513976.0252999999], [16110089.884900004, 1513966.515999999], [16110073.9683, 1513957.2705999985], [16110042.002400003, 1513938.702399999], [16110036.055699997, 1513935.8409000002], [16110025.592799999, 1513930.8062000014], [16110025.575599998, 1513930.7980000004], [16110012.683300003, 1513924.5943000019], [16110007.834399998, 1513922.2611999996], [16109998.334600002, 1513918.4118000008], [16109983.806000002, 1513912.5247000009], [16109929.159199998, 1513887.677000001], [16109891.4199, 1513870.3484000005], [16109889.509099998, 1513869.6512999982], [16109852.4027, 1513856.114], [16109848.626199998, 1513854.736200001], [16109832.0845, 1513849.9395000003], [16109817.551700003, 1513845.7254000008], [16109811.702299997, 1513844.0293000005], [16109790.079300001, 1513839.5522000007], [16109789.399899997, 1513839.4114000015], [16109763.576499999, 1513836.5245000012], [16109748.838, 1513836.1766999997], [16109732.183899999, 1513835.7837000005], [16109717.143799998, 1513835.4288999997], [16109709.063000001, 1513835.5998000018], [16109702.682499997, 1513835.7344999984], [16109691.9727, 1513835.7393000014], [16109651.3838, 1513835.7575999983], [16109635.208899997, 1513835.764800001], [16109627.6378, 1513835.7802999988], [16109557.875799999, 1513835.9232], [16109550.155699998, 1513835.3770999983], [16109535.961599998, 1513834.3735000007], [16109496.795500003, 1513831.603599999], [16109494.874200001, 1513831.3145000003], [16109453.042499997, 1513825.0210999995], [16109426.6298, 1513819.5874000005], [16109409.079300001, 1513815.9770000018], [16109396.773199998, 1513813.7591999993], [16109284.1915, 1513786.6944000013], [16109171.610200003, 1513759.6290999986], [16109059.029, 1513732.5634000003], [16108946.448299997, 1513705.4974999987], [16108833.661899999, 1513678.3814999983], [16108825.0761, 1513704.8803999983], [16108719.661399998, 1513680.1094000004], [16108722.6747, 1513654.9571999982], [16108682.705899999, 1513642.4549999982], [16108682.4793, 1513642.3728], [16108667.489299998, 1513636.9343999997], [16108638.604400001, 1513623.6028999984], [16108620.164899997, 1513614.1114999987], [16108613.272200003, 1513610.5639000013], [16108567.729099996, 1513575.1634000018], [16108492.009800002, 1513496.113499999], [16108416.2909, 1513417.0637000017], [16108415.776699997, 1513442.5262999982], [16108413.5872, 1513550.9089000002], [16108411.397699997, 1513659.2919000015], [16108409.2082, 1513767.6754], [16108407.018600002, 1513876.0592], [16108404.828900002, 1513984.443500001], [16108402.6391, 1514092.8282999992], [16108400.449100003, 1514201.2133000009], [16108398.259099998, 1514309.5989000015], [16108395.697999999, 1514436.3478000015], [16108393.1369, 1514563.0973999985], [16108390.575499997, 1514689.8473999985], [16108494.913199998, 1514695.0245000012], [16108599.251000002, 1514700.2010999992], [16108703.589100003, 1514705.3773000017], [16108807.927000001, 1514710.5529999994], [16108912.265199997, 1514715.7285000011], [16109016.603500001, 1514720.9034999982], [16109120.941799998, 1514726.0782000013], [16109225.280199997, 1514731.2523000017], [16109329.618900001, 1514736.4263000004], [16109432.4573, 1514740.9979999997], [16109535.2958, 1514745.569600001], [16109638.134400003, 1514750.140900001], [16109740.9732, 1514754.7115999982], [16109843.811999999, 1514759.2818999998], [16109946.650899999, 1514763.8519000001], [16110049.490099996, 1514768.421500001], [16110152.329099998, 1514772.990699999], [16110255.168399997, 1514777.5595999993], [16110358.007600002, 1514782.1281000003], [16110460.847099997, 1514786.6963], [16110563.686700001, 1514791.2639000006], [16110666.526299998, 1514795.8312], [16110769.365999997, 1514800.3980999999], [16110872.205799997, 1514804.9646999985], [16110975.045599997, 1514809.5307999998], [16111077.8856, 1514814.0967000015], [16111180.7258, 1514818.6618999988], [16111283.565899998, 1514823.2270000018]]], [[[16110805.017800003, 1514387.9776999988], [16110828.698399998, 1514242.9552000016], [16110930.383599997, 1514221.8814999983], [16111032.068999998, 1514200.8071000017], [16111017.482100002, 1514166.9376999997], [16110988.535099998, 1514044.7862000018], [16110959.588299997, 1513922.6350999996], [16110930.641599998, 1513800.4847000018], [16110888.3305, 1513618.4620999992], [16110909.953900002, 1513506.7316000015], [16110859.2139, 1513506.259300001], [16110811.538400002, 1513526.8986999989], [16110782.625500001, 1513532.251699999], [16110763.686300002, 1513516.1459], [16110722.170000002, 1513525.1295999996], [16110661.0982, 1513483.8000999987], [16110635.176399998, 1513467.6292999983], [16110578.1048, 1513446.9514999986], [16110575.0876, 1513420.6871000007], [16110496.865999997, 1513320.6339999996], [16110416.3952, 1513262.7256999984], [16110398.490500003, 1513235.385499999], [16110387.581699997, 1513206.7049999982], [16110344.375299998, 1513146.2448000014], [16110321.856399998, 1513114.7336000018], [16110317.387000002, 1513094.5461000018], [16110313.115999997, 1513052.8095999993], [16110278.5722, 1513013.5733000003], [16110195.408, 1512919.1114999987], [16110112.244400002, 1512824.6497000009], [16110049.190200001, 1512645.0951000005], [16110006.145900004, 1512617.9891999997], [16109950.244900003, 1512571.5548], [16109889.8319, 1512509.6182000004], [16109871.93, 1512491.1512999982], [16109815.127499998, 1512432.5562999994], [16109782.130199999, 1512396.830600001], [16109757.5123, 1512370.177099999], [16109751.8961, 1512373.4041999988], [16109739.936300002, 1512357.8321000002], [16109616.295199998, 1512337.4686999992], [16109530.337300003, 1512252.4935000017], [16109444.380000003, 1512167.518199999], [16109358.423100002, 1512082.5430000015], [16109342.421999998, 1512151.7291], [16109310.471500002, 1512284.4805000015], [16109295.294600002, 1512314.7901999988], [16109295.153700002, 1512314.7870999984], [16109190.961800002, 1512312.4527000003], [16109086.7702, 1512310.1180000007], [16108975.541199997, 1512307.625], [16108864.3121, 1512305.1319000013], [16108857.843500003, 1512325.7019999996], [16108826.233900003, 1512426.2208999991], [16108794.6241, 1512526.7399999984], [16108763.013999999, 1512627.259399999], [16108731.4036, 1512727.7789999992], [16108699.792800002, 1512828.2989999987], [16108642.7324, 1512835.6906999983], [16108642.464000002, 1512835.7254999988], [16108603.5229, 1512935.3057999983], [16108564.581600003, 1513034.886500001], [16108525.639700003, 1513134.4673999995], [16108529.849, 1513141.6790000014], [16108531.138899997, 1513143.8889000006], [16108564.773999996, 1513281.9442999996], [16108564.557899997, 1513405.6273000017], [16108564.756700002, 1513407.5876000002], [16108579.4864, 1513552.8784000017], [16108613.910499997, 1513574.5843000002], [16108640.5805, 1513591.4012000002], [16108693.195, 1513619.1904999986], [16108693.856799997, 1513619.5434000008], [16108795.101800002, 1513645.793299999], [16108897.566399999, 1513669.7397000007], [16109000.031400003, 1513693.685899999], [16109056.171800002, 1513706.8059], [16109066.192599997, 1513573.5329999998], [16109076.213200003, 1513440.2608000003], [16109081.131300002, 1513374.8673], [16109087.7293, 1513376.0351000018], [16109104.387500003, 1513378.9833999984], [16109149.303999998, 1513386.9340999983], [16109225.0308, 1513400.3365999982], [16109282.373499997, 1513410.485199999], [16109323.5335, 1513520.6631000005], [16109329.620499998, 1513536.9563000016], [16109346.038500004, 1513523.5232000016], [16109371.0977, 1513532.1911000013], [16109405.304499999, 1513508.1488000005], [16109405.429899998, 1513494.563099999], [16109453.7381, 1513506.2595000006], [16109454.015299998, 1513476.2776000015], [16109423.853, 1513465.6882000007], [16109428.724399999, 1513442.3082999997], [16109453.276699997, 1513405.057500001], [16109472.767300002, 1513411.7989999987], [16109486.116999999, 1513377.7230000012], [16109481.5444, 1513368.7785999998], [16109489.200099997, 1513346.3619000018], [16109642.7007, 1513410.5777999982], [16109641.556000002, 1513484.1228], [16109622.245499998, 1513508.3046999983], [16109625.917599998, 1513513.9613000005], [16109605.175899997, 1513541.877700001], [16109620.351400003, 1513562.1656999998], [16109637.553400002, 1513564.6689999998], [16109689.5141, 1513533.764899999], [16109733.540799998, 1513454.5298000015], [16109734.6884, 1513455.2060000002], [16109828.6298, 1513510.553199999], [16109844.875500001, 1513520.1248000003], [16109898.377800003, 1513551.6464999989], [16109912.459799998, 1513539.1281999983], [16109965.4362, 1513549.4618000016], [16110001.4366, 1513570.8520000018], [16110137.6752, 1513651.8002000004], [16110159.248300001, 1513634.6667000018], [16110169.993, 1513681.1497999988], [16110182.785300002, 1513692.5179000013], [16110183.8459, 1513693.4604999982], [16110181.784100004, 1513706.2005000003], [16110181.794, 1513714.0559], [16110240.505099997, 1513763.9853999987], [16110295.4283, 1513810.6933999993], [16110293.9586, 1513818.6444999985], [16110319.4406, 1513832.0007000007], [16110331.0312, 1513786.6636000015], [16110448.063600004, 1513817.739500001], [16110578.979400001, 1513959.0467999987], [16110473.0784, 1514134.6917999983], [16110535.944300003, 1514183.5357999988], [16110505.707000002, 1514231.511599999], [16110549.965300001, 1514278.7769000009], [16110558.2971, 1514284.0084000006], [16110577.534400001, 1514267.7892999984], [16110625.1118, 1514308.5258999988], [16110660.745499998, 1514331.8159000017], [16110709.870700002, 1514356.1684999987], [16110759.965800002, 1514376.3134999983], [16110805.017800003, 1514387.9776999988]]], [[[16103946.522799999, 1505653.451299999], [16103949.275300004, 1505593.889800001], [16103808.9172, 1505594.761], [16103818.248400003, 1505535.2622000016], [16103815.311800003, 1505497.7162999995], [16103815.830300003, 1505442.547600001], [16103808.7777, 1505376.2725999989], [16103789.779299997, 1505297.7457000017], [16103743.713699996, 1505182.5474000014], [16103705.053499997, 1505096.1096], [16103671.885700002, 1505008.6215000004], [16103624.320200004, 1504936.4442999996], [16103603.9978, 1504882.1816999987], [16103596.8627, 1504824.7347000018], [16103572.113300003, 1504774.8442000002], [16103561.461199999, 1504741.6396999992], [16103561.865599997, 1504698.6092999987], [16103573.316699997, 1504646.856899999], [16103585.843199998, 1504597.3214999996], [16103574.519900002, 1504518.870099999], [16103561.965400003, 1504454.751600001], [16103540.6923, 1504385.0331999995], [16103499.633100003, 1504320.6435999982], [16103461.853200004, 1504257.388799999], [16103418.591300003, 1504194.0819999985], [16103386.6923, 1504155.4061999992], [16103402.097099997, 1504135.4835], [16103341.802699998, 1504084.2144000009], [16103337.6664, 1504058.2765000015], [16103335.606600001, 1504041.020300001], [16103328.848899998, 1504033.6559999995], [16103283.512699999, 1503984.2501000017], [16103326.663400002, 1503942.731899999], [16103252.7562, 1503864.3460999988], [16103189.448200002, 1503797.2014000006], [16103135.602200001, 1503740.0920000002], [16103027.537299998, 1503833.7206000015], [16103023.238899998, 1503796.3973999992], [16102975.7703, 1503714.293299999], [16102962.811999999, 1503693.2052000016], [16102930.172399998, 1503666.4123999998], [16102903.045400001, 1503636.3619000018], [16102884.688900001, 1503606.395300001], [16102871.834700003, 1503574.2743000016], [16102864.378899999, 1503551.0320999995], [16102878.3635, 1503543.6966000013], [16102913.9617, 1503525.0238000005], [16102881.446900003, 1503484.991700001], [16102845.934500001, 1503414.0362999998], [16102823.525600001, 1503348.7230000012], [16102812.193099998, 1503350.3944000006], [16102788.392399997, 1503353.9046999998], [16102761.4322, 1503306.2019999996], [16102734.576300003, 1503247.4668000005], [16102703.241400003, 1503198.6193000004], [16102659.858199999, 1503148.5535000004], [16102650.116400003, 1503135.2199999988], [16102637.3979, 1503088.7569999993], [16102635.527800001, 1503054.5348000005], [16102610.739799999, 1503009.0599999987], [16102570.812200002, 1502941.3737000003], [16102613.442000002, 1502955.0212000012], [16102638.427299999, 1502979.5337000005], [16102631.601899996, 1502946.6402999982], [16102628.9837, 1502909.0320000015], [16102628.244599998, 1502896.6843000017], [16102627.407399997, 1502870.4943999983], [16102626.551200002, 1502843.7065999992], [16102629.0453, 1502811.7333000004], [16102585.381800003, 1502791.4560000002], [16102560.952, 1502824.3233999982], [16102451.647600003, 1502822.3337999992], [16102342.343500003, 1502820.3438999988], [16102233.0392, 1502818.3533999994], [16102123.735100001, 1502816.3625000007], [16102014.431199998, 1502814.371199999], [16101905.1272, 1502812.3795999996], [16101795.823399998, 1502810.3872999996], [16101830.7962, 1502914.878899999], [16101865.769100003, 1503019.3707000017], [16101900.742200002, 1503123.8630999997], [16101935.715499997, 1503228.355799999], [16101970.689000003, 1503332.8487999998], [16102022.509800002, 1503428.6363999993], [16102074.330899999, 1503524.4243], [16102126.152199998, 1503620.2124000005], [16102177.974, 1503716.0007999986], [16102229.795999996, 1503811.7895000018], [16102281.618299998, 1503907.578499999], [16102333.441, 1504003.367899999], [16102385.2641, 1504099.1574000008], [16102437.087300003, 1504194.9472999983], [16102488.910899997, 1504290.7375000007], [16102540.735100001, 1504386.5278999992], [16102591.770400003, 1504479.8638000004], [16102642.806199998, 1504573.1999999993], [16102693.842299998, 1504666.5366000012], [16102744.878799997, 1504759.873399999], [16102795.915600002, 1504853.2102999985], [16102846.952600002, 1504946.547699999], [16102897.9899, 1505039.8850999996], [16102949.027599998, 1505133.2230000012], [16103000.0656, 1505226.5612000003], [16103051.1039, 1505319.8993999995], [16103102.142300002, 1505413.2382999994], [16103153.181400001, 1505506.5769999996], [16103204.220600002, 1505599.9162999988], [16103254.7328, 1505692.2916], [16103305.2452, 1505784.6669000015], [16103355.758000001, 1505877.0427], [16103406.2711, 1505969.4188], [16103525.290200002, 1505981.3170000017], [16103653.082900003, 1505996.4640000015], [16103780.876000002, 1506011.6105000004], [16103807.068099998, 1505908.1319000013], [16103831.717799999, 1505852.0888999999], [16103934.120499998, 1505689.7481000014], [16103946.522799999, 1505653.451299999]]]]}}]}