{"type": "FeatureCollection", "name": "Illinois_park", "crs": {"type": "name", "properties": {"name": "urn:ogc:def:crs:EPSG::3857"}}, "features": [{"type": "Feature", "properties": {"OBJECTID": 20, "CreationDate": "2025-01-14T11:11:09Z", "Creator": "NPS_WASO_LANDS", "EditDate": "2025-01-14T11:11:09Z", "Editor": "NPS_WASO_LANDS", "GlobalID": "{9B7364B0-E55F-439A-9304-7D202D861667}", "AreaID": 465, "UNIT_CODE": "TILL", "GIS_Notes": "Lands - https://landsnet.nps.gov/tractsnet/documents/TILL/Metadata/till_metadata.xml", "UNIT_NAME": "Emmett Till and Mamie Till-Mobley National Monument", "DATE_EDIT": "2024-12-16T00:00:00Z", "STATE": "IL", "REGION": "SE", "GNIS_ID": null, "UNIT_TYPE": "National Monument", "CREATED_BY": "Lands", "METADATA": "https://irma.nps.gov/DataStore/Reference/Profile/2286726", "PARKNAME": "Emmet TIill AND Mamie Till-Mobley", "SHAPE_Length": 1336.9046547309845, "SHAPE_Area": 34868.57972989326}, "geometry": {"type": "MultiPolygon", "coordinates": [[[[-10059907.1542, 4024911.7158999965], [-10059923.6669, 4024911.1454000026], [-10059925.2448, 4024957.226499997], [-10059908.7321, 4024957.7971], [-10059907.1542, 4024911.7158999965]]], [[[-10059879.2327, 4024836.090800002], [-10059917.3766, 4024834.4804000035], [-10059917.3968, 4024834.4805999994], [-10059917.5567, 4024834.4905999973], [-10059917.7151, 4024834.514700003], [-10059917.8707, 4024834.5524000004], [-10059918.0225, 4024834.603500001], [-10059918.1693, 4024834.6679999977], [-10059918.31, 4024834.744900003], [-10059918.4434, 4024834.833899997], [-10059918.5686, 4024834.934100002], [-10059918.6846, 4024835.045000002], [-10059918.7907, 4024835.1657000035], [-10059918.8857, 4024835.2951999977], [-10059918.9692, 4024835.4324999973], [-10059919.0405, 4024835.5764999986], [-10059919.0989, 4024835.726300001], [-10059919.1443, 4024835.8806999996], [-10059919.1761, 4024836.0383], [-10059920.864, 4024882.986299999], [-10059920.8661, 4024883.085900001], [-10059920.8593, 4024883.2016000003], [-10059920.8424, 4024883.316200003], [-10059920.8157, 4024883.4289999977], [-10059920.7792, 4024883.538800001], [-10059920.7334, 4024883.6450999975], [-10059920.6785, 4024883.7470000014], [-10059920.615, 4024883.843800001], [-10059920.5434, 4024883.9345000014], [-10059920.4641, 4024884.0187000036], [-10059920.3779, 4024884.0956000015], [-10059920.2853, 4024884.1646], [-10059920.1871, 4024884.2251999974], [-10059920.0839, 4024884.277099997], [-10059919.9768, 4024884.3197000027], [-10059919.8661, 4024884.3527999967], [-10059919.7531, 4024884.376000002], [-10059919.6386, 4024884.3893000036], [-10059880.4077, 4024886.1906000003], [-10059880.3279, 4024886.1917999983], [-10059880.2063, 4024886.1850000024], [-10059880.0859, 4024886.1674999967], [-10059879.9673, 4024886.1394999996], [-10059879.8518, 4024886.101400003], [-10059879.74, 4024886.053000003], [-10059879.6326, 4024885.9952000007], [-10059879.531, 4024885.9280999973], [-10059879.4352, 4024885.852499999], [-10059879.3466, 4024885.7687000036], [-10059879.2655, 4024885.677500002], [-10059879.1927, 4024885.579499997], [-10059879.1285, 4024885.4755999967], [-10059879.0739, 4024885.3663000017], [-10059879.0286, 4024885.2528000027], [-10059878.9935, 4024885.1357000023], [-10059878.9691, 4024885.015900001], [-10059877.4141, 4024837.8413999975], [-10059877.4176, 4024837.7892000005], [-10059877.4371, 4024837.6294], [-10059877.4705, 4024837.472099997], [-10059877.5175, 4024837.3183000013], [-10059877.5775, 4024837.169200003], [-10059877.6504, 4024837.025799997], [-10059877.7353, 4024836.889399998], [-10059877.8318, 4024836.761], [-10059877.939, 4024836.6415000036], [-10059878.0562, 4024836.5319000036], [-10059878.1825, 4024836.4328999966], [-10059878.3168, 4024836.3452999964], [-10059878.4583, 4024836.2698], [-10059878.6057, 4024836.2070000023], [-10059878.7581, 4024836.157399997], [-10059878.9142, 4024836.1213999987], [-10059879.0727, 4024836.099100001], [-10059879.2327, 4024836.090800002]]], [[[-9754439.4952, 5134226.634199999], [-9754505.0744, 5134225.479000002], [-9754505.6274, 5134256.0233], [-9754505.8135, 5134266.2075999975], [-9754506.9218, 5134327.288199998], [-9754443.5855, 5134328.388300002], [-9754443.6023, 5134326.3386999965], [-9754441.3059, 5134326.324500002], [-9754440.2313, 5134267.354500003], [-9754440.0533, 5134257.170500003], [-9754439.4952, 5134226.634199999]]], [[[-10048774.6195, 4006264.8910000026], [-10048698.6409, 4006147.6717000008], [-10048817.6998, 4006127.1965000033], [-10048955.3759, 4006129.9640000015], [-10048955.3163, 4006227.1948999986], [-10048859.4629, 4006226.8483999968], [-10048822.1636, 4006269.5273], [-10048774.6195, 4006264.8910000026]]]]}}, {"type": "Feature", "properties": {"OBJECTID": 253, "CreationDate": "2025-01-14T11:11:12Z", "Creator": "NPS_WASO_LANDS", "EditDate": "2025-01-14T11:11:12Z", "Editor": "NPS_WASO_LANDS", "GlobalID": "{3CE428FB-9824-4A24-85E3-8814AE4BA5E1}", "AreaID": 263, "UNIT_CODE": "LECL", "GIS_Notes": "Lands - http://landsnet.nps.gov/tractsnet/documents/LECL/Metadata/lecl_metadata.xml", "UNIT_NAME": "Lewis and Clark National Historic Trail", "DATE_EDIT": "2017-01-13T00:00:00Z", "STATE": "IL", "REGION": "MW", "GNIS_ID": "2733427", "UNIT_TYPE": "National Trails System", "CREATED_BY": "Lands", "METADATA": "https://irma.nps.gov/DataStore/Reference/Profile/1048008", "PARKNAME": "Lewis and Clark", "SHAPE_Length": 3496.824391265526, "SHAPE_Area": 564370.7679100675}, "geometry": {"type": "MultiPolygon", "coordinates": [[[[-10667971.2279, 4963467.224399999], [-10667928.7633, 4963592.835600004], [-10667893.6603, 4963603.237400003], [-10667864.157, 4963580.741800003], [-10667820.2296, 4963576.921999998], [-10667806.4768, 4963565.543799996], [-10667767.2662, 4963529.941500001], [-10667728.9383, 4963493.383699998], [-10667691.5165, 4963455.891999997], [-10667666.8002, 4963430.159400001], [-10667593.0215, 4963352.7042], [-10667755.2411, 4963218.015100002], [-10667747.5934, 4962936.4755000025], [-10667823.8416, 4962935.231600001], [-10667843.5914, 4962934.9092999995], [-10667842.9296, 4962912.7883], [-10667829.6141, 4962400.444799997], [-10667839.5632, 4962400.308200002], [-10668363.6611, 4962393.233599998], [-10668378.8466, 4962911.8068], [-10668365.9079, 4962914.014799997], [-10668354.8895, 4962976.116300002], [-10668222.3783, 4963179.821599998], [-10668162.7564, 4963188.450099997], [-10668183.1345, 4963252.185199998], [-10668133.0725, 4963291.383699998], [-10668128.7754, 4963294.748099998], [-10668115.604, 4963305.647], [-10668111.4306, 4963309.100400001], [-10668106.1273, 4963313.488499999], [-10668101.5119, 4963317.307499997], [-10668043.522, 4963365.545299999], [-10667971.2279, 4963467.224399999]]]]}}, {"type": "Feature", "properties": {"OBJECTID": 254, "CreationDate": "2025-01-14T11:11:12Z", "Creator": "NPS_WASO_LANDS", "EditDate": "2025-01-14T11:11:12Z", "Editor": "NPS_WASO_LANDS", "GlobalID": "{509C8BC5-6799-457C-B3CB-E43EA01A53B0}", "AreaID": 264, "UNIT_CODE": "RRBH", "GIS_Notes": "Lands - http://landsnet.nps.gov/tractsnet/documents/RRBH/Metadata/rrbh_metadata.xml", "UNIT_NAME": "Ronald Reagan Boyhood Home National Historic Site", "DATE_EDIT": "2013-01-03T00:00:00Z", "STATE": "IL", "REGION": "MW", "GNIS_ID": "2733441", "UNIT_TYPE": "National Historic Site", "CREATED_BY": "Lands", "METADATA": "https://irma.nps.gov/DataStore/Reference/Profile/2192766", "PARKNAME": "Ronald Reagan Boyhood Home", "SHAPE_Length": 490.52018284492624, "SHAPE_Area": 7381.067927789891}, "geometry": {"type": "MultiPolygon", "coordinates": [[[[-9960877.7278, 5136445.5776999965], [-9960887.2297, 5136474.8116], [-9960910.445, 5136467.166100003], [-9960900.9388, 5136437.932099998], [-9960935.7572, 5136426.468000002], [-9960945.2614, 5136455.704099998], [-9960954.749, 5136484.888700001], [-9960964.2241, 5136514.0383], [-9960906.1981, 5136533.148400001], [-9960890.3998, 5136484.559100002], [-9960832.3698, 5136503.668700002], [-9960818.781, 5136465.755400002], [-9960877.7278, 5136445.5776999965]]]]}}, {"type": "Feature", "properties": {"OBJECTID": 256, "CreationDate": "2025-01-14T11:11:12Z", "Creator": "NPS_WASO_LANDS", "EditDate": "2025-01-14T11:11:12Z", "Editor": "NPS_WASO_LANDS", "GlobalID": "{3A78C60A-3271-4ACA-80D4-3C37A7E3785A}", "AreaID": 266, "UNIT_CODE": "JEFF", "GIS_Notes": "Lands - http://landsnet.nps.gov/tractsnet/documents/JEFF/Metadata/jeff_metadata.xml", "UNIT_NAME": "Gateway Arch National Park", "DATE_EDIT": "2024-09-18T00:00:00Z", "STATE": "IL", "REGION": "MW", "GNIS_ID": "765817", "UNIT_TYPE": "National Park", "CREATED_BY": "Lands", "METADATA": "https://irma.nps.gov/DataStore/Reference/Profile/2171833", "PARKNAME": "Gateway Arch", "SHAPE_Length": 9291.974590065513, "SHAPE_Area": 1292534.0472069455}, "geometry": {"type": "MultiPolygon", "coordinates": [[[[-10039090.9965, 4668697.095200002], [-10039078.1267, 4668695.372000001], [-10039076.8249, 4668701.8554000035], [-10039074.6355, 4668701.514399998], [-10039051.0118, 4668698.797899999], [-10039054.0927, 4668676.184799999], [-10039098.3033, 4668466.856899999], [-10039102.1145, 4668449.924000002], [-10039106.3729, 4668433.097999997], [-10039111.0756, 4668416.390699998], [-10039116.2192, 4668399.8138], [-10039384.9765, 4667572.521200001], [-10039401.3084, 4667522.969499998], [-10039418.0644, 4667473.559600003], [-10039435.2432, 4667424.295199998], [-10039486.3687, 4667279.675999999], [-10039489.6113, 4667281.0572], [-10039704.7216, 4667372.684699997], [-10039840.9618, 4667430.8433], [-10039808.0681, 4667529.667800002], [-10039776.312, 4667629.616300002], [-10039676.8549, 4667948.717], [-10039636.3231, 4668078.756999999], [-10039778.188, 4668124.044299997], [-10039908.038, 4668165.954000004], [-10039872.982, 4668275.057499997], [-10039743.0304, 4668233.397], [-10039602.9624, 4668188.152800001], [-10039503.2619, 4668513.906900004], [-10039470.2185, 4668622.627499998], [-10039473.6316, 4668623.741700001], [-10039458.0203, 4668726.928999998], [-10039455.9006, 4668740.9406], [-10039453.0016, 4668753.196400002], [-10039440.0643, 4668751.430699997], [-10039403.5296, 4668746.564300001], [-10039399.5889, 4668745.8992], [-10039324.8287, 4668735.817699999], [-10039309.3361, 4668733.510799997], [-10039278.0471, 4668729.263599999], [-10039268.4285, 4668728.007100001], [-10039251.0004, 4668725.520999998], [-10039242.5794, 4668724.355700001], [-10039201.0482, 4668718.749899998], [-10039184.3198, 4668716.491999999], [-10039168.2137, 4668714.336099997], [-10039127.5574, 4668708.682400003], [-10039118.8222, 4668707.5075], [-10039089.8485, 4668703.610200003], [-10039090.9965, 4668697.095200002]], [[-10039639.29, 4667936.661499999], [-10039585.6281, 4667919.439999998], [-10039562.1876, 4667992.933899999], [-10039615.9184, 4668009.940200001], [-10039639.29, 4667936.661499999]]], [[[-10038258.9842, 4668572.053000003], [-10038235.9039, 4668568.222000003], [-10038234.4008, 4668579.4771], [-10038092.8411, 4668555.025200002], [-10038094.9164, 4668545.762199998], [-10038140.9883, 4668283.2793999985], [-10038060.4004, 4668269.017700002], [-10038071.5569, 4668205.457800001], [-10038098.6038, 4668051.430299997], [-10038102.72, 4668027.988799997], [-10038117.9022, 4667941.492399998], [-10037916.4398, 4667905.837399997], [-10037932.0294, 4667817.0295], [-10037953.9173, 4667692.376800001], [-10037866.6191, 4667676.925800003], [-10037827.2861, 4667669.617399998], [-10037831.8323, 4667637.412199996], [-10037835.1216, 4667614.170999996], [-10037843.4368, 4667555.381499998], [-10037865.3785, 4667559.263999999], [-10037868.9165, 4667559.890100002], [-10037912.4519, 4667568.262800001], [-10037973.5523, 4667579.076800004], [-10038007.3694, 4667386.426899999], [-10038236.9371, 4667427.053499997], [-10038237.601, 4667427.170900002], [-10038326.5225, 4666920.514300004], [-10038439.9527, 4666931.560599998], [-10038568.5029, 4666965.767200001], [-10038625.015, 4666982.692699999], [-10038718.7531, 4667013.801600002], [-10038734.3784, 4667019.925899997], [-10038730.5208, 4667035.4201000035], [-10038728.7696, 4667059.012999997], [-10038719.2998, 4667088.945600003], [-10038708.7768, 4667116.0612], [-10038696.8514, 4667152.684799999], [-10038694.3982, 4667173.813100003], [-10038679.6377, 4667217.408299997], [-10038664.2045, 4667263.892499998], [-10038650.5259, 4667311.4331], [-10038636.8481, 4667365.664399996], [-10038615.0829, 4667428.6153], [-10038607.7183, 4667462.421999998], [-10038612.6331, 4667479.6765], [-10038613.3366, 4667492.001599997], [-10038599.652, 4667497.285499997], [-10038594.7404, 4667506.0896999985], [-10038579.3065, 4667551.518700004], [-10038581.7645, 4667565.252099998], [-10038578.9588, 4667578.281999998], [-10038574.0473, 4667586.734099999], [-10038570.473, 4667591.912600003], [-10038547.6732, 4667666.5713], [-10038534.6946, 4667709.183200002], [-10038511.8871, 4667776.301299997], [-10038505.9261, 4667816.0955], [-10038495.0535, 4667863.9903], [-10038488.7188, 4667890.925700001], [-10038483.1065, 4667911.703699999], [-10038486.9678, 4667922.268100001], [-10038491.5309, 4667932.480300002], [-10038491.8831, 4667942.6928], [-10038493.9896, 4667952.200900003], [-10038491.8855, 4667963.118199997], [-10038486.6227, 4667971.922899999], [-10038470.8315, 4667972.981299996], [-10038464.1658, 4667988.124899998], [-10038455.7463, 4668012.7773], [-10038464.1683, 4668011.015500002], [-10038468.0294, 4668019.4668999985], [-10038464.1702, 4668027.215000004], [-10038453.2924, 4668035.316100001], [-10038448.3732, 4668035.886799999], [-10038446.6201, 4668049.269100003], [-10038438.9021, 4668070.399800003], [-10038439.2543, 4668081.3169], [-10038438.5535, 4668092.234200001], [-10038431.1852, 4668101.039099999], [-10038421.7111, 4668108.787799999], [-10038420.6595, 4668119.7051], [-10038412.5653, 4668150.520000003], [-10038412.9175, 4668161.085100003], [-10038418.883, 4668160.732199997], [-10038417.8316, 4668173.058300003], [-10038412.9202, 4668186.441200003], [-10038408.7115, 4668209.3325999975], [-10038405.5558, 4668233.280599996], [-10038405.206, 4668244.5502], [-10038402.3999, 4668256.876400001], [-10038398.4819, 4668267.622000001], [-10038393.2197, 4668284.174699999], [-10038389.0099, 4668297.909699999], [-10038383.7491, 4668327.493000001], [-10038378.838, 4668345.1022000015], [-10038374.6291, 4668367.993900001], [-10038367.8829, 4668389.6461], [-10038360.8677, 4668424.512199998], [-10038357.0105, 4668454.095700003], [-10038348.5915, 4668488.257799998], [-10038342.9791, 4668512.558799997], [-10038333.1568, 4668552.708400004], [-10038328.2468, 4668582.996699996], [-10038311.6136, 4668580.442500003], [-10038282.4029, 4668575.785999998], [-10038258.9842, 4668572.053000003]]]]}}, {"type": "Feature", "properties": {"OBJECTID": 258, "CreationDate": "2025-01-14T11:11:12Z", "Creator": "NPS_WASO_LANDS", "EditDate": "2025-01-14T11:11:12Z", "Editor": "NPS_WASO_LANDS", "GlobalID": "{BD26F848-C379-4586-884A-12E71856CE83}", "AreaID": 268, "UNIT_CODE": "LIHO", "GIS_Notes": "Lands - http://landsnet.nps.gov/tractsnet/documents/LIHO/Metadata/liho_metadata.xml", "UNIT_NAME": "Lincoln Home National Historic Site", "DATE_EDIT": "2017-06-06T00:00:00Z", "STATE": "IL", "REGION": "MW", "GNIS_ID": "1821086", "UNIT_TYPE": "National Historic Site", "CREATED_BY": "Lands", "METADATA": "https://irma.nps.gov/DataStore/Reference/Profile/1048176", "PARKNAME": "Lincoln Home", "SHAPE_Length": 1213.3309349324252, "SHAPE_Area": 93771.68244057552}, "geometry": {"type": "MultiPolygon", "coordinates": [[[[-9979101.9247, 4836662.023900002], [-9979099.5552, 4836660.731700003], [-9979097.952, 4836659.0178999975], [-9979096.9482, 4836656.455200002], [-9979097.1387, 4836652.876900002], [-9979103.9785, 4836357.637000002], [-9979103.9872, 4836356.139600001], [-9979104.5804, 4836354.515699998], [-9979105.8871, 4836352.895400003], [-9979107.4496, 4836351.862999998], [-9979109.9162, 4836351.486900002], [-9979111.6666, 4836351.627300002], [-9979117.945, 4836351.699000001], [-9979387.8459, 4836357.714900002], [-9979390.3746, 4836357.817199998], [-9979392.5529, 4836358.180100001], [-9979397.531, 4836359.130099997], [-9979400.6729, 4836360.172700003], [-9979402.9984, 4836361.378300004], [-9979404.6816, 4836363.644299999], [-9979405.2245, 4836365.094899997], [-9979405.1548, 4836369.819799997], [-9979398.9071, 4836663.7962], [-9979398.4405, 4836665.668899998], [-9979397.3364, 4836667.446599998], [-9979395.7801, 4836668.672499999], [-9979393.9989, 4836669.3483000025], [-9979392.5828, 4836669.348999999], [-9979101.9247, 4836662.023900002]]]]}}, {"type": "Feature", "properties": {"OBJECTID": 416, "CreationDate": "2025-01-14T11:11:14Z", "Creator": "NPS_WASO_LANDS", "EditDate": "2025-01-14T11:11:14Z", "Editor": "NPS_WASO_LANDS", "GlobalID": "{709E6FBA-8F21-44AA-A192-0D1E4DD84BF0}", "AreaID": 441, "UNIT_CODE": "PULL", "GIS_Notes": "Lands - http://landsnet.nps.gov/tractsnet/documents/PULL/Metadata/pull_metadata.xml", "UNIT_NAME": "Pullman National Historical Park", "DATE_EDIT": "2024-09-18T00:00:00Z", "STATE": "IL", "REGION": "MW", "GNIS_ID": "2766905", "UNIT_TYPE": "National Historical Park", "CREATED_BY": "Lands", "METADATA": "https://irma.nps.gov/DataStore/Reference/Profile/2221824", "PARKNAME": "Pullman", "SHAPE_Length": 8980.516866375263, "SHAPE_Area": 1528625.5275915428}, "geometry": {"type": "MultiPolygon", "coordinates": [[[[-9751906.9686, 5117257.2080999985], [-9751895.3224, 5116988.766999997], [-9751408.253, 5116999.951700002], [-9751489.6319, 5116874.996699996], [-9751510.2072, 5116837.986599997], [-9751571.2356, 5116729.847000003], [-9751610.6497, 5116655.342], [-9751680.9063, 5116531.2632], [-9751723.0531, 5116455.081100002], [-9751880.9286, 5116446.904299997], [-9752012.3946, 5116440.263899997], [-9752287.2064, 5116434.837300003], [-9752286.1823, 5116168.935900003], [-9752276.1917, 5115883.909400001], [-9752263.3889, 5115507.118000001], [-9752396.2353, 5115501.895199999], [-9752394.3273, 5115460.002099998], [-9752382.2207, 5115194.182099998], [-9752376.7697, 5115074.4934], [-9752174.9829, 5115073.983499996], [-9752181.2001, 5114517.033500001], [-9752182.7121, 5114422.866499998], [-9752184.8027, 5114306.823700003], [-9752192.8552, 5114230.7766999975], [-9752205.5695, 5114185.943599999], [-9752226.3361, 5114142.813000001], [-9752250.917, 5114096.845299996], [-9752320.4216, 5113998.667800002], [-9752848.8656, 5113994.3684], [-9752681.2794, 5115070.915899999], [-9752666.9028, 5115162.878200002], [-9752662.1602, 5115190.031400003], [-9752660.9053, 5115197.2161], [-9752621.5165, 5115450.548600003], [-9752595.2419, 5115574.605800003], [-9752546.2532, 5115879.097000003], [-9752311.3035, 5117246.251199998], [-9751906.9686, 5117257.2080999985]]]]}}, {"type": "Feature", "properties": {"OBJECTID": 435, "CreationDate": "2025-01-14T11:11:14Z", "Creator": "NPS_WASO_LANDS", "EditDate": "2025-01-14T11:11:14Z", "Editor": "NPS_WASO_LANDS", "GlobalID": "{BD66096D-B726-4F40-83C1-041B16F4FB62}", "AreaID": 464, "UNIT_CODE": "NEPH", "GIS_Notes": "Lands - https://landsnet.nps.gov/tractsnet/documents/Neph/Metadata/neph_metadata.xml", "UNIT_NAME": "New Philadelphia National Historic Site", "DATE_EDIT": "2024-09-18T00:00:00Z", "STATE": "IL", "REGION": "MW", "GNIS_ID": null, "UNIT_TYPE": "National Historic Site", "CREATED_BY": "Lands", "METADATA": "https://irma.nps.gov/DataStore/Reference/Profile/2299637", "PARKNAME": "New Philadelphia National Historic Site", "SHAPE_Length": 4444.406232744022, "SHAPE_Area": 841663.1732773301}, "geometry": {"type": "MultiPolygon", "coordinates": [[[[-10124520.3565, 4821632.779700004], [-10124533.8639, 4821497.802900001], [-10124535.3171, 4821483.282300003], [-10124563.415, 4821483.801700003], [-10124654.9304, 4821488.227399997], [-10124741.0627, 4821495.766599998], [-10124799.8191, 4821500.909000002], [-10124918.7521, 4821506.430399999], [-10124929.549, 4821504.170400001], [-10125076.3541, 4821473.415100001], [-10125313.9658, 4821484.440300003], [-10125449.9429, 4821483.702200003], [-10125459.8205, 4821483.648500003], [-10125459.8234, 4821499.534699999], [-10125459.844, 4821659.362199999], [-10125545.3876, 4821659.8671], [-10125580.9893, 4821660.077], [-10125669.9824, 4821660.601099998], [-10125670.7526, 4821660.605499998], [-10125767.8026, 4821661.148900002], [-10125992.3866, 4821662.402900003], [-10125992.6721, 4822176.601400003], [-10125993.3924, 4822204.515299998], [-10125992.8733, 4822293.014799997], [-10125548.5843, 4822288.508299999], [-10124937.7663, 4822282.280199997], [-10124932.7383, 4822195.711800002], [-10124927.2218, 4822170.164300002], [-10124837.7676, 4821636.825800002], [-10124520.3561, 4821632.835600004], [-10124520.3509, 4821632.835500002], [-10124520.3565, 4821632.779700004]]]]}}, {"type": "Feature", "properties": {"OBJECTID": 437, "CreationDate": "2025-01-14T11:11:14Z", "Creator": "NPS_WASO_LANDS", "EditDate": "2025-01-14T11:11:14Z", "Editor": "NPS_WASO_LANDS", "GlobalID": "{63F30461-E742-4E80-BDD9-B38D18085D52}", "AreaID": 467, "UNIT_CODE": "SPRA", "GIS_Notes": "Lands - https://landsnet.nps.gov/tractsnet/documents/SPRA/Metadata/spra_metadata.xml", "UNIT_NAME": "Springfield 1908 Race Riot National Monument", "DATE_EDIT": "2024-09-18T00:00:00Z", "STATE": "IL", "REGION": "MW", "GNIS_ID": null, "UNIT_TYPE": "National Monument", "CREATED_BY": "Lands", "METADATA": "https://irma.nps.gov/DataStore/Reference/Profile/2305706", "PARKNAME": "Springfield 1908 Race Riot", "SHAPE_Length": 939.1697615938801, "SHAPE_Area": 22124.02907777424}, "geometry": {"type": "MultiPolygon", "coordinates": [[[[-9978941.4172, 4837623.004199997], [-9978935.4598, 4837512.939400002], [-9978935.0727, 4837505.670000002], [-9978934.6767, 4837505.691100001], [-9978934.5528, 4837503.359999999], [-9978934.9484, 4837503.3389], [-9978934.6627, 4837497.976400003], [-9978953.2233, 4837498.362099998], [-9978953.182, 4837500.350900002], [-9978959.6318, 4837500.485100001], [-9979055.8387, 4837502.4848000035], [-9979054.2861, 4837581.629500002], [-9978951.4851, 4837579.595700003], [-9978950.6062, 4837623.332000002], [-9978941.4172, 4837623.004199997]]], [[[-9978773.1008, 4837623.715400003], [-9978775.3816, 4837502.144100003], [-9978777.0522, 4837496.687299997], [-9978858.8674, 4837498.3895], [-9978873.1834, 4837498.687100001], [-9978876.3256, 4837556.743000001], [-9978878.0718, 4837589.0075], [-9978859.1061, 4837588.6193], [-9978858.3785, 4837625.456100002], [-9978773.1008, 4837623.715400003]]]]}}]}