{"type": "FeatureCollection", "name": "Iowa_park", "crs": {"type": "name", "properties": {"name": "urn:ogc:def:crs:EPSG::3857"}}, "features": [{"type": "Feature", "properties": {"OBJECTID": 4, "CreationDate": "2025-01-14T11:11:09Z", "Creator": "NPS_WASO_LANDS", "EditDate": "2025-01-14T11:11:09Z", "Editor": "NPS_WASO_LANDS", "GlobalID": "{73E134FC-CCE8-4F57-857C-1E2F1AA68336}", "AreaID": 243, "UNIT_CODE": "EFMO", "GIS_Notes": "Lands - http://landsnet.nps.gov/tractsnet/documents/EFMO/Metadata/efmo_metadata.xml", "UNIT_NAME": "Effigy Mounds National Monument", "DATE_EDIT": "2024-12-16T00:00:00Z", "STATE": "IA", "REGION": "MW", "GNIS_ID": "456249", "UNIT_TYPE": "National Monument", "CREATED_BY": "Lands", "METADATA": "https://irma.nps.gov/DataStore/Reference/Profile/1048392", "PARKNAME": "Effigy Mounds", "SHAPE_Length": 44134.784707729414, "SHAPE_Area": 18951876.175420698}, "geometry": {"type": "MultiPolygon", "coordinates": [[[[-10152051.529, 5326849.415100001], [-10152053.8948, 5326849.4331], [-10152065.9266, 5326974.0405], [-10152051.7567, 5326982.8561], [-10152075.7986, 5327573.876000002], [-10152052.4319, 5327573.434500001], [-10152051.529, 5326849.415100001]]], [[[-10148294.9355, 5302089.997699998], [-10149107.9519, 5302107.2729], [-10149121.6191, 5302134.861400001], [-10149146.3525, 5302197.919699997], [-10149149.1617, 5302208.978799999], [-10149149.7908, 5302211.4551], [-10149161.7129, 5302258.388899997], [-10149177.3587, 5302282.369599998], [-10149182.0001, 5302319.753600001], [-10149193.6827, 5302360.519199997], [-10149186.8533, 5302407.790399998], [-10149166.0144, 5302499.137900002], [-10149150.0208, 5302578.026000001], [-10149146.2366, 5302596.691600002], [-10149129.9886, 5302671.684699997], [-10149114.6911, 5302740.2124999985], [-10149096.2691, 5302816.306699999], [-10149083.9397, 5302903.566399999], [-10149078.0254, 5302968.139700003], [-10149077.8173, 5303002.528300002], [-10149077.539, 5303048.5436], [-10149079.7427, 5303077.121299997], [-10149077.2315, 5303132.537100002], [-10149075.0626, 5303186.646200001], [-10149075.989, 5303213.844899997], [-10149065.5471, 5303398.992799997], [-10149056.5214, 5303519.364399999], [-10149051.8702, 5303591.142999999], [-10149026.5711, 5303826.482900001], [-10149010.6056, 5304011.024700001], [-10148788.8876, 5304001.630099997], [-10148781.1703, 5303873.3488000035], [-10148667.9776, 5303795.861900002], [-10148590.4961, 5303549.1985], [-10148586.4472, 5303496.766599998], [-10148568.6926, 5303178.393399999], [-10148562.5065, 5303103.875500001], [-10148569.369, 5302987.499300003], [-10148538.3078, 5302847.471900001], [-10148559.5408, 5302736.465599999], [-10148563.9137, 5302643.610200003], [-10148557.1814, 5302554.875399999], [-10148541.2537, 5302506.123300001], [-10148524.0119, 5302439.105099998], [-10148471.0941, 5302277.546700001], [-10148364.3018, 5302228.099200003], [-10148306.6261, 5302177.278800003], [-10148294.9355, 5302089.997699998]]], [[[-10150021.3139, 5327656.7434], [-10150049.9226, 5327586.953000002], [-10150054.4104, 5327511.630999997], [-10150059.497, 5327414.422700003], [-10150056.479, 5327258.584100001], [-10150016.7197, 5327026.293799996], [-10149959.0924, 5326669.185500003], [-10149951.7761, 5326560.695200004], [-10149971.2349, 5326413.410999998], [-10149985.837, 5326240.866300002], [-10149997.9574, 5326140.599699996], [-10150006.3155, 5326075.017099999], [-10150012.5683, 5326017.838399999], [-10150099.682, 5325883.9142], [-10150287.7067, 5325737.6778], [-10150340.8031, 5325690.440700002], [-10150390.9295, 5325633.382299997], [-10150424.6127, 5325585.611100003], [-10150462.3281, 5325508.732199997], [-10150469.0863, 5325439.118500002], [-10150473.9608, 5325379.193000004], [-10150461.5899, 5325298.2553], [-10150426.5092, 5325222.246200003], [-10150408.8704, 5325194.156000003], [-10150507.0272, 5325279.231899999], [-10150560.7353, 5325325.603], [-10150665.6815, 5325392.3583], [-10150771.2508, 5325426.3103], [-10150869.1301, 5325430.382299997], [-10150956.8207, 5325420.432700001], [-10151070.6432, 5325394.1906], [-10151163.1845, 5325372.2902000025], [-10151203.2807, 5325370.586199999], [-10151277.5221, 5325380.4441], [-10151312.0308, 5325394.493500002], [-10151348.2452, 5325417.865500003], [-10151390.4186, 5325456.7773], [-10151404.0868, 5325471.463399999], [-10151418.634, 5325492.292099997], [-10151437.918, 5325539.2958], [-10151456.426, 5325580.388800003], [-10151489.4356, 5325648.256999999], [-10151507.4433, 5325685.280599996], [-10151563.4466, 5325770.549900003], [-10151612.3941, 5325837.142499998], [-10151731.2793, 5325981.074199997], [-10151805.0594, 5326076.708400004], [-10151846.0888, 5326129.890299998], [-10151859.75, 5326147.597400002], [-10151863.8524, 5326152.915100001], [-10151901.2405, 5326231.894199997], [-10151917.374, 5326280.128600001], [-10151936.5184, 5326342.295599997], [-10151856.6801, 5326356.196900003], [-10151804.3099, 5326369.928900003], [-10151778.4688, 5326380.728500001], [-10151742.9016, 5326403.307300001], [-10151696.3187, 5326449.302500002], [-10151688.5335, 5326458.448700003], [-10151660.7717, 5326491.0638], [-10151636.0844, 5326538.265000001], [-10151631.3834, 5326552.7761999965], [-10151620.9886, 5326590.5402000025], [-10151606.4874, 5326622.505400002], [-10151582.7078, 5326654.611199997], [-10151552.9429, 5326685.104500003], [-10151529.0062, 5326701.374300003], [-10151517.0412, 5326706.9287], [-10151517.0973, 5326712.362000003], [-10151445.0951, 5326739.906900004], [-10151397.6178, 5326769.354199998], [-10151366.184, 5326761.926899999], [-10151286.0367, 5326803.919100001], [-10151227.3787, 5326841.602399997], [-10151069.2845, 5326923.312700003], [-10151023.9923, 5326961.207699999], [-10150969.5539, 5327081.834200002], [-10150972.8553, 5327479.945299998], [-10150823.6445, 5327480.001900002], [-10150823.1997, 5327571.038800001], [-10150824.7656, 5327659.861199997], [-10150973.9763, 5327659.8046], [-10150976.1639, 5328184.134999998], [-10150978.3516, 5328708.494199999], [-10150432.1751, 5328709.122100003], [-10150079.4326, 5328709.2214], [-10150003.6165, 5328476.1382], [-10149940.6974, 5328218.863300003], [-10149926.0174, 5328146.641199999], [-10149922.192, 5328042.9859], [-10149927.2109, 5327981.329099998], [-10149946.348, 5327912.659400001], [-10149964.7905, 5327859.6237], [-10149999.4486, 5327746.190300003], [-10150021.3139, 5327656.7434]]], [[[-10152051.1902, 5326585.353100002], [-10152051.0031, 5326443.789800003], [-10152011.1267, 5326445.279200003], [-10152002.0689, 5326407.495499998], [-10151952.3421, 5326225.468199998], [-10151915.6296, 5326146.486900002], [-10151907.6445, 5326129.3081], [-10151902.6176, 5326122.7924000025], [-10151843.8245, 5326046.586199999], [-10151769.5442, 5325950.304399997], [-10151651.0228, 5325806.814499997], [-10151603.6669, 5325742.387800001], [-10151550.1137, 5325660.8499], [-10151500.7996, 5325559.460699998], [-10151486.0252, 5325526.658299997], [-10151480.0855, 5325513.4705], [-10151464.6834, 5325479.273699999], [-10151447.7058, 5325452.1866], [-10151438.2156, 5325443.430500001], [-10151409.9439, 5325407.960900001], [-10151378.3139, 5325378.7773], [-10151334.6985, 5325350.628899999], [-10151290.1537, 5325332.493699998], [-10151205.4754, 5325321.25], [-10151156.4617, 5325323.332900003], [-10151059.5295, 5325346.2722999975], [-10150948.5525, 5325371.858199999], [-10150867.3813, 5325381.0682], [-10150779.9014, 5325377.4287], [-10150686.6215, 5325347.429399997], [-10150589.9973, 5325285.968000002], [-10150539.9384, 5325242.747699998], [-10150427.3132, 5325135.093800001], [-10150398.0962, 5325105.573299997], [-10150378.7462, 5325086.022399999], [-10150365.5921, 5325071.239100002], [-10150337.1421, 5325039.265100002], [-10150255.2997, 5324890.187600002], [-10150228.2227, 5324799.614399999], [-10150218.0458, 5324710.8330999985], [-10150222.3525, 5324517.9947], [-10150219.5593, 5324419.068999998], [-10150209.0069, 5324316.517499998], [-10150213.4407, 5324200.9529], [-10150211.4733, 5324178.657399997], [-10150186.759, 5324080.508299999], [-10150165.7204, 5323979.6954], [-10150161.883, 5323904.108400002], [-10150168.7525, 5323835.619900003], [-10150171.2884, 5323774.652400002], [-10150176.3659, 5323646.8138], [-10150177.7666, 5323385.081], [-10150185.4042, 5323186.1259], [-10150187.5732, 5322985.773699999], [-10150189.7405, 5322785.0198], [-10150198.0741, 5322661.8303999975], [-10150198.4321, 5322389.5832], [-10150196.1849, 5322194.812799998], [-10150194.5665, 5322088.287299998], [-10150195.0059, 5322006.1504999995], [-10150182.2874, 5321890.0559], [-10150141.9551, 5321723.124200001], [-10150835.1848, 5321725.1570999995], [-10150840.3563, 5321978.206500001], [-10150882.4367, 5321999.391999997], [-10151394.1487, 5322002.929099999], [-10151407.1664, 5322553.396700002], [-10151448.9283, 5324203.823399998], [-10151989.9569, 5324200.329800002], [-10151992.1652, 5324200.311700001], [-10152530.985, 5324196.805200003], [-10152544.9528, 5324746.929799996], [-10152545.3831, 5324760.960600004], [-10152545.5021, 5324765.675700001], [-10152559.7607, 5325331.197499998], [-10153108.1542, 5325329.831900001], [-10153085.1435, 5324205.535599999], [-10153639.3025, 5324214.266000003], [-10154188.7015, 5324222.4023], [-10154194.8366, 5324779.743000001], [-10153647.9248, 5324771.349799998], [-10153656.5477, 5325328.4663999975], [-10154200.972, 5325337.084700003], [-10154207.1083, 5325894.512500003], [-10154749.051, 5325903.393299997], [-10155290.9948, 5325912.242700003], [-10155289.8433, 5325354.258100003], [-10155834.29, 5325362.8134], [-10156373.4947, 5325363.3781], [-10156374.6123, 5325919.821199998], [-10156375.73, 5326476.296899997], [-10155831.598, 5326479.372400001], [-10155525.0359, 5326474.180100001], [-10155425.057, 5326472.4846], [-10155292.1464, 5326470.229000002], [-10155291.9029, 5326530.420199998], [-10155289.9059, 5327026.997400001], [-10154742.6716, 5327021.970799997], [-10154201.7027, 5327016.954000004], [-10154190.16, 5327581.968599997], [-10153647.6728, 5327581.047700003], [-10152579.0212, 5327575.373999998], [-10152199.7841, 5327573.317699999], [-10152184.3027, 5327503.108199999], [-10152170.9572, 5327432.458999999], [-10152159.76, 5327361.435500003], [-10152150.7213, 5327290.103399999], [-10152143.8495, 5327218.528999999], [-10152140.6709, 5327182.733000003], [-10152122.6534, 5327058.1765], [-10152130.4623, 5326973.401799999], [-10152121.6867, 5326888.895300001], [-10152102.087, 5326848.6543999985], [-10152092.0937, 5326782.322800003], [-10152080.2735, 5326716.2951000035], [-10152066.6355, 5326650.621600002], [-10152051.1902, 5326585.353100002]]]]}}, {"type": "Feature", "properties": {"OBJECTID": 7, "CreationDate": "2025-01-14T11:11:09Z", "Creator": "NPS_WASO_LANDS", "EditDate": "2025-01-14T11:11:09Z", "Editor": "NPS_WASO_LANDS", "GlobalID": "{40C5A9B8-9CB6-42AD-9FC7-FD6568C2D65E}", "AreaID": 257, "UNIT_CODE": "HEHO", "GIS_Notes": "Lands - http://landsnet.nps.gov/tractsnet/documents/HEHO/Metadata/heho_metadata.xml", "UNIT_NAME": "Herbert Hoover National Historic Site", "DATE_EDIT": "2024-12-16T00:00:00Z", "STATE": "IA", "REGION": "MW", "GNIS_ID": "457629", "UNIT_TYPE": "National Historic Site", "CREATED_BY": "Lands", "METADATA": "https://irma.nps.gov/DataStore/Reference/Profile/2188824", "PARKNAME": "Herbert Hoover", "SHAPE_Length": 5325.095975498962, "SHAPE_Area": 1357393.4019445695}, "geometry": {"type": "MultiPolygon", "coordinates": [[[[-10168376.9872, 5111867.769299999], [-10168378.8452, 5111603.750200003], [-10168403.9978, 5111603.923500001], [-10168445.4987, 5111604.2092999965], [-10168445.8148, 5111559.228799999], [-10168528.8586, 5111559.801600002], [-10168529.4932, 5111492.293499999], [-10168533.1239, 5111492.318499997], [-10168533.9606, 5111389.9135000035], [-10168544.8614, 5111390.009300001], [-10168598.0675, 5111390.476499997], [-10168598.3651, 5111358.527999997], [-10168598.5617, 5111337.414300002], [-10168598.8288, 5111308.718199998], [-10168599.7175, 5111213.277099997], [-10168643.053, 5111213.9021999985], [-10168654.2113, 5111214.063000001], [-10168681.0925, 5111214.450599998], [-10168694.1347, 5111214.638599999], [-10168695.1093, 5111097.5983000025], [-10168712.9539, 5111065.759099998], [-10168865.4381, 5110917.686999999], [-10168977.3208, 5110851.9498], [-10169396.4809, 5110837.547399998], [-10169702.0928, 5110854.008100003], [-10169715.9445, 5110855.733599998], [-10169903.4182, 5110879.0854], [-10170027.1881, 5110909.577100001], [-10170019.6691, 5111863.346900001], [-10169754.227, 5111870.246200003], [-10169739.5748, 5111870.626800001], [-10169705.899, 5111870.790799998], [-10169534.6376, 5111871.6237], [-10169439.7453, 5111744.428000003], [-10169420.0268, 5111717.996699996], [-10169273.288, 5111721.1369], [-10169187.7818, 5111722.9657000005], [-10169068.6667, 5111727.027900003], [-10168833.3335, 5111733.709600002], [-10168833.2402, 5111765.949299999], [-10168833.1703, 5111790.1281], [-10168833.0609, 5111827.947400004], [-10168771.8402, 5111828.0195999965], [-10168771.1117, 5111828.020499997], [-10168758.0457, 5111833.869099997], [-10168757.3179, 5111834.194899999], [-10168717.2997, 5111834.241800003], [-10168674.6063, 5111834.291599996], [-10168648.429, 5111835.416599996], [-10168602.8243, 5111835.040600002], [-10168602.1048, 5111835.034000002], [-10168602.2486, 5111871.1241], [-10168562.278, 5111870.529100001], [-10168516.2399, 5111869.843699999], [-10168489.3502, 5111869.443400003], [-10168482.8314, 5111869.346199997], [-10168455.9418, 5111868.945600003], [-10168429.0522, 5111868.545199998], [-10168402.1626, 5111868.144500002], [-10168376.9872, 5111867.769299999]]]]}}]}