{"type": "FeatureCollection", "name": "Kansas_park", "crs": {"type": "name", "properties": {"name": "urn:ogc:def:crs:EPSG::3857"}}, "features": [{"type": "Feature", "properties": {"OBJECTID": 234, "CreationDate": "2025-01-14T11:11:12Z", "Creator": "NPS_WASO_LANDS", "EditDate": "2025-01-14T11:11:12Z", "Editor": "NPS_WASO_LANDS", "GlobalID": "{06285D4B-2F68-4A41-8704-FB998DBF31AC}", "AreaID": 235, "UNIT_CODE": "BRVB", "GIS_Notes": "Lands - http://landsnet.nps.gov/tractsnet/documents/BRVB/Metadata/brvb_metadata.xml", "UNIT_NAME": "Brown v. Board of Education National Historical Park", "DATE_EDIT": "2024-03-18T00:00:00Z", "STATE": "KS", "REGION": "MW", "GNIS_ID": "2510335", "UNIT_TYPE": "National Historical Park", "CREATED_BY": "Lands", "METADATA": "https://irma.nps.gov/DataStore/Reference/Profile/1048389", "PARKNAME": "Brown V Board Of Education", "SHAPE_Length": 896.4924940822318, "SHAPE_Area": 22186.076240807568}, "geometry": {"type": "MultiPolygon", "coordinates": [[[[-10650610.7136, 4727161.924000002], [-10650652.8661, 4727032.134199999], [-10650709.2941, 4727051.251699999], [-10650666.2095, 4727180.952], [-10650610.7136, 4727161.924000002]]], [[[-10650636.7325, 4726983.107900001], [-10650636.8513, 4726983.085699998], [-10650643.9338, 4726983.268299997], [-10650644.9279, 4726983.293899998], [-10650588.4738, 4727154.0261999965], [-10650532.2955, 4727134.3478000015], [-10650526.4806, 4727132.310800001], [-10650511.1694, 4727126.9476], [-10650513.5935, 4727116.730700001], [-10650543.9234, 4726988.9004999995], [-10650608.4249, 4726988.396600001], [-10650636.7325, 4726983.107900001]]]]}}, {"type": "Feature", "properties": {"OBJECTID": 239, "CreationDate": "2025-01-14T11:11:12Z", "Creator": "NPS_WASO_LANDS", "EditDate": "2025-01-14T11:11:12Z", "Editor": "NPS_WASO_LANDS", "GlobalID": "{2459D2DD-FB71-4032-9BFB-7A15F2ACD1B2}", "AreaID": 246, "UNIT_CODE": "FOLS", "GIS_Notes": "Lands - http://landsnet.nps.gov/tractsnet/documents/FOLS/Metadata/fols_metadata.xml", "UNIT_NAME": "Fort Larned National Historic Site", "DATE_EDIT": "2010-07-28T00:00:00Z", "STATE": "KS", "REGION": "MW", "GNIS_ID": "475845", "UNIT_TYPE": "National Historic Site", "CREATED_BY": "Lands", "METADATA": "https://irma.nps.gov/DataStore/Reference/Profile/2165328", "PARKNAME": "Fort Larned", "SHAPE_Length": 12380.553811678463, "SHAPE_Area": 4625403.872125919}, "geometry": {"type": "MultiPolygon", "coordinates": [[[[-11047439.6438, 4596864.2880000025], [-11047060.4045, 4596865.135600001], [-11047045.9759, 4596109.381499998], [-11047435.6209, 4596105.791199997], [-11047439.6438, 4596864.2880000025]]], [[[-11045525.5224, 4606278.038599998], [-11045429.5394, 4606278.450800002], [-11045355.3314, 4606278.120200001], [-11045272.7702, 4606278.462700002], [-11045215.1808, 4606278.928499997], [-11045157.3831, 4606279.071900003], [-11045102.8876, 4606279.187299997], [-11045047.1906, 4606278.726999998], [-11044964.6622, 4606279.966600001], [-11044707.9274, 4606281.6592999995], [-11044671.64, 4606281.6611], [-11044638.6686, 4606283.239500001], [-11044611.0153, 4606284.913900003], [-11044591.9652, 4606286.067299999], [-11044568.1938, 4606288.692500003], [-11044542.4446, 4606291.167999998], [-11044510.0232, 4606295.489], [-11044501.8955, 4606296.410899997], [-11044479.7573, 4606298.921800002], [-11044462.8025, 4606300.831600003], [-11044442.2352, 4606304.0205999985], [-11044420.1327, 4606307.0995000005], [-11044399.7917, 4606311.1501], [-11044379.1157, 4606315.406999998], [-11044356.7715, 4606320.070600003], [-11044333.8219, 4606325.344400004], [-11044303.0585, 4606333.0163], [-11044260.0717, 4606343.219400004], [-11044235.9565, 4606348.599299997], [-11044212.4941, 4606354.551700003], [-11044180.0489, 4606363.997400001], [-11044140.9693, 4606374.2773], [-11044108.9543, 4606383.0704], [-11044072.6996, 4606393.640699998], [-11044027.5939, 4606406.718000002], [-11044006.6366, 4606411.895400003], [-11043981.3065, 4606418.524099998], [-11043957.2508, 4606425.581799999], [-11043927.875, 4606434.293300003], [-11043893.8827, 4606443.7326000035], [-11043860.9203, 4606452.803999998], [-11043818.3312, 4606464.530100003], [-11043774.7536, 4606476.061399996], [-11043746.5006, 4606482.024400003], [-11043708.3585, 4606490.554200001], [-11043673.7453, 4606497.053400002], [-11043640.2543, 4606503.331299998], [-11043613.8219, 4606506.567100003], [-11043582.8991, 4606510.185099997], [-11043553.5696, 4606513.602799997], [-11043525.706, 4606515.2870000005], [-11043498.6563, 4606516.708700001], [-11043480.4861, 4606516.210699998], [-11043479.2752, 4606387.7773], [-11043478.7248, 4606329.3989999965], [-11043476.8172, 4606127.105999999], [-11043468.0853, 4605614.070799999], [-11043464.5721, 4605407.655500002], [-11043462.5204, 4605101.050300002], [-11043978.0257, 4605098.949000001], [-11043972.7362, 4604585.774599999], [-11043970.0916, 4604329.196400002], [-11044008.0219, 4604329.021200001], [-11044481.8828, 4604326.819499999], [-11044484.5271, 4604583.485699996], [-11044764.0427, 4604582.2249], [-11045507.4295, 4604578.8345], [-11045763.7015, 4604578.147600003], [-11045769.0021, 4605092.151500002], [-11045774.303, 4605606.079999998], [-11046543.831, 4605862.747100003], [-11046546.2067, 4606091.6417], [-11046546.2472, 4606095.531000003], [-11046546.5014, 4606120.024300002], [-11046546.7164, 4606146.0923999995], [-11046546.7485, 4606149.981600001], [-11046547.8073, 4606278.331299998], [-11046221.7927, 4606278.295500003], [-11045983.9551, 4606278.347000003], [-11045846.946, 4606277.905599996], [-11045601.5354, 4606277.711900003], [-11045525.5224, 4606278.038599998]]]]}}, {"type": "Feature", "properties": {"OBJECTID": 240, "CreationDate": "2025-01-14T11:11:12Z", "Creator": "NPS_WASO_LANDS", "EditDate": "2025-01-14T11:11:12Z", "Editor": "NPS_WASO_LANDS", "GlobalID": "{405C3CBE-E59C-43DC-999D-3DCCD3F8CAC8}", "AreaID": 247, "UNIT_CODE": "NICO", "GIS_Notes": "Lands - http://landsnet.nps.gov/tractsnet/documents/NICO/Metadata/nico_metadata.xml", "UNIT_NAME": "Nicodemus National Historic Site", "DATE_EDIT": "2024-03-18T00:00:00Z", "STATE": "KS", "REGION": "MW", "GNIS_ID": "2733440", "UNIT_TYPE": "National Historic Site", "CREATED_BY": "Lands", "METADATA": "https://irma.nps.gov/DataStore/Reference/Profile/2182235", "PARKNAME": "Nicodemus", "SHAPE_Length": 1870.1599660510017, "SHAPE_Area": 38671.199778262446}, "geometry": {"type": "MultiPolygon", "coordinates": [[[[-11089276.2625, 4778192.168300003], [-11089276.2901, 4778166.858000003], [-11089315.6781, 4778166.909599997], [-11089315.5359, 4778196.385700002], [-11089315.3732, 4778230.1316], [-11089275.9016, 4778229.956299998], [-11089276.2577, 4778196.518799998], [-11089276.2625, 4778192.168300003]]], [[[-11089099.2317, 4778134.2205], [-11089099.483, 4778070.997199997], [-11089158.5659, 4778071.046700001], [-11089158.3151, 4778134.270199999], [-11089099.2317, 4778134.2205]]], [[[-11089186.4867, 4778030.203100003], [-11089186.6479, 4778000.543300003], [-11089198.2675, 4778000.553499997], [-11089237.6491, 4778000.6098000035], [-11089257.35, 4778000.635300003], [-11089257.0349, 4778063.767200001], [-11089197.952, 4778063.6853], [-11089198.1063, 4778030.213299997], [-11089186.4867, 4778030.203100003]]], [[[-11089039.6223, 4778229.045299999], [-11089039.9393, 4778165.770000003], [-11089118.7174, 4778165.836599998], [-11089118.4061, 4778229.1972], [-11089039.6223, 4778229.045299999]]], [[[-11089498.4721, 4777842.789399996], [-11089498.4884, 4777842.789399996], [-11089616.634, 4777843.379500002], [-11089616.3209, 4777906.6532000005], [-11089498.1582, 4777906.062899999], [-11089498.4721, 4777842.789399996]]], [[[-11089349.373, 4777739.678800002], [-11089349.7182, 4777675.962200001], [-11089467.8771, 4777676.554200001], [-11089467.5351, 4777739.8134], [-11089467.4655, 4777747.506700002], [-11089467.1504, 4777810.970200002], [-11089348.9874, 4777810.835699998], [-11089349.3033, 4777747.372100003], [-11089349.373, 4777739.678800002]]]]}}, {"type": "Feature", "properties": {"OBJECTID": 241, "CreationDate": "2025-01-14T11:11:12Z", "Creator": "NPS_WASO_LANDS", "EditDate": "2025-01-14T11:11:12Z", "Editor": "NPS_WASO_LANDS", "GlobalID": "{4DA74B11-62A5-465A-8025-93595049C95D}", "AreaID": 248, "UNIT_CODE": "FOSC", "GIS_Notes": "Lands - http://landsnet.nps.gov/tractsnet/documents/FOSC/Metadata/fosc_metadata.xml", "UNIT_NAME": "Fort Scott National Historic Site", "DATE_EDIT": "2024-09-18T00:00:00Z", "STATE": "KS", "REGION": "MW", "GNIS_ID": "480986", "UNIT_TYPE": "National Historic Site", "CREATED_BY": "Lands", "METADATA": "https://irma.nps.gov/DataStore/Reference/Profile/2166414", "PARKNAME": "Fort Scott", "SHAPE_Length": 1721.9435214797297, "SHAPE_Area": 132828.07063398926}, "geometry": {"type": "MultiPolygon", "coordinates": [[[[-10542676.4771, 4557303.013300002], [-10542688.6474, 4557289.450199999], [-10542704.3992, 4557303.703400001], [-10542680.8739, 4557329.920900002], [-10542675.146, 4557324.737899996], [-10542686.5009, 4557312.0836], [-10542676.4771, 4557303.013300002]]], [[[-10542531.6284, 4557521.0317], [-10542517.4966, 4557508.1479], [-10542498.992, 4557528.314099997], [-10542450.2769, 4557528.479800001], [-10542429.1629, 4557527.740000002], [-10542423.8264, 4557522.895499997], [-10542371.1082, 4557522.3467999995], [-10542338.8162, 4557528.937700003], [-10542312.8524, 4557528.665799998], [-10542312.8002, 4557524.3434000015], [-10542266.9586, 4557523.866499998], [-10542267.0108, 4557528.1888], [-10542252.7563, 4557528.039399996], [-10542248.5665, 4557479.2114999965], [-10542245.0234, 4557437.921300001], [-10542254.4205, 4557302.4794000015], [-10542304.6609, 4557248.7227], [-10542317.3216, 4557235.180200003], [-10542324.1674, 4557227.857500002], [-10542323.9554, 4557211.181699999], [-10542323.7067, 4557191.826200001], [-10542323.458, 4557172.470700003], [-10542323.2132, 4557153.111599997], [-10542322.9756, 4557134.531499997], [-10542376.5656, 4557134.5581], [-10542396.9985, 4557134.568800002], [-10542430.636, 4557134.586099997], [-10542445.2488, 4557134.593599997], [-10542445.2072, 4557131.1514], [-10542453.3961, 4557131.486400001], [-10542459.3876, 4557132.258299999], [-10542465.0958, 4557133.5419000015], [-10542471.3667, 4557133.7984], [-10542483.1835, 4557132.968199998], [-10542489.1962, 4557133.214100003], [-10542494.8939, 4557134.760600001], [-10542497.8559, 4557134.881800003], [-10542499.5363, 4557137.0820999965], [-10542500.7576, 4557138.681199998], [-10542502.8877, 4557144.285499997], [-10542502.381, 4557150.308899999], [-10542501.0955, 4557156.035599999], [-10542500.9192, 4557156.624600001], [-10542499.046, 4557161.474299997], [-10542497.5063, 4557167.192199998], [-10542497.0827, 4557172.228600003], [-10542497.0389, 4557172.749399997], [-10542496.9996, 4557173.2157000005], [-10542497.5513, 4557179.0189], [-10542500.3769, 4557183.551399998], [-10542506.6456, 4557189.267700002], [-10542507.1969, 4557189.769900002], [-10542521.4696, 4557202.782899998], [-10542535.6082, 4557215.678000003], [-10542536.5494, 4557225.193599999], [-10542536.8249, 4557228.0101], [-10542543.831, 4557234.398900002], [-10542558.0998, 4557247.411899999], [-10542572.3727, 4557260.421099998], [-10542575.2487, 4557263.045400001], [-10542579.9443, 4557263.330499999], [-10542580.0965, 4557256.246299997], [-10542592.2483, 4557267.328400001], [-10542594.3472, 4557269.2403], [-10542606.5173, 4557280.341300003], [-10542620.7902, 4557293.3543], [-10542626.4978, 4557298.558700003], [-10542627.8374, 4557299.775899999], [-10542629.0544, 4557312.107900001], [-10542629.4524, 4557312.472900003], [-10542631.18, 4557314.047200002], [-10542640.8714, 4557322.885600001], [-10542643.7772, 4557325.538199998], [-10542645.8901, 4557325.8574], [-10542646.9067, 4557325.367200002], [-10542648.0, 4557323.595700003], [-10542647.9802, 4557322.556400001], [-10542648.881, 4557320.900399998], [-10542651.2036, 4557321.087800004], [-10542657.8937, 4557327.184900001], [-10542669.3089, 4557337.597499996], [-10542671.88, 4557339.938199997], [-10542665.9018, 4557346.450999998], [-10542703.5975, 4557380.088200003], [-10542700.5109, 4557382.7173999995], [-10542692.4133, 4557391.542000003], [-10542686.8886, 4557398.3561], [-10542702.0833, 4557417.442400001], [-10542708.8719, 4557425.582400002], [-10542708.9716, 4557452.238499999], [-10542655.8425, 4557452.873199999], [-10542656.2345, 4557498.357199997], [-10542620.4049, 4557499.699000001], [-10542592.4615, 4557500.445299998], [-10542589.2076, 4557503.990000002], [-10542576.1445, 4557518.2258], [-10542570.8829, 4557523.959700003], [-10542552.8894, 4557540.599399999], [-10542543.0471, 4557531.441299997], [-10542531.6284, 4557521.0317]]]]}}, {"type": "Feature", "properties": {"OBJECTID": 242, "CreationDate": "2025-01-14T11:11:12Z", "Creator": "NPS_WASO_LANDS", "EditDate": "2025-01-14T11:11:12Z", "Editor": "NPS_WASO_LANDS", "GlobalID": "{FBFE1AA9-0F6E-4984-8D28-FD2AE29D4569}", "AreaID": 249, "UNIT_CODE": "TAPR", "GIS_Notes": "Lands - http://landsnet.nps.gov/tractsnet/documents/TAPR/Metadata/tapr_metadata.xml", "UNIT_NAME": "Tallgrass Prairie National Preserve", "DATE_EDIT": "2016-01-14T00:00:00Z", "STATE": "KS", "REGION": "MW", "GNIS_ID": "1888965", "UNIT_TYPE": "National Preserve", "CREATED_BY": "Lands", "METADATA": "https://irma.nps.gov/DataStore/Reference/Profile/1048190", "PARKNAME": "Tallgrass Prairie", "SHAPE_Length": 49657.06358749292, "SHAPE_Area": 71990800.12303486}, "geometry": {"type": "MultiPolygon", "coordinates": [[[[-10748563.0159, 4636792.2883], [-10748601.5576, 4636783.489500001], [-10748631.6024, 4636947.0053], [-10748683.5596, 4636946.542300001], [-10748704.8665, 4636946.352399997], [-10748720.4333, 4636946.2119999975], [-10748727.6154, 4636946.2487], [-10751262.9385, 4636961.722000003], [-10751262.1101, 4636981.698899999], [-10751663.1936, 4636991.196500003], [-10751798.3459, 4636988.712399997], [-10752316.9159, 4637082.793399997], [-10752442.8014, 4637107.972099997], [-10752623.7998, 4637212.023100004], [-10752738.6997, 4637288.784500003], [-10752864.6449, 4637364.952399999], [-10752995.5948, 4637389.826800004], [-10753211.0448, 4637436.539999999], [-10753208.4979, 4637744.2875000015], [-10753204.5503, 4638221.254000001], [-10753201.8862, 4638543.115900002], [-10753199.3178, 4638853.435599998], [-10753197.5863, 4639068.601099998], [-10753196.1781, 4639268.433300003], [-10753194.5778, 4639495.544799998], [-10753193.0008, 4639719.3418999985], [-10753190.9928, 4640004.280100003], [-10753189.4583, 4640222.0419000015], [-10753188.6676, 4640334.2267], [-10753188.1786, 4640403.630599998], [-10753187.7572, 4640463.397200003], [-10753187.3579, 4640520.0603], [-10753186.8737, 4640588.756700002], [-10753186.3621, 4640661.371399999], [-10753185.9146, 4640724.867700003], [-10753185.5614, 4640774.972599998], [-10753185.1012, 4640840.289499998], [-10753184.7208, 4640894.2333], [-10753184.3434, 4640947.7870000005], [-10753184.0077, 4640995.437700003], [-10753183.6814, 4641041.7183], [-10753183.4509, 4641074.431999996], [-10753183.4104, 4641080.184900001], [-10753180.3014, 4641080.1668], [-10753165.488, 4649816.390799999], [-10749743.4673, 4649809.750799999], [-10749724.4372, 4646222.693899997], [-10749718.9462, 4645171.939199999], [-10748732.7814, 4645172.018600002], [-10748690.9751, 4644133.381300002], [-10748649.1772, 4643094.8464], [-10748696.4951, 4642456.764200002], [-10748698.3469, 4642431.790899999], [-10748699.1049, 4642387.524099998], [-10748700.1289, 4642327.697800003], [-10748704.5474, 4642069.5766], [-10748706.7112, 4641941.092100002], [-10748709.5837, 4641775.256999999], [-10748711.1487, 4641682.054899998], [-10748712.7928, 4641584.149700001], [-10746642.6777, 4641549.423699997], [-10746647.8302, 4641019.0766], [-10746662.8654, 4640021.500299998], [-10746677.8975, 4639024.018700004], [-10745660.9938, 4639024.772100002], [-10744644.0899, 4639025.4256], [-10743603.8091, 4639026.898699999], [-10742563.528, 4639028.267300002], [-10742562.9657, 4637991.097400002], [-10742562.4036, 4636954.030000001], [-10743596.5619, 4636954.081600003], [-10744630.7202, 4636954.029799998], [-10745548.1449, 4636958.218999997], [-10746177.8998, 4636961.047600001], [-10746465.5704, 4636962.327], [-10746693.4567, 4636960.531800002], [-10746692.0547, 4636702.924699999], [-10746690.6528, 4636445.324000001], [-10746945.2006, 4636441.519400001], [-10747199.7485, 4636437.7086], [-10747199.3296, 4636313.137999997], [-10747198.9108, 4636188.568800002], [-10747199.3176, 4636177.918200001], [-10747023.9193, 4636181.2705999985], [-10746893.0497, 4636183.770199999], [-10746879.7083, 4636184.024700001], [-10746879.6459, 4636170.8495000005], [-10746879.4653, 4636132.753600001], [-10746879.1964, 4636049.386600003], [-10746882.9598, 4635861.415399998], [-10747185.389, 4635864.997900002], [-10747185.547, 4635890.993299998], [-10747280.7067, 4635891.143200003], [-10747280.1686, 4635799.483999997], [-10747185.0098, 4635799.3342999965], [-10747183.6072, 4635560.078900002], [-10747696.4686, 4635778.074199997], [-10747693.9754, 4635783.3675], [-10747879.8028, 4635862.347099997], [-10748014.427, 4636113.561800003], [-10748018.2864, 4636217.231700003], [-10748018.879, 4636233.151000001], [-10748025.2791, 4636405.0713], [-10748061.8499, 4636407.799000002], [-10748209.126, 4636418.7820999995], [-10748373.2347, 4636531.908399999], [-10748563.0159, 4636792.2883]]]]}}]}