{"type": "FeatureCollection", "name": "Missouri_park", "crs": {"type": "name", "properties": {"name": "urn:ogc:def:crs:EPSG::3857"}}, "features": [{"type": "Feature", "properties": {"OBJECTID": 243, "CreationDate": "2025-01-14T11:11:12Z", "Creator": "NPS_WASO_LANDS", "EditDate": "2025-01-14T11:11:12Z", "Editor": "NPS_WASO_LANDS", "GlobalID": "{5D02FFD0-9E08-415A-B45A-8C3B237A188E}", "AreaID": 250, "UNIT_CODE": "GWCA", "GIS_Notes": "Lands - http://landsnet.nps.gov/tractsnet/documents/GWCA/Metadata/gwca_metadata.xml", "UNIT_NAME": "George Washington Carver National Monument", "DATE_EDIT": "2018-11-30T00:00:00Z", "STATE": "MO", "REGION": "MW", "GNIS_ID": "718402", "UNIT_TYPE": "National Monument", "CREATED_BY": "Lands", "METADATA": "https://irma.nps.gov/DataStore/Reference/Profile/1048161", "PARKNAME": "George Washington Carver", "SHAPE_Length": 5054.572417035892, "SHAPE_Area": 1530092.903240494}, "geometry": {"type": "MultiPolygon", "coordinates": [[[[-10503620.6131, 4436486.017999999], [-10504140.4937, 4436504.266099997], [-10504127.2235, 4436863.217], [-10504085.18, 4438023.5798999965], [-10503076.7059, 4437985.6976], [-10503136.4941, 4436466.519299999], [-10503620.6131, 4436486.017999999]]]]}}, {"type": "Feature", "properties": {"OBJECTID": 245, "CreationDate": "2025-01-14T11:11:12Z", "Creator": "NPS_WASO_LANDS", "EditDate": "2025-01-14T11:11:12Z", "Editor": "NPS_WASO_LANDS", "GlobalID": "{9F82BC1A-66A8-4669-A88A-3B1BF45F7B79}", "AreaID": 252, "UNIT_CODE": "WICR", "GIS_Notes": "Lands - http://landsnet.nps.gov/tractsnet/documents/WICR/Metadata/wicr_metadata.xml", "UNIT_NAME": "Wilson's Creek National Battlefield", "DATE_EDIT": "2024-09-18T00:00:00Z", "STATE": "MO", "REGION": "MW", "GNIS_ID": "735922", "UNIT_TYPE": "National Battlefield", "CREATED_BY": "Lands", "METADATA": "https://irma.nps.gov/DataStore/Reference/Profile/1048197", "PARKNAME": "Wilson's Creek", "SHAPE_Length": 24277.246810342247, "SHAPE_Area": 15656968.330935553}, "geometry": {"type": "MultiPolygon", "coordinates": [[[[-10484330.228, 4422091.2793999985], [-10484331.4367, 4422036.059], [-10484342.1824, 4422036.164499998], [-10484343.2866, 4421985.717500001], [-10484346.5877, 4421985.749799997], [-10484347.716, 4421934.193899997], [-10484533.1308, 4421938.674999997], [-10484529.6843, 4422094.018700004], [-10484330.228, 4422091.2793999985]]], [[[-10484584.0524, 4423045.551700003], [-10484586.5957, 4422930.898400001], [-10484712.1123, 4422932.751000002], [-10484864.4253, 4422934.997000001], [-10484861.885, 4423049.6504999995], [-10484584.0524, 4423045.551700003]]], [[[-10484315.1883, 4422403.9705], [-10484316.7911, 4422276.118100002], [-10484377.5969, 4422276.953699999], [-10484381.093, 4422117.2086], [-10484488.3384, 4422118.681500003], [-10484486.3448, 4422286.666500002], [-10484495.8591, 4422286.796999998], [-10484494.4392, 4422406.432700001], [-10484315.1883, 4422403.9705]]], [[[-10484260.222, 4422605.771200001], [-10484264.1595, 4422428.5], [-10484433.9026, 4422430.8325999975], [-10484432.3755, 4422499.640500002], [-10484482.6137, 4422500.330300003], [-10484484.1406, 4422431.522399999], [-10484493.6554, 4422431.652999997], [-10484486.4044, 4422758.415100001], [-10484366.8793, 4422756.773500003], [-10484369.7653, 4422624.920400001], [-10484267.7443, 4422612.507700004], [-10484260.222, 4422605.771200001]]], [[[-10399061.331, 4456030.991700001], [-10399069.1083, 4455776.559100002], [-10399003.4729, 4455776.021499999], [-10398316.0076, 4455769.982500002], [-10398047.5893, 4455769.652000003], [-10397851.7717, 4455761.956], [-10397739.617, 4455757.0198], [-10397526.6024, 4455747.641199999], [-10397522.5353, 4455747.462200001], [-10397482.2743, 4455749.301600002], [-10397506.2045, 4455728.577100001], [-10397537.2649, 4455701.677500002], [-10397568.325, 4455674.777800001], [-10397599.3852, 4455647.878200002], [-10397630.445, 4455620.978500001], [-10397661.5047, 4455594.078900002], [-10397696.8628, 4455563.456299998], [-10397652.2059, 4455541.955200002], [-10397610.5318, 4455519.762000002], [-10397539.8431, 4455507.868100002], [-10397521.893, 4455507.750100002], [-10397521.8928, 4455507.755800001], [-10397374.8991, 4455505.794100001], [-10397161.5825, 4455502.943499997], [-10397131.3814, 4455502.539499998], [-10397035.004, 4455501.25], [-10397046.8556, 4454976.066500001], [-10397050.2065, 4454827.577], [-10397058.1984, 4454473.424000002], [-10397056.2826, 4454473.391500004], [-10396894.7084, 4454470.646200001], [-10396840.4686, 4454469.723999999], [-10396825.3448, 4454469.466799997], [-10396569.1193, 4454465.106399998], [-10396569.2629, 4454456.886600003], [-10396569.6243, 4454436.201800004], [-10396570.0134, 4454413.936899997], [-10396570.5467, 4454375.3386999965], [-10396571.08, 4454336.740699999], [-10396571.6133, 4454298.1428999975], [-10396572.1466, 4454259.5451000035], [-10396572.6799, 4454220.9476], [-10396573.213, 4454182.350100003], [-10396573.7463, 4454143.752899997], [-10396574.2796, 4454105.155699998], [-10396574.8129, 4454066.558600001], [-10396575.3462, 4454027.961800002], [-10396575.8795, 4453989.365000002], [-10396576.4127, 4453950.7685], [-10396576.9459, 4453912.171999998], [-10396577.4792, 4453873.5757], [-10396577.9923, 4453836.436899997], [-10396578.0124, 4453834.979500003], [-10396578.5457, 4453796.383400001], [-10396579.079, 4453757.7875000015], [-10396579.6122, 4453719.191699997], [-10396580.1455, 4453680.596199997], [-10396580.6787, 4453642.000600003], [-10396581.2119, 4453603.4054000005], [-10396581.7452, 4453564.810099997], [-10396582.2784, 4453526.215000004], [-10396582.8117, 4453487.620099999], [-10396583.345, 4453449.025300004], [-10396583.8782, 4453410.430699997], [-10396584.4113, 4453371.836099997], [-10396584.9446, 4453333.241800003], [-10396585.4779, 4453294.647500001], [-10396586.0111, 4453256.053400002], [-10396586.5444, 4453217.4595], [-10396587.0776, 4453178.865599997], [-10396626.1307, 4453178.217200004], [-10396665.184, 4453177.568599999], [-10396704.2372, 4453176.919699997], [-10396743.2904, 4453176.270900004], [-10396782.3436, 4453175.621799998], [-10396821.3967, 4453174.972599998], [-10396843.7488, 4453174.6010000035], [-10396860.4499, 4453174.323299997], [-10396899.5031, 4453173.673799999], [-10396938.5563, 4453173.024099998], [-10396977.6095, 4453172.374399997], [-10397016.6626, 4453171.7245000005], [-10397055.7157, 4453171.0744], [-10397092.7127, 4453170.458499998], [-10397100.0519, 4452835.521200001], [-10397108.7355, 4452439.227899998], [-10397108.8228, 4452435.242399998], [-10397120.0563, 4451922.5704], [-10396871.1103, 4451918.468199998], [-10396893.6091, 4450894.7588], [-10396904.6505, 4450392.3522000015], [-10396904.8277, 4450384.291100003], [-10396904.8304, 4450384.167300001], [-10396907.0845, 4450281.602600001], [-10396926.3818, 4450281.419699997], [-10396982.6335, 4450280.886100002], [-10396982.4097, 4450257.0929000005], [-10397044.8819, 4450256.501400001], [-10397088.5346, 4450256.0874999985], [-10397150.8522, 4450255.8455], [-10397162.2324, 4450255.950300001], [-10397634.2119, 4450260.288800001], [-10398168.9599, 4450264.958700001], [-10398643.642, 4450269.496299997], [-10399156.053, 4450274.048500001], [-10399190.6715, 4450274.532799996], [-10399186.5628, 4450435.690899998], [-10399288.3193, 4450438.3068], [-10399567.5874, 4450345.540399998], [-10399952.9951, 4450330.787900001], [-10399951.5444, 4450549.1027000025], [-10399868.2526, 4450589.627800003], [-10399811.9622, 4450550.024300002], [-10399788.3684, 4450549.928400002], [-10399785.414, 4450791.584899999], [-10399784.4325, 4450790.8759], [-10399783.4281, 4450790.200300001], [-10399782.4018, 4450789.558700003], [-10399781.3546, 4450788.951800004], [-10399780.288, 4450788.3803], [-10399779.2029, 4450787.844899997], [-10399778.1007, 4450787.346199997], [-10399776.9825, 4450786.884499997], [-10399776.3407, 4450840.943300001], [-10399790.0949, 4450850.437100001], [-10399788.1965, 4451005.5852999985], [-10399884.7697, 4451116.156900004], [-10399780.7239, 4451206.3332], [-10399778.866, 4451968.231399998], [-10399762.8748, 4451968.234999999], [-10399756.863, 4452475.671899997], [-10399748.8282, 4452982.779799998], [-10399744.776, 4453236.824500002], [-10399740.7788, 4453490.818400003], [-10399732.7289, 4453998.880900003], [-10399701.5943, 4453999.1570999995], [-10399657.0628, 4453999.552000001], [-10399612.5313, 4453999.946800001], [-10399567.9998, 4454000.341300003], [-10399142.1845, 4454004.104199998], [-10399120.6647, 4454004.293799996], [-10399145.8476, 4454035.269299999], [-10399171.0259, 4454066.2447], [-10399196.2044, 4454097.2201000005], [-10399221.3831, 4454128.195500001], [-10399246.5618, 4454159.170900002], [-10399271.7408, 4454190.146399997], [-10399271.9059, 4454190.349399999], [-10399426.0191, 4454077.274300002], [-10399539.7041, 4454224.030100003], [-10399389.1061, 4454334.528700002], [-10399397.6378, 4454345.0242], [-10399422.8177, 4454375.999799997], [-10399447.9976, 4454406.975400001], [-10399476.6004, 4454440.913999997], [-10399505.2032, 4454474.852600001], [-10399533.8063, 4454508.791199997], [-10399548.5034, 4454526.2299000025], [-10399570.4892, 4454562.660599999], [-10399589.2893, 4454597.758400001], [-10399609.1214, 4454646.331100002], [-10399623.0044, 4454700.672899999], [-10399628.817, 4454748.892800003], [-10399631.1706, 4454802.005900003], [-10399629.7175, 4454840.739200003], [-10399629.3318, 4454869.418799996], [-10399628.1164, 4454898.888899997], [-10399626.9529, 4454944.108800001], [-10399625.2615, 4454982.552500002], [-10399624.3282, 4455024.070799999], [-10399687.0866, 4455025.154700004], [-10399731.5399, 4455024.910999998], [-10399775.9932, 4455024.667300001], [-10399820.4465, 4455024.423299998], [-10399839.3554, 4455024.319499999], [-10399817.7699, 4455784.752999999], [-10399570.0124, 4455782.0473000035], [-10399562.099, 4455781.9608], [-10399557.7978, 4455920.177199997], [-10399539.1821, 4456036.7795], [-10399513.462, 4456036.468500003], [-10399061.331, 4456030.991700001]]]]}}, {"type": "Feature", "properties": {"OBJECTID": 249, "CreationDate": "2025-01-14T11:11:12Z", "Creator": "NPS_WASO_LANDS", "EditDate": "2025-01-14T11:11:12Z", "Editor": "NPS_WASO_LANDS", "GlobalID": "{4B2529BF-DF34-4DFE-93D4-72EB47F1671D}", "AreaID": 256, "UNIT_CODE": "HSTR", "GIS_Notes": "Lands - http://landsnet.nps.gov/tractsnet/documents/HSTR/Metadata/hstr_metadata.xml", "UNIT_NAME": "Harry S Truman National Historic Site", "DATE_EDIT": "2022-12-28T14:07:04Z", "STATE": "MO", "REGION": "MW", "GNIS_ID": "2463113", "UNIT_TYPE": "National Historic Site", "CREATED_BY": "Lands", "METADATA": "https://irma.nps.gov/DataStore/Reference/Profile/2185776", "PARKNAME": "Harry S Truman", "SHAPE_Length": 2131.372324459388, "SHAPE_Area": 90718.23748051544}, "geometry": {"type": "MultiPolygon", "coordinates": [[[[-10511213.3424, 4735099.586199999], [-10511213.9573, 4735079.697999999], [-10511269.4787, 4735082.308600001], [-10511268.799, 4735102.193700001], [-10511259.8185, 4735101.798199996], [-10511213.3424, 4735099.586199999]]], [[[-10510116.1729, 4735195.481799997], [-10510118.9532, 4735120.732199997], [-10510138.1231, 4735121.029600002], [-10510214.927, 4735124.264899999], [-10510212.0918, 4735200.523599997], [-10510116.1729, 4735195.481799997]]], [[[-10511067.6358, 4735138.4174000025], [-10511069.3971, 4735072.505099997], [-10511091.6406, 4735073.585600004], [-10511113.8128, 4735074.662699997], [-10511195.3459, 4735078.812200002], [-10511193.1089, 4735144.241999999], [-10511112.3926, 4735140.085900001], [-10511090.0143, 4735139.251699999], [-10511067.6358, 4735138.4174000025]]], [[[-10522853.0855, 4707499.353699997], [-10522857.3256, 4707427.577600002], [-10522872.358, 4707428.472900003], [-10522946.9697, 4707432.916299999], [-10523210.9266, 4707448.631399997], [-10523229.707, 4707449.749399997], [-10523305.8148, 4707454.279200003], [-10523305.7243, 4707455.497100003], [-10523301.6663, 4707518.631499998], [-10523301.4543, 4707521.928099997], [-10523300.3126, 4707539.689300001], [-10523300.1265, 4707542.466700003], [-10523297.0396, 4707590.610399999], [-10523296.9505, 4707591.994499996], [-10523296.9319, 4707592.174900003], [-10523295.7618, 4707603.468199998], [-10523293.3637, 4707614.839299999], [-10523289.7905, 4707625.900799997], [-10523285.0034, 4707636.707900003], [-10522936.4926, 4707619.181299999], [-10522942.0069, 4707521.1467999965], [-10522858.6633, 4707516.183399998], [-10522853.0855, 4707499.353699997]]]]}}, {"type": "Feature", "properties": {"OBJECTID": 259, "CreationDate": "2025-01-14T11:11:12Z", "Creator": "NPS_WASO_LANDS", "EditDate": "2025-01-14T11:11:12Z", "Editor": "NPS_WASO_LANDS", "GlobalID": "{5D2C3A26-9252-40AE-B0AD-73A55D8641B6}", "AreaID": 269, "UNIT_CODE": "OZAR", "GIS_Notes": "Lands - http://landsnet.nps.gov/tractsnet/documents/OZAR/Metadata/ozar_metadata.xml", "UNIT_NAME": "Ozark National Scenic Riverways", "DATE_EDIT": "2022-08-26T09:55:50Z", "STATE": "MO", "REGION": "MW", "GNIS_ID": "751466", "UNIT_TYPE": "National River", "CREATED_BY": "Lands", "METADATA": "https://irma.nps.gov/DataStore/Reference/Profile/2194487", "PARKNAME": "Ozark", "SHAPE_Length": 549290.3076838829, "SHAPE_Area": 525270593.7418802}, "geometry": {"type": "MultiPolygon", "coordinates": [[[[-10174959.3272, 4461274.654600002], [-10174960.6974, 4461225.981299996], [-10174961.5918, 4461194.207000002], [-10174992.5946, 4460092.676799998], [-10175010.5511, 4459575.9728000015], [-10176022.2512, 4459601.5889], [-10176523.1472, 4459619.459700003], [-10177542.2053, 4459649.708999999], [-10178049.324, 4459664.4859], [-10178053.9709, 4459153.6647000015], [-10178561.5215, 4459154.103399999], [-10178566.6433, 4458966.652599998], [-10178568.8788, 4458884.831799999], [-10178573.5993, 4458712.059], [-10179067.4747, 4458721.583800003], [-10179575.8449, 4458706.155299999], [-10180634.7294, 4458716.719800003], [-10180637.4962, 4458495.640100002], [-10180660.8695, 4457686.136799999], [-10181096.7482, 4457693.398199998], [-10181105.1989, 4457170.988700002], [-10181609.6859, 4457179.206900001], [-10181617.7412, 4456679.711900003], [-10182120.8324, 4456684.181100003], [-10183078.4482, 4456692.6215], [-10183282.5729, 4456694.4092999995], [-10183627.7541, 4456697.423699997], [-10183633.0312, 4455204.134999998], [-10184138.9965, 4455212.2531], [-10184146.9045, 4454714.366400003], [-10184473.2072, 4454721.466200002], [-10184643.3963, 4454724.695299998], [-10185152.8812, 4454734.345299996], [-10185168.5033, 4453735.261600003], [-10185673.0691, 4453740.240800001], [-10185683.6317, 4453245.464900002], [-10187708.4294, 4453283.804700002], [-10187715.4469, 4452783.371799998], [-10186713.0263, 4452769.402599998], [-10186730.0193, 4451750.711099997], [-10186744.6278, 4451249.755199999], [-10187255.8495, 4451258.115500003], [-10187265.4888, 4450758.142999999], [-10187781.6879, 4450767.357699998], [-10187798.144, 4449758.287799999], [-10188312.3822, 4449765.910400003], [-10188337.5421, 4448742.688699998], [-10188841.7795, 4448749.676100001], [-10189863.974, 4448767.630400002], [-10189873.3576, 4448261.8706], [-10190894.3765, 4448273.106899999], [-10190899.7032, 4447780.495999999], [-10191413.456, 4447782.3292], [-10191424.4433, 4446775.208999999], [-10191929.9189, 4446774.125799999], [-10191936.4553, 4446272.219800003], [-10191939.9629, 4445751.738799997], [-10192948.2019, 4445769.806599997], [-10192968.1828, 4445770.163599998], [-10192971.6743, 4445261.207000002], [-10194473.883, 4445287.314400002], [-10194488.1847, 4444781.543799996], [-10194381.9606, 4444779.3631], [-10194387.2485, 4444671.108900003], [-10194493.1217, 4444676.222499996], [-10194494.3868, 4444712.437700003], [-10194626.8812, 4444645.281900004], [-10194630.0682, 4444485.696599998], [-10194992.512, 4444494.6373], [-10195001.9042, 4444275.627999999], [-10195503.4403, 4444282.520400003], [-10195516.3453, 4443778.951300003], [-10197025.9881, 4443806.4428], [-10199055.0935, 4443843.053499997], [-10199052.4917, 4444566.181999996], [-10199046.5585, 4444863.969300002], [-10200046.4562, 4444894.982500002], [-10200835.2979, 4444916.822099999], [-10201061.1926, 4444919.100400001], [-10202039.3617, 4444936.231299996], [-10202529.7238, 4444944.060400002], [-10202528.4565, 4445007.819899999], [-10203013.8901, 4445020.423299998], [-10203009.9089, 4445909.460600004], [-10203010.1525, 4445909.464400001], [-10205028.1639, 4445939.560999997], [-10206025.3042, 4445951.168300003], [-10207013.7628, 4445965.279799998], [-10206997.9669, 4446765.683600001], [-10206993.0278, 4446970.520499997], [-10206986.2391, 4447475.930100001], [-10207626.3958, 4447487.286399998], [-10207627.5568, 4447987.978600003], [-10207879.7533, 4447992.676299997], [-10207911.3185, 4447993.263899997], [-10207994.5931, 4447994.813500002], [-10207980.0982, 4448499.059699997], [-10206474.9082, 4448471.862000003], [-10205977.4094, 4448463.425399996], [-10205985.5868, 4447962.531999998], [-10205993.3516, 4447459.017099999], [-10205996.9593, 4447202.2368], [-10205508.3562, 4447195.671800002], [-10205507.5045, 4446956.178099997], [-10205009.5392, 4446949.8649], [-10204989.9247, 4447951.434900001], [-10203490.7253, 4447939.941500001], [-10203494.7976, 4447424.164499998], [-10202995.8695, 4447426.480300002], [-10202997.9092, 4446934.152400002], [-10202017.9565, 4446925.742899999], [-10201527.8542, 4446920.343500003], [-10201044.2816, 4446914.993600003], [-10200030.3049, 4446898.897699997], [-10200027.0768, 4446395.995300002], [-10199517.5582, 4446382.750299998], [-10199013.9036, 4446369.633500002], [-10198506.7401, 4446361.428099997], [-10198501.5139, 4445849.0264], [-10196997.3848, 4445829.162699997], [-10195958.153, 4445815.312899999], [-10195968.548, 4446316.098700002], [-10194951.513, 4446307.645199999], [-10194957.1931, 4446817.544299997], [-10193952.3675, 4446798.996600002], [-10193949.909, 4447811.088299997], [-10192940.3302, 4447794.9045], [-10192936.5059, 4448297.437600002], [-10191915.1062, 4448294.781300001], [-10191909.5727, 4448955.571199998], [-10191909.6833, 4449318.373800002], [-10190880.9615, 4449308.175499998], [-10190870.1716, 4449804.193999998], [-10190870.7205, 4449819.805299997], [-10190868.1163, 4450302.689099997], [-10189327.9445, 4450298.642099999], [-10189325.7583, 4450797.2863000035], [-10188799.3648, 4450785.426799998], [-10188792.2189, 4451289.785599999], [-10188279.0781, 4451277.297899999], [-10188269.6529, 4451789.688100003], [-10188260.4141, 4452291.887000002], [-10188768.067, 4452310.032300003], [-10188747.7887, 4453334.7875000015], [-10188727.9488, 4454337.157200001], [-10188717.7578, 4454851.9494], [-10186684.2057, 4454779.788900003], [-10186669.9958, 4455780.7623], [-10186663.3708, 4456275.824299999], [-10186656.653, 4456777.738200001], [-10184617.4781, 4456745.351899996], [-10184609.4672, 4457250.957800001], [-10184601.4549, 4457756.587800004], [-10184110.7471, 4457747.4032000005], [-10183808.3443, 4457741.731799997], [-10182622.138, 4457719.401100002], [-10182170.31, 4457710.860100001], [-10182166.0969, 4457972.917499997], [-10182156.5387, 4458359.874799997], [-10182158.8707, 4458510.9661], [-10182153.9718, 4459750.579800002], [-10182153.6848, 4460245.8653], [-10181898.2664, 4460246.609399997], [-10181896.9335, 4460750.6237], [-10181897.6352, 4461052.267999999], [-10181896.5117, 4461147.527500004], [-10181924.6682, 4461192.444200002], [-10182011.9151, 4461327.205600001], [-10182063.3901, 4461436.055299997], [-10182164.9498, 4461541.0814], [-10182228.8192, 4461670.046700001], [-10181989.244, 4461750.8926], [-10181607.1095, 4461753.9624999985], [-10180600.7325, 4461759.461199999], [-10179548.6618, 4461763.108199999], [-10179555.8907, 4461253.467799999], [-10178509.1989, 4461252.612499997], [-10178495.9893, 4461718.734099999], [-10178482.2056, 4462230.557400003], [-10178467.3587, 4462744.250500001], [-10177948.7064, 4462738.143100001], [-10177448.8234, 4462736.282399997], [-10176969.5106, 4462730.995499998], [-10176433.1485, 4462724.6074], [-10175415.347, 4462710.421099998], [-10174913.8203, 4462706.950900003], [-10174930.441, 4462194.314400002], [-10174931.1429, 4462169.690700002], [-10174931.3181, 4462163.542800002], [-10174946.5884, 4461680.550999999], [-10174959.3272, 4461274.654600002]]], [[[-10128715.364, 4436299.5744], [-10128695.5185, 4436295.707199998], [-10128670.5408, 4436295.8539], [-10128642.2935, 4436299.3895], [-10128610.6122, 4436302.8522000015], [-10128591.3226, 4436305.199600004], [-10128565.9526, 4436302.593000002], [-10128513.8982, 4436294.594899997], [-10128492.7365, 4436287.942299999], [-10128473.0071, 4436278.563100003], [-10128441.2274, 4436256.782399997], [-10128402.208, 4436219.624200001], [-10128345.2746, 4436150.861500002], [-10128307.1512, 4436106.011100002], [-10128297.1342, 4436085.758599997], [-10128271.1594, 4436034.952299997], [-10128261.5872, 4436015.164800003], [-10128249.2305, 4435995.690399997], [-10128236.5648, 4435982.668799996], [-10128221.3783, 4435970.731899999], [-10128177.158, 4435943.033399999], [-10128142.6164, 4435920.3401999995], [-10128116.3585, 4435894.698899999], [-10128102.3693, 4435879.827500001], [-10128092.1615, 4435868.679799996], [-10128074.3832, 4435838.8358], [-10128052.0838, 4435807.503200002], [-10128031.4217, 4435786.113700002], [-10127962.4393, 4435707.3544000015], [-10127928.2463, 4435646.371200003], [-10127914.1694, 4435603.548600003], [-10127898.4986, 4435527.960000001], [-10127883.151, 4435457.794299997], [-10127870.4937, 4435389.478799999], [-10127864.8514, 4435355.658200003], [-10127850.6578, 4435317.387199998], [-10127842.574, 4435291.712200001], [-10127814.5296, 4435231.508100003], [-10127786.2146, 4435161.523000002], [-10127778.7179, 4435128.935999997], [-10127776.0763, 4435082.5748], [-10127778.0427, 4435043.225100003], [-10127778.5384, 4435019.858900003], [-10127744.2138, 4435018.983000003], [-10127606.8712, 4435015.477499999], [-10126873.4321, 4435001.631499998], [-10126878.9893, 4434045.6008], [-10126881.6496, 4433186.044100001], [-10126882.4637, 4432998.823799998], [-10126883.8671, 4432676.002300002], [-10126878.2595, 4432384.883500002], [-10125393.8942, 4432122.606899999], [-10125389.0604, 4431115.761299998], [-10124909.5686, 4431033.314800002], [-10124430.085, 4430950.847499996], [-10124438.2028, 4430447.828299999], [-10123448.6601, 4430249.5951000005], [-10122986.6575, 4430164.0757], [-10122982.1787, 4430163.207500003], [-10121983.8729, 4429969.653800003], [-10121995.7328, 4429686.453599997], [-10120988.6011, 4429532.764899999], [-10120991.5878, 4429770.428400002], [-10120478.3976, 4429664.513700001], [-10120475.9999, 4430173.808899999], [-10119487.0002, 4429969.6193], [-10119504.8195, 4429467.671700001], [-10118503.9021, 4429259.789999999], [-10118510.5332, 4428940.783799998], [-10118535.7583, 4427726.764300004], [-10118542.3663, 4427232.454800002], [-10118550.9599, 4426208.758599997], [-10118563.4205, 4425159.164399996], [-10117875.2503, 4425160.2936], [-10117474.9552, 4425160.929899998], [-10117482.8061, 4424671.870300002], [-10117490.5499, 4424189.4157000035], [-10117498.6664, 4423683.652900003], [-10118579.8246, 4423698.690899998], [-10118577.0609, 4423754.550899997], [-10119590.1671, 4423759.1477999985], [-10119591.6686, 4423347.321500003], [-10119591.8608, 4423294.592200004], [-10119591.9893, 4423259.324500002], [-10119593.48, 4422850.256700002], [-10120097.0338, 4422909.603299998], [-10120096.7113, 4422390.023900002], [-10120584.2624, 4422452.597199999], [-10120590.0166, 4422359.1071000025], [-10120625.5126, 4421432.6044000015], [-10121141.2978, 4421443.907300003], [-10121161.6928, 4420504.013099998], [-10121661.6425, 4420591.2126], [-10121683.5641, 4419578.538699999], [-10121615.7749, 4419565.759499997], [-10121632.6708, 4418785.296899997], [-10121125.0881, 4418764.4636999965], [-10121135.9515, 4418263.664300002], [-10120650.8095, 4418253.038900003], [-10120661.9168, 4417735.503700003], [-10120668.0302, 4417251.929399997], [-10120702.5308, 4416173.185000002], [-10121756.9516, 4416221.1932], [-10121787.0113, 4415164.551299997], [-10122821.9528, 4415225.204499997], [-10122820.867, 4413981.150200002], [-10122824.4893, 4413083.7993], [-10123777.8703, 4413151.615099996], [-10124144.8612, 4413176.313900001], [-10124176.8139, 4413178.4636999965], [-10124277.7548, 4413185.254600003], [-10124225.2779, 4413284.0913999975], [-10124202.0874, 4413405.045199998], [-10124208.805, 4413512.432599999], [-10124220.3911, 4413595.4016999975], [-10124774.0523, 4413627.050899997], [-10124760.997, 4414694.635600001], [-10124752.9867, 4415776.082699999], [-10124246.3977, 4415752.371200003], [-10124233.0605, 4416294.7201000005], [-10123728.9313, 4416286.420900002], [-10123337.2246, 4416277.567400001], [-10123227.1425, 4416274.876900002], [-10122706.4291, 4416264.620499998], [-10122696.5972, 4416807.292300001], [-10122693.493, 4417074.247100003], [-10122693.5961, 4417338.937399998], [-10122693.7523, 4417741.353399999], [-10122692.0171, 4417817.6153], [-10122686.3633, 4418066.095899999], [-10122669.0199, 4418828.2250000015], [-10123171.6706, 4418843.511200003], [-10123164.8072, 4419355.235699996], [-10123740.2021, 4419391.3461000025], [-10123714.3473, 4419869.473399997], [-10123684.8279, 4420415.323700003], [-10123655.7914, 4420952.198700003], [-10123115.0549, 4420933.433700003], [-10123114.0, 4420982.459700003], [-10122988.8832, 4421056.347400002], [-10122972.7469, 4421073.693999998], [-10122961.7196, 4421104.5031], [-10122921.1896, 4421171.948100001], [-10122847.3231, 4421265.840499997], [-10122843.6427, 4421436.686700001], [-10122589.3778, 4421418.824900001], [-10122578.5021, 4421923.096299998], [-10122075.9184, 4421902.059], [-10122068.7935, 4422231.656900004], [-10122057.6748, 4422903.6499999985], [-10121538.5546, 4422907.509300001], [-10121521.5821, 4423949.219300002], [-10121012.4802, 4423953.217100002], [-10120998.8157, 4424940.7742], [-10120501.5013, 4424937.562899999], [-10120494.1933, 4425444.144199997], [-10120492.7099, 4425546.970299996], [-10120489.7781, 4425750.167000003], [-10120488.2352, 4425857.092200004], [-10120486.7811, 4425957.862800002], [-10120474.4109, 4426972.428000003], [-10120477.2537, 4427207.616700001], [-10120469.4647, 4427476.513300002], [-10119966.7348, 4427473.3561], [-10119968.3087, 4427855.519100003], [-10119970.1361, 4427973.0195999965], [-10119973.7713, 4428206.776299998], [-10120046.5972, 4428309.4234], [-10120094.8748, 4428363.739399999], [-10120231.5259, 4428452.207699999], [-10120318.2903, 4428472.429799996], [-10120471.5272, 4428461.594499998], [-10120474.0172, 4428482.387100004], [-10120982.822, 4428473.169100001], [-10121491.627, 4428463.926600002], [-10121487.9751, 4427980.422499999], [-10122497.4308, 4427987.289800003], [-10123220.4185, 4427993.669], [-10123501.5167, 4427998.774800003], [-10123979.2917, 4428007.435800001], [-10124484.6373, 4428012.4755000025], [-10124975.4743, 4428090.238300003], [-10125872.9837, 4428232.369599998], [-10126454.8568, 4428326.185800001], [-10126467.4662, 4427563.475599997], [-10126480.9096, 4426355.554099999], [-10128486.3063, 4426596.285999998], [-10130664.889, 4426574.9366], [-10130669.0887, 4426264.628300004], [-10131679.1811, 4426109.090999998], [-10131655.1131, 4428172.775399998], [-10132664.4265, 4427949.144299999], [-10132645.0615, 4428986.9877], [-10131654.0189, 4429194.002599999], [-10131626.4886, 4430198.3728], [-10132617.4959, 4429998.101199999], [-10132597.2346, 4431040.068000004], [-10130792.4629, 4431518.260399997], [-10130569.0265, 4431580.635899998], [-10130552.3242, 4432301.862800002], [-10130539.2942, 4432746.9597999975], [-10130537.4742, 4432869.634599999], [-10130535.6967, 4432989.428199999], [-10130533.0464, 4433168.042499997], [-10130528.3084, 4433352.182300001], [-10130521.0413, 4433685.533299997], [-10130506.7145, 4434281.298600003], [-10130498.7216, 4434796.921800002], [-10130490.719, 4435282.366800003], [-10130486.443, 4435492.580899999], [-10130486.3697, 4435496.187899999], [-10130485.6553, 4435531.304200001], [-10130481.8249, 4435719.600100003], [-10130480.5439, 4435954.8873], [-10130160.6363, 4435965.935500003], [-10129463.2151, 4435985.739100002], [-10129465.6842, 4436591.377400003], [-10129465.8636, 4436635.4256], [-10129265.4268, 4436525.765100002], [-10129160.0349, 4436472.5286], [-10129085.7903, 4436441.317900002], [-10129024.4515, 4436417.273000002], [-10128951.3314, 4436384.5320999995], [-10128877.117, 4436351.942400001], [-10128829.4434, 4436331.632600002], [-10128780.8805, 4436320.952799998], [-10128739.2734, 4436306.2853000015], [-10128715.364, 4436299.5744]]], [[[-10198341.988, 4502782.686999999], [-10198353.5039, 4502271.173799999], [-10198869.3679, 4502288.785599999], [-10198885.5214, 4501761.937600002], [-10198887.7283, 4501689.954599999], [-10198891.8124, 4501556.742899999], [-10198901.4813, 4501198.5801], [-10198909.3321, 4500736.587099999], [-10198703.4633, 4500723.773800001], [-10198706.3094, 4500690.6382], [-10198700.3061, 4500660.066399999], [-10198657.4114, 4500578.8605], [-10198587.3953, 4500514.408399999], [-10198534.7932, 4500504.9428], [-10198491.9701, 4500472.713799998], [-10198388.2019, 4500438.5858], [-10198308.321, 4500410.547899999], [-10198229.6099, 4500356.459899999], [-10198173.0554, 4500285.067000002], [-10198126.2423, 4500203.013999999], [-10198049.9002, 4500139.857799999], [-10198002.7641, 4500079.917499997], [-10197983.4862, 4499999.062899999], [-10197991.7215, 4499868.369000003], [-10198069.1454, 4499638.561399996], [-10198134.757, 4499519.914399996], [-10198159.2454, 4499460.248400003], [-10198157.1619, 4499389.698200002], [-10198151.7593, 4499161.512900002], [-10198066.9903, 4499158.616599999], [-10197939.1292, 4499154.246600002], [-10197423.9593, 4499136.623800002], [-10197433.4752, 4498634.013999999], [-10196924.761, 4498617.245999999], [-10196944.0221, 4498101.847400002], [-10196962.9942, 4497594.138300002], [-10196968.104, 4497457.389399998], [-10196969.4546, 4497421.243000001], [-10196981.2258, 4497095.766599998], [-10196245.4402, 4497084.938699998], [-10195455.1261, 4497057.5612], [-10194956.3422, 4497040.251800001], [-10194949.162, 4496528.814300001], [-10194943.1748, 4496036.1686], [-10194442.1649, 4496017.872599997], [-10194450.9227, 4495510.179099999], [-10193954.1024, 4495492.696099997], [-10193965.5921, 4494978.604000002], [-10192976.2394, 4494940.236199997], [-10192988.8189, 4494353.900600001], [-10192996.3208, 4493919.069499999], [-10192490.5275, 4493911.561700001], [-10192491.2702, 4493862.1586000025], [-10192493.9177, 4493559.322099999], [-10192495.6577, 4493231.6866], [-10192499.4102, 4492903.585199997], [-10192356.9383, 4492899.800999999], [-10191920.6437, 4492911.384400003], [-10191919.7009, 4492911.377300002], [-10191606.9987, 4492908.999799997], [-10191492.8983, 4492905.262400001], [-10191412.5155, 4492902.628600001], [-10191043.9563, 4492890.5449], [-10190905.699, 4492883.797499999], [-10190910.379, 4492340.071999997], [-10190391.4112, 4492336.149300002], [-10190393.9784, 4491858.7333], [-10189879.0167, 4491847.306900002], [-10189904.0044, 4490758.261200003], [-10189917.8938, 4490247.214000002], [-10189661.453, 4490238.274800003], [-10189678.1631, 4489736.932899997], [-10189029.372, 4489729.0638], [-10188863.0798, 4489727.040399998], [-10188372.6913, 4489721.060699999], [-10188372.1154, 4490215.888999999], [-10187858.4662, 4490205.548699997], [-10187826.433, 4490203.612800002], [-10187459.3568, 4490181.422399998], [-10187355.5388, 4490174.420500003], [-10186839.9506, 4490139.631800003], [-10186843.1782, 4489620.5669], [-10186334.4648, 4489611.928999998], [-10185837.5469, 4489603.467600003], [-10185829.9841, 4489681.312399998], [-10185837.6427, 4490075.794699997], [-10185820.9639, 4491589.179899998], [-10185825.258, 4492560.9059000015], [-10185579.6539, 4492562.412799999], [-10185575.7286, 4492810.123300001], [-10185329.2612, 4492806.181400001], [-10185328.2498, 4493584.994599998], [-10184824.9732, 4493576.926399998], [-10184814.1255, 4492555.7766999975], [-10183812.1721, 4492555.204999998], [-10183801.8895, 4491554.0], [-10183848.8598, 4490081.641800001], [-10183850.3556, 4490045.621399999], [-10183871.0918, 4489546.2228000015], [-10183883.3038, 4488549.980300002], [-10183390.2149, 4488531.443800002], [-10183391.421, 4488045.8552], [-10182903.5142, 4488027.432800002], [-10182907.872, 4487535.096600004], [-10181913.6458, 4487507.088600002], [-10181428.3987, 4487493.384499997], [-10181422.0778, 4487003.206600003], [-10181422.0697, 4487000.902099997], [-10181420.3109, 4486499.697300002], [-10181415.156, 4485878.1052], [-10181902.6496, 4485880.687600002], [-10181904.3927, 4485503.2139], [-10181906.6427, 4485015.781900004], [-10182403.4398, 4485023.827299997], [-10182391.5495, 4484891.8653], [-10182396.9435, 4484551.268700004], [-10182396.9966, 4484542.405500002], [-10182405.7375, 4484025.957699999], [-10181878.4871, 4484021.268600002], [-10181885.1988, 4483518.483099997], [-10181143.1236, 4483503.534000002], [-10180909.322, 4483498.813299999], [-10180891.2022, 4484532.064499997], [-10179862.0694, 4484520.414499998], [-10179624.5303, 4484517.711099997], [-10178845.6621, 4484508.809], [-10178345.4453, 4484503.061499998], [-10177351.2048, 4484491.566200003], [-10177343.6034, 4483984.022100002], [-10177045.8516, 4483967.631099999], [-10176855.3439, 4483955.8759], [-10176855.7788, 4483457.575599998], [-10176321.4936, 4483435.035599999], [-10175860.7056, 4483415.5744], [-10175871.9349, 4482392.331299998], [-10175879.6536, 4481881.1554000005], [-10175880.7756, 4481632.8609], [-10175631.0, 4481624.660999998], [-10175629.7027, 4481365.441500001], [-10175881.9577, 4481365.761799999], [-10175910.0377, 4480338.563199997], [-10174901.4573, 4480313.9498], [-10174926.4546, 4479295.962399997], [-10174428.351, 4479286.253200002], [-10174485.7317, 4478257.791299999], [-10173973.2019, 4478255.386399999], [-10173991.4209, 4477737.710100003], [-10173491.3617, 4477733.814199999], [-10171494.4128, 4477702.888999999], [-10170979.3115, 4477685.128700003], [-10170483.001, 4477668.619499996], [-10170515.5786, 4477169.259400003], [-10170021.9059, 4477160.139700003], [-10170011.6477, 4476644.929200001], [-10169455.4536, 4476626.7641], [-10169452.9876, 4476447.186899997], [-10169455.5278, 4476193.434900001], [-10169452.0158, 4476165.829499997], [-10168919.0262, 4476151.541500002], [-10168927.8676, 4475642.770900004], [-10168379.0436, 4475614.746200003], [-10168392.3958, 4475122.6526999995], [-10168405.8765, 4474625.780199997], [-10168405.9404, 4474623.421999998], [-10168428.1677, 4474115.465000004], [-10167900.4111, 4474115.597900003], [-10167548.6103, 4474116.3552], [-10167239.4307, 4474114.365400001], [-10166867.2956, 4474116.369000003], [-10166855.1908, 4474599.781400003], [-10165845.2609, 4474594.250100002], [-10165845.3747, 4474562.782399997], [-10164347.273, 4474565.500699997], [-10164341.4051, 4475071.809799999], [-10163844.1244, 4475076.765100002], [-10162993.6194, 4475014.650600001], [-10162310.1693, 4474963.0022], [-10162323.8382, 4474435.881899998], [-10162337.0581, 4473971.4278], [-10162346.2174, 4473568.743299998], [-10162361.7515, 4472989.761], [-10162464.3654, 4472991.967299998], [-10162475.8412, 4472595.953400001], [-10162483.257, 4472275.406099997], [-10162494.9773, 4471754.314999998], [-10163010.5482, 4471766.609200001], [-10163025.1247, 4471151.538699999], [-10163040.4147, 4470720.819499999], [-10163055.8576, 4470216.523900002], [-10164074.3976, 4470261.942100003], [-10164078.9914, 4469755.700099997], [-10165108.3884, 4469767.670999996], [-10165114.1949, 4469264.280599996], [-10165117.8669, 4468909.740599997], [-10165118.8767, 4468759.162900001], [-10164604.706, 4468753.918399997], [-10164613.4617, 4468244.026900001], [-10164616.362, 4468075.111400001], [-10164622.1296, 4467739.180100001], [-10164099.9196, 4467733.169], [-10164113.7063, 4467227.915799998], [-10163539.7241, 4467203.426399998], [-10162608.1924, 4467165.5506], [-10162614.9603, 4466656.992899999], [-10162117.5668, 4466639.249899998], [-10161097.5386, 4466594.794200003], [-10160591.304, 4466572.694300003], [-10160602.2368, 4466054.689099997], [-10160449.7263, 4466050.649899997], [-10160259.2627, 4466042.145499997], [-10160084.359, 4466037.148599997], [-10159343.3653, 4466013.079000004], [-10159349.3489, 4465497.792300001], [-10159089.4924, 4465486.709700003], [-10158080.5248, 4465443.616999999], [-10158090.4803, 4464947.826700002], [-10157664.462, 4464931.622400001], [-10157583.2938, 4464928.533], [-10157089.416, 4464909.722099997], [-10157104.7985, 4464395.026900001], [-10156095.5671, 4464340.770499997], [-10155077.053, 4464285.916599996], [-10154580.0661, 4464259.114699997], [-10154573.4566, 4465266.938699998], [-10154064.1671, 4465234.187399998], [-10154062.8211, 4465550.2795], [-10154048.0341, 4466142.902800001], [-10153082.7644, 4466152.069399998], [-10153076.2101, 4465644.824900001], [-10152563.3867, 4465654.162199996], [-10152068.9519, 4465663.140900001], [-10152056.0454, 4466044.703299999], [-10152052.8993, 4466167.545000002], [-10152037.4687, 4466769.992600001], [-10152028.0092, 4467191.278800003], [-10151999.7912, 4468195.114399999], [-10150005.1042, 4468140.778099999], [-10147990.915, 4468111.3156], [-10148016.3111, 4467104.3999999985], [-10146667.8314, 4467019.5222999975], [-10146607.0513, 4467014.660599999], [-10146116.6652, 4466975.422700003], [-10145046.4248, 4466979.2924000025], [-10144129.6751, 4466981.648500003], [-10144127.1582, 4466479.915899999], [-10144129.2676, 4464965.0647], [-10144129.3478, 4464907.442699999], [-10144135.9704, 4464460.487199999], [-10144136.3249, 4464436.5524], [-10144148.1168, 4462935.003300004], [-10144156.2893, 4460393.755900003], [-10144147.5864, 4459889.263800003], [-10143808.1968, 4459880.9767], [-10143632.6816, 4459876.047700003], [-10143639.2531, 4459367.248099998], [-10143645.8232, 4458858.4727], [-10143136.588, 4458840.957800001], [-10143142.3524, 4458346.3094], [-10142127.5282, 4458307.7141999975], [-10142157.8309, 4456305.1285], [-10141421.827, 4456466.668799996], [-10139518.4413, 4456885.453299999], [-10139050.9357, 4456988.258699998], [-10139080.0129, 4457502.296400003], [-10138662.1953, 4457606.881499998], [-10138444.0467, 4457661.479699999], [-10137920.0889, 4457784.132399999], [-10137414.1716, 4457906.273699999], [-10136635.2201, 4458090.742299996], [-10136693.7499, 4456730.287299998], [-10136169.8894, 4456728.385700002], [-10136157.9944, 4455096.4113000035], [-10136145.6047, 4454201.0889], [-10136167.0626, 4451115.228699997], [-10135406.4965, 4451122.842799999], [-10135400.7381, 4450976.062200002], [-10135406.1979, 4450709.373899996], [-10135402.8058, 4450082.543700002], [-10134137.169, 4450074.400799997], [-10134168.8563, 4448001.432499997], [-10134208.1193, 4446455.7255000025], [-10134719.627, 4446366.619800001], [-10134722.6065, 4445844.519900002], [-10135219.7374, 4445761.194899999], [-10135238.4223, 4444296.024400003], [-10135244.2792, 4443865.702600002], [-10135251.3891, 4443519.954300001], [-10135252.6677, 4443457.774700001], [-10135179.9149, 4443406.328299999], [-10135152.1377, 4443377.933600001], [-10135141.9842, 4443352.419200003], [-10135139.7917, 4443324.124200001], [-10136495.0595, 4443224.280199997], [-10136995.136, 4443185.601599999], [-10138482.3427, 4443075.010499999], [-10138453.0645, 4444113.7042], [-10138441.4006, 4444601.499600001], [-10138424.5685, 4445259.868600003], [-10138251.6513, 4445289.762100004], [-10138224.6531, 4445294.429099999], [-10138228.2899, 4445815.511100002], [-10138228.5101, 4445847.056699999], [-10138232.8919, 4446475.014799997], [-10138235.3961, 4446833.946000002], [-10137719.752, 4446838.760499999], [-10137214.7705, 4446843.450800002], [-10137218.7946, 4447321.142300002], [-10136196.9215, 4447314.8440999985], [-10136195.1691, 4448336.642999999], [-10136194.2434, 4448875.571699999], [-10136193.3356, 4449403.393700004], [-10138209.3564, 4449395.2421], [-10138211.7027, 4450297.468199998], [-10138211.2938, 4450637.867700003], [-10138209.03, 4450932.939199999], [-10138206.8005, 4450991.846000001], [-10138205.0727, 4451037.495999999], [-10138203.2767, 4451263.406199999], [-10138190.8291, 4452222.324299999], [-10138178.7747, 4453082.680600002], [-10138175.7958, 4453474.313299999], [-10138165.9776, 4454764.5200999975], [-10138162.3576, 4455513.030000001], [-10138508.8757, 4455451.691699997], [-10139000.7084, 4455373.114399999], [-10139307.6825, 4455326.678099997], [-10139529.5606, 4455289.926299997], [-10139728.2937, 4455259.864500001], [-10140099.2147, 4455203.618699998], [-10140094.9369, 4454700.277900003], [-10140094.5137, 4454184.600199997], [-10141128.3244, 4454170.805699997], [-10141145.8183, 4453180.532899998], [-10141702.3497, 4453179.722099997], [-10142252.3354, 4453176.4111], [-10142261.4441, 4452796.615199998], [-10143238.3956, 4452824.712099999], [-10144233.1043, 4452853.226499997], [-10144241.4882, 4453494.689800002], [-10144250.2965, 4453846.536899999], [-10145264.1717, 4453878.5222999975], [-10145263.6621, 4454885.8407000005], [-10146282.6567, 4454924.0524], [-10146284.4466, 4454924.1954], [-10146515.9558, 4454922.792499997], [-10146770.9591, 4454934.096699998], [-10148288.0729, 4455001.2214], [-10149287.4274, 4455049.3467999995], [-10149788.937, 4455067.669799998], [-10150295.6319, 4455096.8994999975], [-10150298.1484, 4455096.972000003], [-10151319.2234, 4455126.314900003], [-10151333.8113, 4454624.817400001], [-10151346.5377, 4454120.470299996], [-10151360.3058, 4453608.777999997], [-10151371.6928, 4453100.894699998], [-10151377.0759, 4452602.1065], [-10151382.3482, 4452092.957400002], [-10151394.3984, 4451086.855300002], [-10152416.9457, 4451108.3574], [-10153434.5999, 4451130.6428999975], [-10154306.8029, 4451155.2304000035], [-10154297.9055, 4451460.6536], [-10154255.7212, 4453191.1316], [-10154235.8077, 4454193.531300001], [-10154229.3938, 4454512.954300001], [-10154213.5024, 4455206.6558], [-10154203.6568, 4455765.070100002], [-10154197.8516, 4456035.285999998], [-10154194.6747, 4456208.7236], [-10154187.8703, 4456630.1492], [-10154176.1912, 4457209.134499997], [-10154150.491, 4458724.870700002], [-10154133.8503, 4459716.204000004], [-10154105.9277, 4461211.299400002], [-10154094.7645, 4461671.615699999], [-10154085.5569, 4462219.680699997], [-10154085.2554, 4462228.829000004], [-10154068.259, 4462744.674599998], [-10154581.5913, 4462767.990199998], [-10154572.2354, 4463278.995800003], [-10154687.3798, 4463285.1701000035], [-10155296.1969, 4463317.794100001], [-10155595.4939, 4463333.819200002], [-10155616.0698, 4462318.421999998], [-10156127.0688, 4462346.824699998], [-10156192.5956, 4462350.464900002], [-10157136.4044, 4462402.8527000025], [-10157131.6708, 4462919.571400002], [-10157631.387, 4462944.126000002], [-10157621.8036, 4463438.499300003], [-10158126.6066, 4463457.992600001], [-10158623.3892, 4463477.1526999995], [-10159035.3205, 4463493.022200003], [-10159124.3941, 4463496.020199999], [-10159626.0608, 4463512.891000003], [-10159613.4761, 4464013.085900001], [-10160023.5851, 4464024.7804000005], [-10160024.1481, 4464102.605899997], [-10160098.9172, 4464102.836000003], [-10160099.6871, 4464029.738499999], [-10160119.0739, 4464029.807800002], [-10160121.3313, 4463522.3094], [-10160626.0479, 4463538.890299998], [-10160621.8487, 4464032.996299997], [-10160940.3638, 4464040.061499998], [-10161374.8143, 4464050.753399998], [-10161714.4302, 4464056.559199996], [-10162106.6821, 4464064.287199996], [-10162145.6324, 4464061.894299999], [-10162148.2184, 4463937.767200001], [-10162153.1798, 4463553.943400003], [-10162166.1244, 4462552.299800001], [-10162172.5065, 4462058.327], [-10163104.2917, 4462084.163699999], [-10163128.8545, 4462084.843699999], [-10164194.5077, 4462114.288599998], [-10164213.4597, 4462114.811300002], [-10164213.0684, 4462122.590400003], [-10164211.9641, 4462144.5502], [-10164202.0886, 4462340.9199], [-10164456.1064, 4462120.250699997], [-10165043.8471, 4462127.826800004], [-10165227.9847, 4462130.193499997], [-10165242.2595, 4461624.3609], [-10165735.7978, 4461630.477399997], [-10165722.5879, 4462805.659100004], [-10165721.9159, 4462865.4331], [-10165713.0646, 4463652.5669], [-10164553.8018, 4463629.373499997], [-10164432.8204, 4463626.945600003], [-10164429.7131, 4463889.0911], [-10163668.1058, 4463860.7007], [-10163673.025, 4463603.6774], [-10163164.9803, 4463583.336199999], [-10163159.1394, 4464170.891599998], [-10163154.7271, 4464614.632600002], [-10163144.5146, 4465641.435900003], [-10164157.4795, 4465685.544500001], [-10164448.6405, 4465698.2048999965], [-10165671.805, 4465738.769100003], [-10165661.843, 4466459.568899997], [-10165657.6536, 4466732.564900003], [-10166342.2624, 4466749.685999997], [-10166334.0017, 4467251.464100003], [-10166836.6988, 4467245.3697], [-10166833.5526, 4467543.8939], [-10166832.6507, 4467639.1721], [-10166832.5272, 4467652.215300001], [-10166831.6404, 4467745.912600003], [-10166827.4168, 4468007.683700003], [-10166825.7657, 4468252.510600001], [-10166818.5402, 4468764.480899997], [-10166813.1523, 4469274.871799998], [-10166305.4951, 4469269.950900003], [-10166297.0311, 4469776.223999999], [-10166288.9075, 4470262.0691], [-10166286.0552, 4470382.903399996], [-10166279.0574, 4470679.3521], [-10166276.2096, 4471088.760499999], [-10166276.2261, 4471088.760600001], [-10166270.6987, 4471317.733800001], [-10166263.2665, 4471829.3279], [-10167552.6765, 4471834.419299997], [-10168320.5205, 4471837.376000002], [-10168829.3466, 4471840.358999997], [-10169328.8435, 4471843.263499998], [-10169850.1526, 4471846.269299999], [-10169827.9682, 4473129.967200004], [-10170042.4218, 4473133.703500003], [-10170036.2391, 4473491.811499998], [-10170024.9402, 4474146.162299998], [-10169502.668, 4474137.053000003], [-10169493.9551, 4474640.125399999], [-10170011.3915, 4474649.1514], [-10170002.8268, 4475145.003899999], [-10170523.5491, 4475154.062600002], [-10170514.9375, 4475653.997199997], [-10171032.9106, 4475662.9837], [-10171029.8636, 4476087.752400003], [-10171023.6909, 4476660.041500002], [-10171538.1725, 4476664.576399997], [-10172882.8619, 4476685.672899999], [-10173650.3393, 4476705.382399999], [-10174022.5169, 4476717.189999998], [-10175038.1098, 4476741.483999997], [-10175551.1195, 4476752.589400001], [-10175582.0601, 4476829.127599999], [-10175603.5209, 4476865.2892], [-10175636.7175, 4476904.682899997], [-10175671.8293, 4476938.041199997], [-10175710.8592, 4476981.726599999], [-10175725.4319, 4477014.131499998], [-10175737.038, 4477079.252499998], [-10175762.2714, 4477254.3072], [-10176037.561, 4477258.178499997], [-10176013.6733, 4477763.8495000005], [-10177007.8085, 4477798.463299997], [-10176955.0682, 4479291.052299999], [-10176954.3992, 4479313.729099996], [-10176919.005, 4480513.256300002], [-10176895.9216, 4481386.810400002], [-10176884.4141, 4481915.078000002], [-10176875.415, 4482419.983999997], [-10177026.033, 4482425.0383], [-10177371.7444, 4482423.331799999], [-10177370.3878, 4482170.972000003], [-10177870.7582, 4482165.512599997], [-10177867.3091, 4482453.145800002], [-10179734.5561, 4482456.028800003], [-10181979.4897, 4482475.6608000025], [-10182988.4123, 4482479.3715], [-10182983.6117, 4482976.700599998], [-10184003.5194, 4482990.4221], [-10184001.4807, 4483538.173500001], [-10184087.7032, 4483538.0995000005], [-10185011.0897, 4483537.262599997], [-10185014.0435, 4484068.2114999965], [-10185016.8465, 4484572.1548999995], [-10185016.5926, 4484588.145499997], [-10185000.7862, 4485583.499600001], [-10184899.8769, 4485581.882700004], [-10184893.3428, 4486580.606200002], [-10184886.7629, 4487585.862899996], [-10184880.1415, 4488596.928099997], [-10185362.1461, 4488604.647100002], [-10185885.0844, 4488612.9965], [-10185885.1106, 4488609.487000003], [-10185981.9812, 4488612.752400003], [-10186236.6382, 4488621.332400002], [-10186877.3385, 4488642.891500004], [-10187913.1549, 4488676.267700002], [-10188912.1558, 4488708.935500003], [-10188919.2143, 4488709.166000001], [-10189446.6988, 4488725.401900001], [-10189947.2015, 4488740.782799996], [-10190954.3694, 4488775.615999997], [-10190941.5306, 4489811.266800001], [-10190931.2331, 4490304.278499998], [-10190922.3727, 4490815.581100002], [-10191238.2178, 4490826.249600001], [-10191548.6213, 4490844.134300001], [-10191934.646, 4490864.780199997], [-10192170.0391, 4490871.613799997], [-10192566.183, 4490891.7073], [-10192956.6507, 4490907.8543], [-10193075.443, 4490914.608499996], [-10193228.2989, 4490920.894100003], [-10193349.6227, 4490927.914300002], [-10193464.4616, 4490933.6017], [-10193454.8522, 4491435.762699999], [-10193445.6079, 4491749.456799999], [-10193436.8954, 4492437.611699998], [-10193752.5849, 4492443.866499998], [-10194501.6869, 4492458.670500003], [-10194500.3911, 4492968.939800002], [-10194497.6714, 4493709.468099996], [-10194496.5689, 4493959.362599999], [-10194974.2309, 4493982.609899998], [-10196481.9454, 4494047.163400002], [-10196466.6024, 4494827.983599998], [-10196458.0634, 4495281.425399996], [-10196447.621, 4495810.2073], [-10196443.532, 4496092.370099999], [-10197427.2215, 4496108.830700003], [-10197413.5726, 4496609.386100002], [-10197910.7559, 4496618.140299998], [-10197891.3661, 4497109.6171], [-10197888.9067, 4497194.715899996], [-10197888.1493, 4497220.919299997], [-10197883.6108, 4497377.950800002], [-10198215.3819, 4497391.987999998], [-10198396.9674, 4497401.227899998], [-10198395.4263, 4497641.153700002], [-10198917.2402, 4497651.252499998], [-10198893.5598, 4498156.2487], [-10198987.8846, 4498160.667800002], [-10198981.5599, 4498416.785599999], [-10198975.2737, 4498671.3266], [-10198962.3301, 4499195.406900004], [-10199479.9176, 4499228.3926], [-10199465.0388, 4499734.82], [-10199943.1257, 4499734.022], [-10199958.3194, 4499188.391400002], [-10199972.7901, 4498668.674400002], [-10201010.9543, 4498699.929700002], [-10201010.1523, 4498156.002400003], [-10201009.4148, 4497656.108000003], [-10201554.1188, 4497670.920400001], [-10202090.3018, 4497685.473399997], [-10202619.7324, 4497699.816], [-10203140.5245, 4497713.898500003], [-10203132.1904, 4498232.694200002], [-10203124.8419, 4498690.0845], [-10203123.3966, 4498764.547399998], [-10203114.6917, 4499213.047200002], [-10203107.5571, 4499580.597499996], [-10203107.1702, 4499600.5348000005], [-10203103.2252, 4499803.750699997], [-10203364.8853, 4499809.745399997], [-10204149.9803, 4499827.692900002], [-10204128.2092, 4500855.429799996], [-10205171.9156, 4500880.7236], [-10205156.7822, 4501784.380199999], [-10204880.2984, 4501639.268100001], [-10204745.3227, 4501569.394699998], [-10204677.9435, 4501527.434600003], [-10204670.5828, 4501535.126000002], [-10204732.1038, 4501582.875], [-10204772.5596, 4501638.936499998], [-10204811.371, 4501673.351400003], [-10204847.5372, 4501727.085699998], [-10204849.5728, 4501730.109899998], [-10204869.0771, 4501849.6131], [-10204862.6764, 4501878.8440999985], [-10204854.3668, 4501916.791699998], [-10204845.6624, 4502016.242899999], [-10204854.9989, 4502081.0726], [-10204858.8174, 4502089.764399998], [-10204888.9261, 4502158.299000002], [-10204726.8809, 4502154.336000003], [-10204728.5399, 4502069.764899999], [-10204698.5925, 4502069.346900001], [-10204694.6233, 4502152.927199997], [-10204627.6768, 4502153.398100004], [-10204617.6762, 4502414.859499998], [-10204129.7648, 4502407.9001], [-10204044.7957, 4502406.685800001], [-10203992.8347, 4502405.9428], [-10203942.4054, 4502405.221500002], [-10203891.6034, 4502404.494599998], [-10203764.3788, 4502402.673199996], [-10203059.5942, 4502392.555500001], [-10203065.2544, 4501870.567599997], [-10202546.5134, 4501868.988600001], [-10202556.0849, 4500824.769900002], [-10202033.635, 4500815.307899997], [-10201516.4889, 4500805.916100003], [-10201526.702, 4500308.013999999], [-10200992.397, 4500290.953900002], [-10200471.0791, 4500274.2820999995], [-10200453.7487, 4500796.304700002], [-10199937.1529, 4500775.358999997], [-10199923.0215, 4500775.1523], [-10199421.3076, 4500767.801200002], [-10199397.3511, 4501777.751000002], [-10199384.7929, 4502307.097400002], [-10199384.4694, 4502318.1061], [-10199369.6336, 4502822.8957], [-10198341.988, 4502782.686999999]]]]}}, {"type": "Feature", "properties": {"OBJECTID": 269, "CreationDate": "2025-01-14T11:11:12Z", "Creator": "NPS_WASO_LANDS", "EditDate": "2025-01-14T11:11:12Z", "Editor": "NPS_WASO_LANDS", "GlobalID": "{C8B5E897-387C-4210-BD55-EF67BB3BC945}", "AreaID": 280, "UNIT_CODE": "ULSG", "GIS_Notes": "Lands - http://landsnet.nps.gov/tractsnet/documents/ULSG/Metadata/ulsg_metadata.xml", "UNIT_NAME": "Ulysses S. Grant National Historic Site", "DATE_EDIT": "2008-07-01T00:00:00Z", "STATE": "MO", "REGION": "MW", "GNIS_ID": "2733425", "UNIT_TYPE": "National Historic Site", "CREATED_BY": "Lands", "METADATA": "https://irma.nps.gov/DataStore/Reference/Profile/1048194", "PARKNAME": "Ulysses S Grant", "SHAPE_Length": 1054.3106039988274, "SHAPE_Area": 65455.1832837728}, "geometry": {"type": "MultiPolygon", "coordinates": [[[[-10057999.8137, 4657550.433899999], [-10058029.3044, 4657577.301799998], [-10058087.8028, 4657630.596900001], [-10057908.9947, 4657830.884800002], [-10057908.3367, 4657831.544], [-10057907.6562, 4657832.18], [-10057906.9542, 4657832.7918], [-10057906.2314, 4657833.378799997], [-10057905.4889, 4657833.940499999], [-10057904.7275, 4657834.475599997], [-10057903.9479, 4657834.984300002], [-10057903.1514, 4657835.465599999], [-10057902.3387, 4657835.918700002], [-10057901.5109, 4657836.3433], [-10057900.6688, 4657836.738799997], [-10057899.6652, 4657837.1853], [-10057898.6476, 4657837.598700002], [-10057897.6173, 4657837.9789], [-10057896.5751, 4657838.325499997], [-10057895.5224, 4657838.637900002], [-10057882.4778, 4657841.102399997], [-10057878.0298, 4657841.9428], [-10057877.0571, 4657842.046300001], [-10057876.0882, 4657842.180100001], [-10057875.1237, 4657842.343699999], [-10057874.1647, 4657842.536799997], [-10057873.212, 4657842.759300001], [-10057872.2666, 4657843.011299998], [-10057871.2508, 4657843.3169], [-10057870.2458, 4657843.656400003], [-10057869.2525, 4657844.029299997], [-10057868.2722, 4657844.4353], [-10057867.3059, 4657844.8737], [-10057866.3546, 4657845.343999997], [-10057865.4195, 4657845.8461000025], [-10057860.1508, 4657849.828000002], [-10057721.3356, 4657724.871100001], [-10057864.9429, 4657564.019100003], [-10057865.4934, 4657564.407399997], [-10057866.0571, 4657564.776500002], [-10057866.633, 4657565.125799999], [-10057867.2209, 4657565.455200002], [-10057867.8197, 4657565.763300002], [-10057868.4288, 4657566.050899997], [-10057869.0472, 4657566.317199998], [-10057869.6747, 4657566.5616], [-10057870.3101, 4657566.784400001], [-10057870.9529, 4657566.9848000035], [-10057871.6021, 4657567.162699997], [-10057872.2569, 4657567.3182], [-10057872.9168, 4657567.4507], [-10057873.5809, 4657567.5603], [-10057874.2484, 4657567.646700002], [-10057874.9184, 4657567.709899999], [-10057875.5903, 4657567.749899998], [-10057876.263, 4657567.766400002], [-10057876.9359, 4657567.7597], [-10057877.6083, 4657567.7294000015], [-10057878.2792, 4657567.675999999], [-10057878.9478, 4657567.599299997], [-10057879.6133, 4657567.499499999], [-10057880.2749, 4657567.376400001], [-10057880.9323, 4657567.230599999], [-10057881.5839, 4657567.062100001], [-10057882.2295, 4657566.871100001], [-10057882.868, 4657566.657700002], [-10057883.4987, 4657566.422200002], [-10057884.1211, 4657566.164999999], [-10057884.7343, 4657565.886299998], [-10057885.3375, 4657565.5867], [-10057885.9299, 4657565.266099997], [-10057886.5109, 4657564.9252], [-10057887.08, 4657564.564400002], [-10057887.6363, 4657564.184100002], [-10057888.179, 4657563.784500003], [-10057888.7078, 4657563.366599999], [-10057889.2218, 4657562.930299997], [-10057889.7205, 4657562.4767], [-10057890.2033, 4657562.005800001], [-10057890.6696, 4657561.518399999], [-10057891.1188, 4657561.0154], [-10057891.5504, 4657560.497000001], [-10057891.9639, 4657559.9636999965], [-10057892.3588, 4657559.416599996], [-10057892.7348, 4657558.855899997], [-10057893.0909, 4657558.282700002], [-10057893.4272, 4657557.697499998], [-10057893.7434, 4657557.1008], [-10057894.0386, 4657556.493600003], [-10057894.3128, 4657555.876400001], [-10057894.5656, 4657555.250200003], [-10057894.7967, 4657554.615500003], [-10057895.0056, 4657553.9733000025], [-10057895.1925, 4657553.324000001], [-10057895.3569, 4657552.669], [-10057895.4986, 4657552.008100003], [-10057895.6175, 4657551.3429000005], [-10057895.7135, 4657550.674000002], [-10057895.7863, 4657550.002499998], [-10057895.8358, 4657549.328500003], [-10057895.8623, 4657548.6532000005], [-10057895.8655, 4657547.977499999], [-10057895.8455, 4657547.302100003], [-10057895.8021, 4657546.627700001], [-10057895.7354, 4657545.955200002], [-10057895.6459, 4657545.285400003], [-10057895.5331, 4657544.619199999], [-10057895.3976, 4657543.9573], [-10057895.2396, 4657543.300700001], [-10057895.0587, 4657542.649599999], [-10057894.8557, 4657542.005400002], [-10057894.6305, 4657541.368500002], [-10057894.3835, 4657540.740000002], [-10057894.1152, 4657540.120300002], [-10057893.8255, 4657539.510300003], [-10057893.515, 4657538.910700001], [-10057893.1843, 4657538.322300002], [-10057892.8333, 4657537.745700002], [-10057892.4627, 4657537.181599997], [-10057892.073, 4657536.6307], [-10057891.6645, 4657536.093800001], [-10057891.2377, 4657535.571099997], [-10057890.7932, 4657535.0638], [-10057932.1263, 4657488.766099997], [-10057999.8137, 4657550.433899999]]]]}}, {"type": "Feature", "properties": {"OBJECTID": 427, "CreationDate": "2025-01-14T11:11:14Z", "Creator": "NPS_WASO_LANDS", "EditDate": "2025-01-14T11:11:14Z", "Editor": "NPS_WASO_LANDS", "GlobalID": "{570C034F-026F-4C5D-8274-7DDDEBC248D3}", "AreaID": 454, "UNIT_CODE": "STGE", "GIS_Notes": "Lands - http://landsnet.nps.gov/tractsnet/documents/STGE/Metadata/stge_metadata.xml", "UNIT_NAME": "Ste. Genevieve National Historical Park", "DATE_EDIT": "2023-03-13T14:36:50Z", "STATE": "MO", "REGION": "MW", "GNIS_ID": "need", "UNIT_TYPE": "National Historical Park", "CREATED_BY": "Lands", "METADATA": "https://irma.nps.gov/DataStore/Reference/Profile/2283806", "PARKNAME": "Ste. Genevi\u00e8ve", "SHAPE_Length": 2667.1785194759414, "SHAPE_Area": 107696.64105803194}, "geometry": {"type": "MultiPolygon", "coordinates": [[[[-10023415.2497, 4576101.848099999], [-10023436.2359, 4576063.738799997], [-10023483.5416, 4576079.639399998], [-10023495.8489, 4576082.004299998], [-10023484.8901, 4576142.644400001], [-10023415.2497, 4576101.848099999]]], [[[-10023548.3922, 4576480.4978], [-10023621.0883, 4576469.411799997], [-10023628.2963, 4576545.819700003], [-10023556.6768, 4576561.291599996], [-10023548.3922, 4576480.4978]]], [[[-10020575.4769, 4572027.381099999], [-10020487.8069, 4571898.979099996], [-10020460.8842, 4571910.172600001], [-10020385.1658, 4571942.185699999], [-10020356.1717, 4571872.587700002], [-10020418.0154, 4571846.552900001], [-10020446.097, 4571835.862499997], [-10020432.1468, 4571814.673699997], [-10020524.2346, 4571737.894699998], [-10020526.1438, 4571742.606899999], [-10020535.9439, 4571737.460699998], [-10020549.5954, 4571763.423699997], [-10020575.9381, 4571832.2236], [-10020665.899, 4571977.398000002], [-10020644.894, 4571989.336400002], [-10020582.0299, 4572036.962099999], [-10020575.4769, 4572027.381099999]]], [[[-10023245.592, 4575664.103600003], [-10023224.4023, 4575602.948299997], [-10023450.6938, 4575548.284599997], [-10023468.1755, 4575579.7271], [-10023481.5473, 4575603.777599998], [-10023498.4903, 4575599.761200003], [-10023514.1946, 4575665.094499998], [-10023524.6597, 4575707.023800001], [-10023533.0608, 4575743.457400002], [-10023286.7533, 4575800.672899999], [-10023274.3358, 4575813.4201000035], [-10023199.1586, 4575843.626400001], [-10023176.0681, 4575765.813900001], [-10023251.1083, 4575735.6630000025], [-10023265.7245, 4575730.609499998], [-10023263.0117, 4575721.609999999], [-10023254.5439, 4575693.785099998], [-10023245.592, 4575664.103600003]]]]}}]}