{"type": "FeatureCollection", "name": "Nevada_park", "crs": {"type": "name", "properties": {"name": "urn:ogc:def:crs:EPSG::3857"}}, "features": [{"type": "Feature", "properties": {"OBJECTID": 332, "CreationDate": "2025-01-14T11:11:13Z", "Creator": "NPS_WASO_LANDS", "EditDate": "2025-01-14T11:11:13Z", "Editor": "NPS_WASO_LANDS", "GlobalID": "{F9FC518B-4CA5-4E12-B439-3D3FE469DE37}", "AreaID": 347, "UNIT_CODE": "GRBA", "GIS_Notes": "Lands - http://landsnet.nps.gov/tractsnet/documents/GRBA/Metadata/grba_metadata.xml", "UNIT_NAME": "Great Basin National Park", "DATE_EDIT": "2009-09-10T00:00:00Z", "STATE": "NV", "REGION": "PW", "GNIS_ID": "862430", "UNIT_TYPE": "National Park", "CREATED_BY": "Lands", "METADATA": "https://irma.nps.gov/DataStore/Reference/Profile/1048548", "PARKNAME": "Great Basin", "SHAPE_Length": 132859.99927716277, "SHAPE_Area": 515901035.8715367}, "geometry": {"type": "MultiPolygon", "coordinates": [[[[-12711367.913800001, 4709535.020499997], [-12711367.8938, 4709523.898000002], [-12711367.7837, 4709166.489200003], [-12711367.623599999, 4708648.165899999], [-12711367.5643, 4708464.1586000025], [-12711367.4628, 4708129.855800003], [-12711367.3003, 4707611.585000001], [-12711367.2661, 4707496.528999999], [-12711367.1367, 4707093.327399999], [-12711366.9718, 4706575.108800001], [-12711366.806, 4706056.903499998], [-12711366.680100001, 4705634.341499999], [-12711366.6514, 4705538.737599999], [-12711366.585, 4705317.743900001], [-12711366.4817, 4705021.885700002], [-12711366.483199999, 4705020.5845], [-12711366.3134, 4704502.4705], [-12711366.142, 4703984.3825], [-12711365.957, 4703466.3204], [-12711365.7573, 4702948.296800002], [-12711365.569699999, 4702430.286899999], [-12711365.380800001, 4701912.303099997], [-12712397.0266, 4701913.0298999995], [-12713428.6749, 4701913.741400003], [-12714460.422600001, 4701913.7711], [-12715159.706500001, 4701913.777400002], [-12715492.1855, 4701913.785700001], [-12715491.8752, 4701395.820799999], [-12715491.5767, 4700877.869599998], [-12715491.1227, 4700359.965599999], [-12715490.6675, 4699842.087399997], [-12714974.869800001, 4699842.142499998], [-12714459.0728, 4699842.196999997], [-12714162.417100001, 4699842.223899998], [-12714140.1336, 4699837.381300002], [-12713910.6661, 4699787.745300002], [-12713902.2239, 4699842.2277000025], [-12713427.5496, 4699842.113399997], [-12713427.3066, 4699354.7874], [-12713427.2889, 4699324.2304000035], [-12713427.013799999, 4698806.386], [-12713426.6226, 4698288.551299997], [-12713426.2429, 4697770.743199997], [-12713425.6317, 4697252.954000004], [-12713425.0195, 4696735.178000003], [-12713424.4058, 4696217.440899998], [-12713423.7914, 4695699.7168999985], [-12713939.3149, 4695699.613399997], [-12714454.839200001, 4695699.509199999], [-12714662.3405, 4695699.499600001], [-12714970.3754, 4695699.456100002], [-12715485.899500001, 4695699.376500003], [-12716001.4366, 4695699.309600003], [-12716140.6347, 4695699.2874], [-12716516.9734, 4695699.268100001], [-12717032.499499999, 4695699.173900001], [-12717548.0263, 4695699.066399999], [-12718063.5176, 4695698.880099997], [-12718578.996, 4695698.693700001], [-12719094.4868, 4695698.521499999], [-12719609.9657, 4695698.3352999985], [-12720125.493, 4695698.2531], [-12720641.0214, 4695698.157399997], [-12721156.548, 4695698.125500001], [-12721629.0394, 4695698.080600001], [-12721733.7011, 4695698.081900001], [-12721733.5345, 4696215.750100002], [-12721733.4705, 4696432.4155], [-12721733.4305, 4696733.459399998], [-12721733.2739, 4697251.1928], [-12721733.2092, 4697467.8671], [-12721733.180599999, 4697768.941699997], [-12721733.0216, 4698286.727300003], [-12721732.956, 4698503.423299998], [-12722248.6537, 4698503.304499999], [-12722552.3917, 4698503.239200003], [-12722614.0386, 4698807.9608], [-12722641.9856, 4699021.215499997], [-12722678.7656, 4699301.839100003], [-12722562.8352, 4699396.7097999975], [-12722489.7394, 4699539.177100003], [-12722398.091, 4699717.805600002], [-12722451.267099999, 4700057.0427], [-12722532.4573, 4700574.912199996], [-12722255.5967, 4701100.189300001], [-12722764.3137, 4701610.919200003], [-12723136.8189, 4701984.952299997], [-12723280.2041, 4702128.934699997], [-12723796.1471, 4702646.952], [-12724144.6328, 4702996.6483], [-12724312.146499999, 4703164.8301], [-12724828.2116, 4703682.697800003], [-12725344.316, 4704200.579999998], [-12725860.4727, 4704718.464400001], [-12726376.501899999, 4704718.329700001], [-12726892.5316, 4704718.194200002], [-12726892.861499999, 4705236.374899998], [-12726893.1904, 4705754.581699997], [-12726893.4401, 4706122.888700001], [-12726893.5214, 4706272.698700003], [-12726893.8507, 4706790.854999997], [-12726894.0474, 4707116.993299998], [-12726888.4054, 4707141.441], [-12726894.0603, 4707142.934799999], [-12726894.1639, 4707309.114200003], [-12726894.4885, 4707827.412600003], [-12726378.29, 4707827.489399999], [-12725862.0931, 4707827.526799999], [-12725600.136, 4707827.608199999], [-12725345.9293, 4707827.757700004], [-12724914.0466, 4707827.843999997], [-12724926.8936, 4707724.351099998], [-12724979.072700001, 4707309.5886999965], [-12725000.4595, 4707139.471600004], [-12725045.3255, 4706791.279299997], [-12725076.496100001, 4706550.123199999], [-12725110.6805, 4706273.136500001], [-12725147.8429, 4705972.0211], [-12724915.3389, 4705942.663999997], [-12724842.3838, 4706526.578199998], [-12724829.2714, 4706629.522399999], [-12724808.6526, 4706791.354999997], [-12724768.0195, 4707109.6712], [-12724742.6312, 4707309.682400003], [-12724693.8369, 4707694.1294], [-12724677.361499999, 4707827.954599999], [-12724632.906100001, 4708189.080200002], [-12724598.1808, 4708346.316600002], [-12724506.733, 4708760.417300001], [-12724500.545, 4708785.315399997], [-12724480.8803, 4708864.668300003], [-12724380.8159, 4709267.641400002], [-12724234.911600001, 4709824.501900002], [-12724244.1411, 4709826.271399997], [-12724469.8127, 4709869.555200003], [-12724478.6337, 4709871.247900002], [-12724613.622200001, 4709297.533], [-12724700.3705, 4708944.5956000015], [-12724720.028, 4708864.571400002], [-12724830.1664, 4708864.5375000015], [-12725346.3947, 4708864.3226], [-12725641.190299999, 4708864.187799998], [-12725556.9517, 4709201.828000002], [-12725632.8114, 4709220.891900003], [-12725721.8817, 4708864.162900001], [-12725817.2069, 4708864.131399997], [-12725862.6359, 4708864.120399997], [-12726378.8751, 4708863.994999997], [-12726895.1143, 4708863.881499998], [-12726895.487599999, 4709382.234300002], [-12726895.833700001, 4709872.034900002], [-12726895.859000001, 4709900.6263], [-12726896.2322, 4710418.954300001], [-12726896.6037, 4710937.321099997], [-12726896.9217, 4711455.7513], [-12726897.2389, 4711974.194799997], [-12726897.5342, 4712448.091300003], [-12726897.554200001, 4712492.690399997], [-12726897.9352, 4713117.501100004], [-12727414.4026, 4713117.422700003], [-12727930.8705, 4713117.3434000015], [-12727964.7091, 4713117.3440999985], [-12727983.0475, 4713117.3407000005], [-12727983.4344, 4713677.599399999], [-12727983.802000001, 4714196.157700002], [-12727984.1688, 4714714.7294000015], [-12727984.2554, 4714841.013499998], [-12727984.521200001, 4715233.3396999985], [-12727984.9373, 4715751.952299997], [-12727985.3396, 4716270.590800002], [-12727985.622200001, 4716659.218699999], [-12727985.7144, 4716789.2676], [-12727985.8126, 4716936.319399998], [-12727985.9471, 4717129.321800001], [-12727986.0623, 4717307.982900001], [-12728502.7548, 4717307.523199998], [-12729019.433899999, 4717307.087899998], [-12729536.114, 4717306.639399998], [-12730052.7944, 4717306.190099999], [-12730053.0858, 4717610.169699997], [-12730053.2978, 4717824.937299997], [-12730053.7413, 4718272.896499999], [-12730053.800099999, 4718343.711099997], [-12730054.3145, 4718862.498499997], [-12730054.5079, 4719055.242700003], [-12730054.8146, 4719381.3248], [-12730055.339, 4719900.178000003], [-12730055.5557, 4720119.651900001], [-12730055.8369, 4720419.056699999], [-12730056.3728, 4720937.937100001], [-12730056.9201, 4721456.857000001], [-12730057.1687, 4721723.611400001], [-12730057.426, 4721975.817299999], [-12730057.943300001, 4722494.7927], [-12730058.485, 4723013.795400001], [-12730059.0383, 4723532.824699998], [-12729542.2058, 4724052.368900001], [-12729025.333, 4724571.9113000035], [-12728883.5136, 4724714.2848000005], [-12728508.3947, 4725091.437899999], [-12728173.0172, 4725428.433799997], [-12727991.4158, 4725610.9881], [-12727989.9166, 4726130.126100004], [-12727988.429, 4726649.290899999], [-12727986.9397, 4727168.494999997], [-12727985.4489, 4727687.7249], [-12727983.6962, 4728207.103100002], [-12727981.9548, 4728726.507799998], [-12727980.2122, 4729245.938900001], [-12727978.4681, 4729765.396300003], [-12727976.5918, 4730284.9538], [-12727974.7273, 4730804.5380000025], [-12727458.652800001, 4730804.772699997], [-12726942.5799, 4730804.968199998], [-12726426.5081, 4730805.137100004], [-12725910.4247, 4730805.279100001], [-12725393.177000001, 4730805.218199998], [-12724875.9309, 4730805.117600001], [-12724358.685899999, 4730804.990500003], [-12723841.429, 4730804.849299997], [-12723325.2904, 4730804.753899999], [-12722809.1526, 4730804.644699998], [-12722293.376600001, 4730804.493900001], [-12721777.601300001, 4730804.3301], [-12721777.2214, 4730950.0317], [-12721162.555, 4730948.414099999], [-12720645.717, 4730947.010200001], [-12720129.3479, 4730945.865000002], [-12719612.9665, 4730944.718999997], [-12719240.7949, 4730944.442000002], [-12719097.069699999, 4730944.581500001], [-12718581.1676, 4730945.063000001], [-12718581.1761, 4730923.854000002], [-12718581.4745, 4730426.156499997], [-12718581.767, 4729907.288699999], [-12718582.071899999, 4729388.421800002], [-12718582.375500001, 4728869.5814], [-12718582.0758, 4728351.1105], [-12718581.7621, 4727832.6655], [-12718581.4616, 4727314.195500001], [-12718581.1472, 4726795.7513], [-12718065.1688, 4726795.949299999], [-12717549.1897, 4726796.1472999975], [-12717033.206500001, 4726796.499200001], [-12716517.210900001, 4726796.850199997], [-12716001.2286, 4726797.200800002], [-12715485.246100001, 4726797.563699998], [-12715485.190499999, 4726278.329999998], [-12715485.1335, 4725759.122500002], [-12715485.0794, 4725351.053599998], [-12715485.075, 4725239.9542], [-12715485.0415, 4724720.8002], [-12714968.0444, 4724720.8103], [-12714534.5378, 4724720.804499999], [-12714451.0352, 4724720.806500003], [-12713934.0261, 4724720.8147], [-12713500.5071, 4724720.815499999], [-12713501.192, 4724695.909900002], [-12713512.4178, 4724189.369199999], [-12713523.6415, 4723682.853500001], [-12713520.9315, 4723419.642499998], [-12713520.257399999, 4723353.834100001], [-12713519.570500001, 4723288.0261999965], [-12713518.2218, 4723156.424999997], [-12713512.801199999, 4722630.036399998], [-12713512.9786, 4722110.984399997], [-12713513.042399999, 4721923.0977], [-12713513.0898, 4721591.9701000005], [-12713513.0924, 4721477.531800002], [-12713513.2666, 4721079.981399998], [-12713513.4936, 4720568.0200999975], [-12713416.5832, 4720568.013599999], [-12713416.583999999, 4720050.135700002], [-12713416.5904, 4719531.226099998], [-12713416.7363, 4719012.360100001], [-12713416.8942, 4718493.507799998], [-12712900.2319, 4718493.414300002], [-12712383.557500001, 4718493.306999996], [-12711866.8817, 4718493.263400003], [-12711818.057500001, 4718493.260499999], [-12711350.2063, 4718493.218900003], [-12710859.6444, 4718493.017700002], [-12710369.0959, 4718492.806000002], [-12710316.905299999, 4718492.807300001], [-12709852.4523, 4718492.608400002], [-12709335.8094, 4718492.397399999], [-12709335.9415, 4718460.743100002], [-12709338.4376, 4717943.2337], [-12709340.9186, 4717425.762900002], [-12709343.410799999, 4716908.3314], [-12709344.6499, 4716649.625200003], [-12709345.776, 4716415.3125], [-12709345.8757, 4716390.925300002], [-12709116.468899999, 4716390.3147], [-12708861.4882, 4716389.6347], [-12708606.585900001, 4716388.924900003], [-12708351.6835, 4716388.2214], [-12708224.329, 4716387.857299998], [-12708096.9746, 4716387.491700001], [-12707842.279, 4716386.756099999], [-12707714.9373, 4716386.399099998], [-12707587.5833, 4716386.027000003], [-12707332.888, 4716385.2914], [-12707322.4452, 4715858.738300003], [-12707311.9896, 4715332.199000001], [-12707301.5466, 4714805.700099997], [-12707291.1032, 4714279.2151999995], [-12707234.8114, 4714278.001500003], [-12706718.213399999, 4714267.254799999], [-12706256.870299999, 4714257.655299999], [-12706201.6185, 4714256.455799997], [-12705739.8072, 4714246.675899997], [-12705685.055300001, 4714245.5151999965], [-12705222.7328, 4714235.695799999], [-12705168.5068, 4714235.373999998], [-12705170.4084, 4713831.923799999], [-12705172.8616, 4713313.787699997], [-12705175.378600001, 4712796.053499997], [-12705177.8936, 4712278.358499996], [-12705178.2576, 4711760.853699997], [-12705178.607099999, 4711243.387400001], [-12705178.955400001, 4710725.9472], [-12705179.302299999, 4710208.5331000015], [-12705179.2937, 4710205.942000002], [-12705179.168, 4710065.8847], [-12705194.3465, 4710057.632799998], [-12705216.4288, 4710047.2773], [-12705235.0145, 4710039.181000002], [-12705261.9024, 4710034.979599997], [-12705286.955, 4710019.1723000035], [-12705310.1815, 4710009.4135000035], [-12705330.6206, 4710011.765699998], [-12705358.1097, 4710016.824900001], [-12705385.8992, 4710010.3222], [-12705412.8234, 4710003.805699997], [-12705434.3288, 4709993.440399997], [-12705456.2645, 4709992.3433], [-12705487.3807, 4709994.286700003], [-12705516.744199999, 4709997.648800001], [-12705553.2747, 4710003.7299000025], [-12705583.2375, 4710005.654700004], [-12705594.633299999, 4709996.285499997], [-12705614.4728, 4709981.841499999], [-12705632.0192, 4709984.725699998], [-12705652.2958, 4709994.602300003], [-12705673.2842, 4709998.698700003], [-12705707.6405, 4709996.3517], [-12705742.9352, 4709989.388899997], [-12705775.7217, 4709976.887000002], [-12705806.7826, 4709964.068499997], [-12705847.248300001, 4709958.345200002], [-12705883.2434, 4709961.811899997], [-12705935.255199999, 4709970.176700003], [-12705957.1086, 4709974.286700003], [-12705990.6136, 4709971.056900002], [-12706010.3978, 4709960.084100001], [-12706031.6789, 4709963.895199999], [-12706052.292399999, 4709973.483999997], [-12706077.4088, 4709971.857299998], [-12706102.1502, 4709975.723200001], [-12706120.137, 4709987.296099998], [-12706150.0271, 4709993.848399997], [-12706173.7291, 4709990.462300003], [-12706190.5989, 4709999.702100001], [-12706208.3113, 4710010.4021999985], [-12706223.4368, 4710004.870899998], [-12706254.5541, 4710009.8957], [-12706286.146200001, 4710010.809], [-12706301.4859, 4710001.166199997], [-12706322.387, 4709977.1941], [-12706349.8085, 4709956.209100001], [-12706365.5647, 4709946.160700001], [-12706396.778900001, 4709945.008299999], [-12706433.6219, 4709951.358999997], [-12706464.1644, 4709940.7211000025], [-12706485.546500001, 4709912.2255000025], [-12706502.5038, 4709887.078400001], [-12706534.1706, 4709857.098099999], [-12706571.0494, 4709835.0266999975], [-12706606.002, 4709831.049000002], [-12706645.8013, 4709832.0911], [-12706683.326000001, 4709821.151299998], [-12706716.2687, 4709788.307099998], [-12706750.6522, 4709768.2553], [-12706798.132399999, 4709737.918499999], [-12706815.9139, 4709729.5493], [-12706850.2841, 4709710.321000002], [-12706871.9263, 4709691.303099997], [-12706891.7689, 4709656.192400001], [-12706908.2441, 4709626.383100003], [-12706933.8867, 4709614.019299999], [-12706972.9485, 4709609.693499997], [-12707000.2129, 4709598.590800002], [-12707031.526700001, 4709572.904100001], [-12707074.2, 4709547.627700001], [-12707129.6392, 4709519.669200003], [-12707171.5299, 4709491.908799998], [-12707207.656399999, 4709465.2929000035], [-12707220.5576, 4709435.6423999965], [-12707228.5754, 4709395.402400002], [-12707233.6689, 4709358.411799997], [-12707250.2137, 4709324.073299997], [-12707276.7335, 4709308.0154], [-12707314.4037, 4709287.6027000025], [-12707338.9599, 4709258.067500003], [-12707361.446899999, 4709237.415100001], [-12707392.1793, 4709214.421499997], [-12707435.497299999, 4709200.275600001], [-12707466.2923, 4709199.524899997], [-12707486.6359, 4709210.966300003], [-12707509.4095, 4709224.505599998], [-12707533.741999999, 4709217.062399998], [-12707545.4761, 4709201.595200002], [-12707567.5007, 4709184.230499998], [-12707595.6228, 4709170.6686], [-12707617.916299999, 4709162.3697], [-12707652.3402, 4709165.794399999], [-12707678.339499999, 4709156.729800001], [-12707720.8189, 4709138.305799998], [-12707739.9131, 4709124.601599999], [-12707761.905000001, 4709109.295599997], [-12707784.4804, 4709109.238399997], [-12707798.0985, 4709104.509800002], [-12707823.3861, 4709088.431599997], [-12707858.9706, 4709070.043700002], [-12707888.0408, 4709048.258299999], [-12707921.0732, 4709035.5967999995], [-12707961.2543, 4709038.286899999], [-12708006.3596, 4709041.054200001], [-12708043.9765, 4709050.294200003], [-12708105.3543, 4709054.941500001], [-12708148.4337, 4709056.028800003], [-12708185.018, 4709052.4837], [-12708241.228500001, 4709053.7764], [-12708288.8151, 4709055.345799997], [-12708339.287, 4709056.136500001], [-12708396.728500001, 4709057.447499998], [-12708462.074900001, 4709043.1897], [-12708505.2565, 4709037.686899997], [-12708548.0279, 4709032.1774], [-12708594.9151, 4709025.9086000025], [-12708630.1389, 4709004.2173999995], [-12708675.1339, 4708987.6215], [-12708721.9762, 4708984.234499998], [-12708755.5156, 4708991.760399997], [-12708824.753600001, 4709016.4406], [-12708871.656, 4709035.7075999975], [-12708922.2643, 4709054.208499998], [-12708974.0593, 4709075.610799998], [-12709036.9526, 4709095.950499997], [-12709095.9084, 4709105.519199997], [-12709177.7247, 4709117.244599998], [-12709209.7188, 4709118.566799998], [-12709237.230999999, 4709117.759599999], [-12709271.7953, 4709112.1193], [-12709302.5966, 4709110.951300003], [-12709332.475499999, 4709116.358999997], [-12709365.542, 4709127.994499996], [-12709388.7218, 4709141.947499998], [-12709415.5505, 4709158.840599999], [-12709451.9506, 4709167.2326000035], [-12709493.8887, 4709162.530100003], [-12709563.3728, 4709149.172499999], [-12709596.006, 4709135.675099999], [-12709647.7665, 4709132.772200003], [-12709680.1777, 4709133.6875], [-12709723.0357, 4709149.180799998], [-12709762.5096, 4709171.212099999], [-12709803.694899999, 4709188.738700002], [-12709840.7896, 4709205.378200002], [-12709939.6607, 4709225.8781], [-12709981.414900001, 4709233.115599997], [-12710024.8552, 4709237.495899998], [-12710062.2226, 4709236.427299999], [-12710091.8121, 4709234.0022], [-12710131.6985, 4709229.265299998], [-12710176.0414, 4709228.304200001], [-12710225.0912, 4709232.351800002], [-12710266.0315, 4709239.163599998], [-12710308.1714, 4709248.053400002], [-12710354.983199999, 4709246.717600003], [-12710395.772, 4709236.638999999], [-12710439.894299999, 4709223.316399999], [-12710489.331799999, 4709211.3116], [-12710514.129700001, 4709200.161700003], [-12710568.5956, 4709172.124700002], [-12710597.951000001, 4709158.161600001], [-12710622.6853, 4709151.1294], [-12710662.5585, 4709147.214000002], [-12710691.371, 4709141.891800001], [-12710722.2229, 4709137.425099999], [-12710745.638, 4709136.138800003], [-12710762.8726, 4709136.404600002], [-12710781.566, 4709148.637599997], [-12710790.771, 4709164.019699998], [-12710799.4397, 4709187.631300002], [-12710823.348000001, 4709207.7705999985], [-12710841.7122, 4709227.164300002], [-12710865.2861, 4709242.355899997], [-12710899.257199999, 4709248.645900004], [-12710926.1768, 4709259.769900002], [-12710947.7871, 4709269.164499998], [-12710962.3145, 4709285.452299997], [-12710985.2582, 4709315.050300002], [-12711006.6862, 4709336.3873], [-12711034.0938, 4709369.349399999], [-12711059.9354, 4709397.344499998], [-12711085.4548, 4709419.5682], [-12711114.3488, 4709447.469300002], [-12711130.069899999, 4709466.246699996], [-12711147.098000001, 4709480.101499997], [-12711180.5341, 4709494.620800003], [-12711216.4828, 4709505.883199997], [-12711257.8102, 4709514.3445999995], [-12711291.0055, 4709517.738399997], [-12711326.2593, 4709520.751400001], [-12711351.2099, 4709526.489699997], [-12711367.913800001, 4709535.020499997]]]]}}, {"type": "Feature", "properties": {"OBJECTID": 418, "CreationDate": "2025-01-14T11:11:14Z", "Creator": "NPS_WASO_LANDS", "EditDate": "2025-01-14T11:11:14Z", "Editor": "NPS_WASO_LANDS", "GlobalID": "{96B0CFB1-3048-4643-A979-024A057042CC}", "AreaID": 443, "UNIT_CODE": "TUSK", "GIS_Notes": "Lands - http://landsnet.nps.gov/tractsnet/documents/TUSK/Metadata/tusk_metadata.xml", "UNIT_NAME": "Tule Springs Fossil Beds National Monument", "DATE_EDIT": "2020-08-31T00:00:00Z", "STATE": "NV", "REGION": "PW", "GNIS_ID": "2767392", "UNIT_TYPE": "National Monument", "CREATED_BY": "Lands", "METADATA": "https://irma.nps.gov/DataStore/Reference/Profile/2256600", "PARKNAME": "Tule Springs Fossil Beds", "SHAPE_Length": 128937.94568910882, "SHAPE_Area": 142174819.42905688}, "geometry": {"type": "MultiPolygon", "coordinates": [[[[-12829256.5093, 4346409.473499998], [-12828758.251, 4346405.111400001], [-12828764.7606, 4346653.611900002], [-12828267.355, 4346647.043399997], [-12827769.855700001, 4346640.485699996], [-12827771.684999999, 4346744.124200001], [-12827273.8798, 4346738.201099999], [-12826776.069, 4346732.242600001], [-12826278.0219, 4346726.301299997], [-12825779.9561, 4346720.241499998], [-12825778.9169, 4346359.518399999], [-12825282.1708, 4346357.772699997], [-12824786.0401, 4346355.9014], [-12824784.748599999, 4346707.939599998], [-12824315.2221, 4346705.071099997], [-12823802.169300001, 4346701.915299997], [-12823289.1087, 4346698.744199999], [-12822775.979600001, 4346695.544699997], [-12822273.73, 4346693.209200002], [-12821771.4771, 4346690.8543], [-12821268.088100001, 4346689.315800004], [-12820764.6854, 4346687.7238000035], [-12820262.8654, 4346677.554099999], [-12819761.0484, 4346667.339000002], [-12819763.432799999, 4346332.3561], [-12819766.935600001, 4345840.144500002], [-12819770.4351, 4345348.255999997], [-12819773.9337, 4344856.389399998], [-12819264.6717, 4344858.986000001], [-12818755.4103, 4344861.558499999], [-12818244.9375, 4344854.781999998], [-12818242.7796, 4344344.542499997], [-12818240.5398, 4343834.361900002], [-12817725.251699999, 4343313.924599998], [-12817719.936999999, 4343308.708800003], [-12817233.4012, 4342817.288099997], [-12817208.3972, 4342792.033799998], [-12817470.184799999, 4342797.830899999], [-12817458.2308, 4342768.103699997], [-12817435.251400001, 4342710.958899997], [-12817368.1877, 4342629.035599999], [-12817311.553100001, 4342579.176600002], [-12817283.2501, 4342550.402999997], [-12817215.0104, 4342448.268600002], [-12817182.8515, 4342400.135600001], [-12817137.874, 4342278.025799997], [-12817126.5921, 4342193.088100001], [-12817123.9349, 4342101.0647], [-12817130.9408, 4342022.7705999985], [-12817222.1011, 4342079.651799999], [-12817456.713100001, 4342226.037600003], [-12817636.0968, 4341936.014899999], [-12817372.4011, 4341771.487499997], [-12817231.6412, 4341683.659699999], [-12816969.6744, 4341520.197800003], [-12816968.227400001, 4341510.391999997], [-12816966.5984, 4341500.615099996], [-12816964.787999999, 4341490.870300002], [-12816962.796799999, 4341481.161200002], [-12816960.6254, 4341471.4912], [-12816959.5054, 4341466.9043999985], [-12816958.2746, 4341461.863399997], [-12816955.7454, 4341452.2817], [-12816953.0386, 4341442.748899996], [-12816950.1552, 4341433.2685], [-12816947.095800001, 4341423.843900003], [-12816943.862, 4341414.4782000035], [-12816940.454599999, 4341405.174800001], [-12816939.1274, 4341401.75], [-12816936.875, 4341395.936999999], [-12816933.124200001, 4341386.767800003], [-12816929.2037, 4341377.670699999], [-12816873.018199999, 4341250.558600001], [-12816860.243700001, 4341221.6581000015], [-12816868.8732, 4341217.810000002], [-12816849.718, 4341174.4736], [-12816846.0158, 4341165.8549000025], [-12816842.495000001, 4341157.159900002], [-12816839.157499999, 4341148.3923999965], [-12816836.004700001, 4341139.556100003], [-12816833.0376, 4341130.655199997], [-12816830.2582, 4341121.693300001], [-12816827.667100001, 4341112.674800001], [-12816825.2659, 4341103.603399999], [-12816823.055300001, 4341094.4833], [-12816821.0367, 4341085.318300001], [-12816819.2106, 4341076.112899996], [-12816817.5779, 4341066.870700002], [-12816816.139600001, 4341057.595899999], [-12816814.8961, 4341048.292999998], [-12816813.8479, 4341038.9657000005], [-12816812.9956, 4341029.618500002], [-12816812.3394, 4341020.255199999], [-12816812.3195, 4341018.398699999], [-12816812.4803, 4341016.549199998], [-12816812.8204, 4341014.724200003], [-12816813.3365, 4341012.941500001], [-12816814.0236, 4341011.218199998], [-12816814.875300001, 4341009.570200004], [-12816815.883299999, 4341008.0141], [-12816817.037999999, 4341006.564300001], [-12816818.3283, 4341005.2348000035], [-12816819.7418, 4341004.0383], [-12816821.265, 4341002.986599997], [-12816822.883299999, 4341002.089299999], [-12816824.5812, 4341001.3554000035], [-12816826.342500001, 4341000.791599996], [-12816828.1501, 4341000.403499998], [-12816829.9869, 4341000.194700003], [-12816896.701299999, 4340995.9199], [-12817026.8779, 4341254.304200001], [-12817038.1346, 4341276.646899998], [-12817039.439199999, 4341279.053599998], [-12817040.8858, 4341281.3772], [-12817042.4688, 4341283.609099999], [-12817044.182799999, 4341285.741099998], [-12817046.0213, 4341287.765900001], [-12817047.9779, 4341289.675999999], [-12817050.0453, 4341291.464100003], [-12817052.216, 4341293.1241], [-12817054.4825, 4341294.6501], [-12817056.836, 4341296.0361], [-12817059.2686, 4341297.277500004], [-12817085.6168, 4341309.7355], [-12817089.1607, 4341311.508599997], [-12817092.623100001, 4341313.436999999], [-12817095.9971, 4341315.5176], [-12817099.2764, 4341317.745899998], [-12817102.4542, 4341320.117600001], [-12817105.5246, 4341322.627999999], [-12817108.4815, 4341325.272600003], [-12817111.3189, 4341328.0458], [-12817114.0315, 4341330.942400001], [-12817116.614, 4341333.956600003], [-12817119.0614, 4341337.0823], [-12817122.4648, 4341341.633599997], [-12817122.4713, 4341341.6423999965], [-12817162.765999999, 4341395.524800003], [-12817164.4506, 4341397.634300001], [-12817165.9107, 4341399.241300002], [-12817166.265700001, 4341399.631899998], [-12817167.4636, 4341400.7927], [-12817168.2036, 4341401.5097], [-12817170.2564, 4341403.259599999], [-12817172.416000001, 4341404.874799997], [-12817174.6735, 4341406.3488000035], [-12817177.0199, 4341407.675399996], [-12817226.374400001, 4341433.539499998], [-12817228.5814, 4341434.792499997], [-12817230.6998, 4341436.191500001], [-12817232.7201, 4341437.729999997], [-12817234.633000001, 4341439.401100002], [-12817236.4298, 4341441.197499998], [-12817238.1028, 4341443.1109], [-12817239.644299999, 4341445.1325], [-12817241.5493, 4341448.191399999], [-12817263.2676, 4341483.067199998], [-12817301.936999999, 4341539.205200002], [-12817304.914, 4341543.381700002], [-12817308.0227, 4341547.460199997], [-12817311.2601, 4341551.4366], [-12817314.6229, 4341555.306500003], [-12817318.1077, 4341559.066200003], [-12817321.7106, 4341562.711599998], [-12817325.428100001, 4341566.239100002], [-12817442.4574, 4341673.761699997], [-12817526.7895, 4341747.468900003], [-12817556.679499999, 4341776.127899997], [-12817597.8167, 4341815.570900001], [-12817650.4684, 4341834.646600001], [-12817654.6237, 4341836.222400002], [-12817658.7313, 4341837.919799998], [-12817662.7876, 4341839.737599999], [-12817666.788800001, 4341841.6743], [-12817670.7319, 4341843.728], [-12817743.1943, 4341882.8478000015], [-12817750.6021, 4341886.8467999995], [-12817754.3405, 4341888.7766999975], [-12817758.147599999, 4341890.565700002], [-12817762.0186, 4341892.2114999965], [-12817765.9474, 4341893.711900003], [-12817769.929, 4341895.064499997], [-12817773.958, 4341896.2678999975], [-12817955.056699999, 4341946.719300002], [-12817960.9901, 4341948.457699999], [-12817966.8746, 4341950.355999999], [-12817972.7063, 4341952.412199996], [-12817978.4809, 4341954.625399999], [-12817984.194, 4341956.993500002], [-12817989.842, 4341959.514899999], [-12817995.4202, 4341962.187899999], [-12818000.925, 4341965.010399997], [-12818006.3523, 4341967.980700001], [-12818016.1984, 4341973.4388], [-12818026.1338, 4341978.731299996], [-12818036.1557, 4341983.856799997], [-12818046.2611, 4341988.813900001], [-12818056.447700001, 4341993.600900002], [-12818066.7121, 4341998.216799997], [-12818077.0517, 4342002.6603000015], [-12818087.4635, 4342006.929799996], [-12818097.944899999, 4342011.024599999], [-12818108.4929, 4342014.943300001], [-12818119.1043, 4342018.684900001], [-12818129.7765, 4342022.248300001], [-12818170.9559, 4342035.622000001], [-12818179.1624, 4342038.383900002], [-12818187.309799999, 4342041.316500001], [-12818195.3948, 4342044.418099999], [-12818200.3376, 4342046.433499999], [-12818203.4139, 4342047.688000001], [-12818211.363699999, 4342051.124600001], [-12818219.240600001, 4342054.726300001], [-12818227.0415, 4342058.491300002], [-12818227.9558, 4342058.8992], [-12818229.0126, 4342059.3706], [-12818231.0484, 4342060.085600004], [-12818233.1357, 4342060.631200001], [-12818235.260200001, 4342061.004000001], [-12818237.408, 4342061.2016], [-12818239.5646, 4342061.222499996], [-12818241.7158, 4342061.066699997], [-12818244.7713, 4342060.471199997], [-12818279.400899999, 4342053.7223000005], [-12818280.614799999, 4342053.397500001], [-12818281.7747, 4342052.913699999], [-12818282.8606, 4342052.279700004], [-12818283.8532, 4342051.5066], [-12818284.7346, 4342050.607900001], [-12818285.4897, 4342049.599699996], [-12818286.1047, 4342048.499799997], [-12818286.5689, 4342047.327500001], [-12818286.8741, 4342046.103799999], [-12818287.0151, 4342044.850299999], [-12818292.0538, 4341934.726499997], [-12818292.3013, 4341931.193499997], [-12818292.7215, 4341927.677000001], [-12818293.3135, 4341924.185599998], [-12818294.0756, 4341920.7277000025], [-12818295.006, 4341917.3116], [-12818296.1026, 4341913.945600003], [-12818297.3629, 4341910.637800001], [-12818298.7834, 4341907.3961], [-12818300.361, 4341904.228600003], [-12818302.221900001, 4341900.512900002], [-12818303.919, 4341896.718900003], [-12818305.449, 4341892.854099996], [-12818306.809, 4341888.925499998], [-12818307.9966, 4341884.941], [-12818309.009100001, 4341880.907899998], [-12818309.8449, 4341876.834100001], [-12818310.5021, 4341872.7277000025], [-12818321.1653, 4341795.345399998], [-12818321.3445, 4341794.0451000035], [-12818321.6503, 4341792.013700001], [-12818322.250599999, 4341788.625799999], [-12818322.938000001, 4341785.254600003], [-12818333.6964, 4341735.711000003], [-12818335.474, 4341727.954300001], [-12818337.4322, 4341720.241700001], [-12818339.5703, 4341712.577399999], [-12818341.8872, 4341704.965599999], [-12818344.3818, 4341697.410599999], [-12818347.0519, 4341689.916699998], [-12818349.8969, 4341682.487800002], [-12818363.376, 4341648.4586], [-12818364.928, 4341644.784000002], [-12818366.6444, 4341641.184], [-12818368.521499999, 4341637.665799998], [-12818370.5555, 4341634.236699998], [-12818372.7423, 4341630.903700002], [-12818375.0773, 4341627.673799999], [-12818377.5555, 4341624.553599998], [-12818380.1722, 4341621.549500003], [-12818382.921799999, 4341618.667599998], [-12818385.7988, 4341615.913900003], [-12818388.7969, 4341613.293799996], [-12818391.9104, 4341610.813299999], [-12818395.1326, 4341608.476899996], [-12818398.4569, 4341606.2897000015], [-12818401.8765, 4341604.256300002], [-12818405.3845, 4341602.380599998], [-12818408.9736, 4341600.666500002], [-12818412.6362, 4341599.117600001], [-12818416.3652, 4341597.737400003], [-12818420.1525, 4341596.527999997], [-12818423.9905, 4341595.4925], [-12818509.4932, 4341574.491700001], [-12818538.5185, 4341570.271700002], [-12818543.101, 4341569.698700003], [-12818547.7025, 4341569.3068], [-12818552.3156, 4341569.096299998], [-12818556.9333, 4341569.067299999], [-12818561.5489, 4341569.220399998], [-12818566.1547, 4341569.555100001], [-12818647.8306, 4341577.134300001], [-12818652.9384, 4341577.702500001], [-12818658.0228, 4341578.453500003], [-12818663.0772, 4341579.386500001], [-12818668.094999999, 4341580.5], [-12818673.0703, 4341581.7929000035], [-12818677.9963, 4341583.263400003], [-12818682.8669, 4341584.909699999], [-12818685.2812, 4341585.870999999], [-12818687.6241, 4341586.996699996], [-12818689.8842, 4341588.281499997], [-12818692.0514, 4341589.7192], [-12818694.1149, 4341591.303000003], [-12818696.065299999, 4341593.025700003], [-12818697.8931, 4341594.878700003], [-12818699.5899, 4341596.853500001], [-12818701.147599999, 4341598.940800004], [-12818702.5588, 4341601.1307], [-12818703.8167, 4341603.412799999], [-12818704.9157, 4341605.776299998], [-12818705.8501, 4341608.210100003], [-12818706.6161, 4341610.7026999965], [-12818707.2097, 4341613.241999999], [-12818707.627999999, 4341615.816500001], [-12818707.8694, 4341618.413699999], [-12818707.932500001, 4341621.021399997], [-12818707.7548, 4341629.262100004], [-12818707.386599999, 4341637.496200003], [-12818706.8279, 4341645.719700001], [-12818706.0789, 4341653.927900001], [-12818705.1401, 4341662.116300002], [-12818704.0121, 4341670.280699998], [-12818702.695500001, 4341678.416500002], [-12818701.1908, 4341686.519199997], [-12818699.499, 4341694.584700003], [-12818697.621, 4341702.6087], [-12818695.5579, 4341710.5864999965], [-12818693.3104, 4341718.513999999], [-12818690.8803, 4341726.387000002], [-12818688.2685, 4341734.201200001], [-12818685.476599999, 4341741.951899998], [-12818682.506, 4341749.635700002], [-12818679.3583, 4341757.247900002], [-12818659.4793, 4341803.8323], [-12818655.5984, 4341812.926799998], [-12818653.4969, 4341817.615599997], [-12818651.2264, 4341822.224200003], [-12818648.790199999, 4341826.7465], [-12818646.1912, 4341831.176700003], [-12818643.4333, 4341835.508699998], [-12818640.5199, 4341839.736699998], [-12818637.454599999, 4341843.855099998], [-12818608.0188, 4341881.951899998], [-12818605.9893, 4341884.420999996], [-12818603.815499999, 4341886.762999997], [-12818601.5049, 4341888.968999997], [-12818599.0663, 4341891.031199999], [-12818596.5085, 4341892.942299999], [-12818593.840599999, 4341894.694799997], [-12818591.0725, 4341896.283], [-12818588.2143, 4341897.700800002], [-12818585.276, 4341898.943000004], [-12818582.2687, 4341900.0053], [-12818579.203, 4341900.883500002], [-12818576.090300001, 4341901.574699998], [-12818561.2171, 4341904.407499999], [-12818557.819400001, 4341905.146200001], [-12818554.4646, 4341906.061399996], [-12818551.161899999, 4341907.1504999995], [-12818547.9199, 4341908.410899997], [-12818544.7478, 4341909.839000002], [-12818541.653900001, 4341911.4309], [-12818538.6467, 4341913.1822], [-12818535.734000001, 4341915.088100001], [-12818532.9242, 4341917.1439], [-12818530.2245, 4341919.343500003], [-12818512.5246, 4341934.542000003], [-12818510.2685, 4341936.6021], [-12818508.142900001, 4341938.797899999], [-12818506.1562, 4341941.121100001], [-12818504.3159, 4341943.562799998], [-12818502.628600001, 4341946.113799997], [-12818501.1012, 4341948.764300004], [-12818499.7393, 4341951.504299998], [-12818498.548, 4341954.323399998], [-12818497.532, 4341957.211000003], [-12818496.694899999, 4341960.1558], [-12818496.040199999, 4341963.147], [-12818495.5702, 4341966.172799997], [-12818495.2868, 4341969.222199999], [-12818495.1908, 4341972.283], [-12818495.2831, 4341975.3440999985], [-12818495.562800001, 4341978.393799998], [-12818496.028900001, 4341981.420199998], [-12818496.680100001, 4341984.412199996], [-12818497.513500001, 4341987.358099997], [-12818498.525899999, 4341990.2469], [-12818518.5043, 4342042.122699998], [-12818519.694899999, 4342044.937600002], [-12818521.0649, 4342047.6686], [-12818522.6089, 4342050.304499999], [-12818524.3201, 4342052.834399998], [-12818526.191399999, 4342055.247000001], [-12818528.2147, 4342057.532399997], [-12818530.3818, 4342059.680699997], [-12818532.6831, 4342061.683300003], [-12818535.109299999, 4342063.531499997], [-12818537.6497, 4342065.2173999995], [-12818540.2941, 4342066.7337], [-12818543.0308, 4342068.0744], [-12818545.8485, 4342069.2337], [-12818548.735399999, 4342070.206500001], [-12818551.679, 4342070.988899998], [-12818601.2991, 4342082.4526999965], [-12818632.4173, 4342091.003799997], [-12818635.9296, 4342091.874399997], [-12818639.4814, 4342092.564900003], [-12818643.0636, 4342093.073200002], [-12818646.6668, 4342093.398500003], [-12818650.2819, 4342093.539399996], [-12818653.8994, 4342093.495700002], [-12818750.8664, 4342089.816799998], [-12818784.9607, 4342088.598099999], [-12818788.5912, 4342088.558899999], [-12818792.2188, 4342088.712099999], [-12818795.8332, 4342089.0568], [-12818799.4245, 4342089.5929000005], [-12818802.9828, 4342090.318099998], [-12818806.4978, 4342091.230999999], [-12818809.9602, 4342092.328699999], [-12818813.36, 4342093.6083], [-12818816.688000001, 4342095.066100001], [-12818819.9349, 4342096.698299997], [-12818823.091400001, 4342098.499899998], [-12818867.1174, 4342125.219400004], [-12818920.602400001, 4342165.010499999], [-12818922.9118, 4342166.593999997], [-12818925.3222, 4342168.017800003], [-12818927.8223, 4342169.2754999995], [-12818930.4013, 4342170.361299999], [-12818933.0471, 4342171.2700999975], [-12818935.7478, 4342171.998099998], [-12818938.4913, 4342172.541699998], [-12818941.2648, 4342172.898599997], [-12819020.819400001, 4342180.429700002], [-12819029.713399999, 4342181.3697], [-12819038.5856, 4342182.497299999], [-12819047.4322, 4342183.811700001], [-12819056.249400001, 4342185.312600002], [-12819065.0332, 4342186.999300003], [-12819073.7798, 4342188.870899998], [-12819082.485399999, 4342190.927000001], [-12819091.1459, 4342193.166199997], [-12819099.7577, 4342195.587700002], [-12819108.317, 4342198.190399997], [-12819116.8198, 4342200.9733000025], [-12819117.7019, 4342201.282700002], [-12819125.2626, 4342203.934900001], [-12819133.6416, 4342207.074199997], [-12819141.9529, 4342210.389600001], [-12819150.193300001, 4342213.879799999], [-12819158.3587, 4342217.542800002], [-12819163.905000001, 4342220.173100002], [-12819166.4456, 4342221.377800003], [-12819174.4504, 4342225.382299997], [-12819182.369800001, 4342229.555100001], [-12819190.2003, 4342233.894100003], [-12819197.938000001, 4342238.3972999975], [-12819205.5799, 4342243.062899999], [-12819213.1224, 4342247.888800003], [-12819220.5623, 4342252.8728], [-12819227.8964, 4342258.012699999], [-12819252.6786, 4342275.7875000015], [-12819272.9944, 4342290.358800001], [-12819275.3773, 4342291.967299998], [-12819277.848000001, 4342293.436499998], [-12819280.3982, 4342294.761100002], [-12819283.0198, 4342295.937200002], [-12819285.704, 4342296.960900001], [-12819288.442200001, 4342297.828400001], [-12819291.225200001, 4342298.537299998], [-12819294.044, 4342299.0854], [-12819311.929, 4342302.035700001], [-12819315.754999999, 4342302.582199998], [-12819319.601, 4342302.9586], [-12819323.46, 4342303.1647000015], [-12819327.324099999, 4342303.1998], [-12819331.186, 4342303.0638], [-12819335.0382, 4342302.757299997], [-12819385.381900001, 4342297.650799997], [-12819504.7586, 4342278.169500001], [-12819583.2256, 4342261.507399999], [-12819631.4846, 4342252.345700003], [-12819704.6274, 4342238.459700003], [-12819758.1132, 4342230.921800002], [-12819764.939, 4342230.109999999], [-12819769.7381, 4342229.727799997], [-12819774.5484, 4342229.5317], [-12819779.3627, 4342229.521899998], [-12819784.173700001, 4342229.698299997], [-12819788.974399999, 4342230.060699999], [-12819793.7576, 4342230.6087], [-12819798.5163, 4342231.3413999975], [-12819803.2433, 4342232.257799998], [-12819807.931699999, 4342233.356299996], [-12819812.5744, 4342234.635700002], [-12819817.1646, 4342236.093500003], [-12819821.6954, 4342237.728], [-12819843.9562, 4342246.262599997], [-12819910.4385, 4342270.063900001], [-12819913.689399999, 4342271.134400003], [-12819916.9916, 4342272.032899998], [-12819920.3358, 4342272.757299997], [-12819923.713, 4342273.305500001], [-12819927.1144, 4342273.675899997], [-12819930.5302, 4342273.867399998], [-12819933.9512, 4342273.879600003], [-12820028.5602, 4342271.787600003], [-12820031.033300001, 4342271.823399998], [-12820033.4974, 4342272.0375000015], [-12820035.9398, 4342272.428999998], [-12820038.348000001, 4342272.9956], [-12820040.7093, 4342273.7346], [-12820043.0118, 4342274.641900003], [-12820045.2433, 4342275.713299997], [-12820047.3925, 4342276.942599997], [-12820049.4482, 4342278.324000001], [-12820051.3997, 4342279.850100003], [-12820053.2372, 4342281.512999997], [-12820054.9508, 4342283.304300003], [-12820089.237599999, 4342321.861199997], [-12820142.8218, 4342377.5691], [-12820145.0557, 4342380.0044], [-12820147.1713, 4342382.543799996], [-12820149.1639, 4342385.181699999], [-12820151.028900001, 4342387.9120000005], [-12820152.7618, 4342390.728699997], [-12820154.359299999, 4342393.625299998], [-12820155.8169, 4342396.595200002], [-12820157.131900001, 4342399.6316], [-12820192.0979, 4342485.908799998], [-12820211.3836, 4342502.4076000005], [-12820213.6417, 4342504.2104], [-12820216.0169, 4342505.854099996], [-12820218.498399999, 4342507.331299998], [-12820221.0743, 4342508.634900004], [-12820223.733, 4342509.759199999], [-12820226.4617, 4342510.698299997], [-12820259.8924, 4342520.946500003], [-12820325.9142, 4342544.072899997], [-12820330.4123, 4342547.119900003], [-12820332.8485, 4342549.814599998], [-12820334.7275, 4342552.926899999], [-12820335.9801, 4342556.342500001], [-12820346.8342, 4342597.884400003], [-12820363.147599999, 4342642.509499997], [-12820364.1351, 4342644.944700003], [-12820366.601300001, 4342649.580200002], [-12820368.0682, 4342651.758299999], [-12820371.433899999, 4342655.7826000005], [-12820375.3212, 4342659.301200002], [-12820379.6552, 4342662.246699996], [-12820381.9641, 4342663.486400001], [-12820386.8101, 4342665.469800003], [-12820523.5808, 4342712.189099997], [-12820529.7282, 4342715.107900001], [-12820540.0249, 4342720.178900003], [-12820541.8779, 4342721.201899998], [-12820543.627799999, 4342722.394000001], [-12820545.2595, 4342723.7447], [-12820546.7588, 4342725.2425], [-12820548.112599999, 4342726.873899996], [-12820549.309, 4342728.625], [-12820550.3376, 4342730.4804000035], [-12820551.1896, 4342732.4243], [-12820551.8576, 4342734.439400002], [-12820552.3355, 4342736.508100003], [-12820552.6193, 4342738.612800002], [-12820552.706799999, 4342740.734700002], [-12820551.8569, 4342813.191399999], [-12820551.6633, 4342829.700300001], [-12820552.1874, 4342829.701399997], [-12820763.456500001, 4342830.166500002], [-12821269.9629, 4342814.3517], [-12821776.4687, 4342798.512999997], [-12822281.9663, 4342782.825499997], [-12822534.7149, 4342774.9727], [-12822787.4633, 4342767.114100002], [-12822788.131099999, 4342895.7163999975], [-12822535.5517, 4342903.298500001], [-12822536.388500001, 4343031.625699997], [-12822788.7988, 4343024.320100002], [-12822790.1343, 4343281.5320999995], [-12822792.8046, 4343795.974100001], [-12823300.4398, 4343934.258199997], [-12823807.9202, 4344072.472099997], [-12824315.536600001, 4344210.6998], [-12824793.3257, 4344340.704400003], [-12824315.9787, 4344333.506700002], [-12823808.8927, 4344325.839500003], [-12823302.4033, 4344318.154200003], [-12822795.717799999, 4344310.464299999], [-12822798.6306, 4344824.978699997], [-12822792.6358, 4345331.153099999], [-12823300.8171, 4345335.559500001], [-12823808.9978, 4345339.9419], [-12824317.1365, 4345344.299800001], [-12824789.7077, 4345348.331900001], [-12825036.1626, 4345342.933600001], [-12825282.7608, 4345337.498400003], [-12825776.0307, 4345326.5634], [-12825777.5197, 4345842.978299998], [-12826272.5378, 4345838.369599998], [-12826767.3632, 4345833.739100002], [-12827261.817200001, 4345852.4016999975], [-12827254.739500001, 4345331.244599998], [-12827247.727400001, 4344810.120399997], [-12827738.148699999, 4344844.8928999975], [-12828228.6358, 4344879.647699997], [-12828719.126899999, 4344914.3803], [-12828732.1452, 4345411.318700001], [-12828738.6544, 4345659.796400003], [-12829236.8518, 4345661.418799996], [-12829735.0198, 4345663.060599998], [-12830233.1457, 4345664.586599998], [-12830239.9817, 4345915.7195999995], [-12830737.8748, 4345917.3059], [-12831241.9822, 4345923.0594], [-12831252.8478, 4346429.311300002], [-12831754.2906, 4346436.2377], [-12831759.8904, 4346791.356700003], [-12831260.372499999, 4346785.014600001], [-12830760.7823, 4346779.517700002], [-12830758.0247, 4346674.4705], [-12830259.778099999, 4346669.372699998], [-12829761.4493, 4346664.0594], [-12829754.8316, 4346413.781199999], [-12829256.5093, 4346409.473499998]], [[-12819567.8602, 4342370.6391], [-12819564.3685, 4342370.584600002], [-12819560.8794, 4342370.722999997], [-12819557.403, 4342371.0537], [-12819553.95, 4342371.575999998], [-12819550.5308, 4342372.2880000025], [-12819547.1556, 4342373.187799998], [-12819543.835, 4342374.272399999], [-12819536.5383, 4342376.793399997], [-12819529.185899999, 4342379.145000003], [-12819521.7815, 4342381.325900003], [-12819514.3292, 4342383.335199997], [-12819506.8325, 4342385.171499997], [-12819499.296, 4342386.833800003], [-12819491.723299999, 4342388.321599998], [-12819484.1184, 4342389.6338], [-12819476.4857, 4342390.769900002], [-12819468.8287, 4342391.729099996], [-12819461.1519, 4342392.511100002], [-12819453.458999999, 4342393.1153], [-12819445.7546, 4342393.541599996], [-12819331.3058, 4342398.599799998], [-12819327.2476, 4342398.693000004], [-12819323.1895, 4342398.610100001], [-12819319.1386, 4342398.351400003], [-12819315.102699999, 4342397.9174000025], [-12819311.089200001, 4342397.308799997], [-12819249.9585, 4342386.7048999965], [-12819134.3545, 4342359.073399998], [-12819086.5636, 4342347.650399998], [-12819032.3809, 4342334.699699998], [-12819023.357900001, 4342332.642800003], [-12819014.2937, 4342330.776799999], [-12819005.1926, 4342329.101999998], [-12818996.0585, 4342327.619400002], [-12818986.895399999, 4342326.329800002], [-12818977.7074, 4342325.233499996], [-12818897.9789, 4342316.602399997], [-12818805.1912, 4342306.557099998], [-12818789.761599999, 4342304.820600003], [-12818774.348299999, 4342302.9432], [-12818758.9527, 4342300.9252], [-12818744.6072, 4342298.727399997], [-12818725.8638, 4342296.121299997], [-12818708.1924, 4342293.275700003], [-12818690.5508, 4342290.248899996], [-12818672.941100001, 4342287.041100003], [-12818655.364799999, 4342283.652800001], [-12818637.824, 4342280.0842999965], [-12818620.3204, 4342276.336099997], [-12818602.8558, 4342272.408200003], [-12818585.4321, 4342268.3015], [-12818568.051199999, 4342264.016199999], [-12818540.3171, 4342257.017099999], [-12818538.2709, 4342256.5923999995], [-12818536.1961, 4342256.343800001], [-12818534.108, 4342256.273699999], [-12818532.0214, 4342256.381999999], [-12818529.9517, 4342256.668200001], [-12818527.9135, 4342257.130400002], [-12818525.922, 4342257.764799997], [-12818523.9913, 4342258.567199998], [-12818522.1356, 4342259.531499997], [-12818520.3685, 4342260.651000001], [-12818518.702399999, 4342261.9174000025], [-12818517.925900001, 4342262.619400002], [-12818517.149500001, 4342263.321400002], [-12818515.7214, 4342264.853100002], [-12818514.428100001, 4342266.501199998], [-12818513.278900001, 4342268.253799997], [-12818512.282499999, 4342270.098399997], [-12818502.935899999, 4342289.2918], [-12818492.8473, 4342310.008900002], [-12818412.5144, 4342474.9733000025], [-12818415.1767, 4342475.5493], [-12818417.8704, 4342475.951700002], [-12818420.5845, 4342476.178800002], [-12818423.307300001, 4342476.229699999], [-12818426.027800001, 4342476.104000002], [-12818441.633299999, 4342474.880900003], [-12818444.6356, 4342474.742600001], [-12818447.6404, 4342474.796499997], [-12818450.6358, 4342475.042199999], [-12818453.6095, 4342475.478600003], [-12818456.5497, 4342476.104199998], [-12818459.4441, 4342476.916199997], [-12818462.281399999, 4342477.9113000035], [-12818465.05, 4342479.086000003], [-12818467.7386, 4342480.434900001], [-12818470.336199999, 4342481.9526999965], [-12818472.8325, 4342483.633500002], [-12818481.6727, 4342490.0079], [-12818484.1609, 4342491.700499997], [-12818486.7375, 4342493.253600001], [-12818489.3953, 4342494.6620000005], [-12818492.1261, 4342495.921700001], [-12818494.9216, 4342497.028999999], [-12818497.773400001, 4342497.980599999], [-12818500.673, 4342498.7733], [-12818503.611499999, 4342499.405000001], [-12818506.58, 4342499.8737], [-12818509.5698, 4342500.178099997], [-12818520.2502, 4342500.970200002], [-12818523.364, 4342501.294799998], [-12818526.4536, 4342501.802199997], [-12818529.5082, 4342502.4912], [-12818532.517, 4342503.359099999], [-12818535.4701, 4342504.402900003], [-12818538.357099999, 4342505.6193], [-12818541.1679, 4342507.003700003], [-12818543.892900001, 4342508.551600002], [-12818546.5225, 4342510.2575], [-12818549.048, 4342512.115699999], [-12818551.4604, 4342514.119599998], [-12818561.7593, 4342523.204300001], [-12818563.986, 4342525.041199997], [-12818566.329, 4342526.725599997], [-12818568.7783, 4342528.250299998], [-12818571.322700001, 4342529.6083], [-12818573.9512, 4342530.793899998], [-12818576.6522, 4342531.801700003], [-12818579.413800001, 4342532.627300002], [-12818582.224, 4342533.267099999], [-12818585.0703, 4342533.718099996], [-12818587.9399, 4342533.978699997], [-12818590.8206, 4342534.0473000035], [-12818593.6994, 4342533.924000002], [-12818596.5637, 4342533.608999997], [-12818599.401, 4342533.1039], [-12818602.1985, 4342532.4108000025], [-12818604.9442, 4342531.532899998], [-12818614.9054, 4342527.980599999], [-12818617.397, 4342527.194899999], [-12818619.939399999, 4342526.5956000015], [-12818622.5185, 4342526.185500003], [-12818625.120900001, 4342525.966799997], [-12818627.7322, 4342525.940800004], [-12818630.3383, 4342526.107799999], [-12818632.925099999, 4342526.466700003], [-12818635.478799999, 4342527.015500002], [-12818637.985399999, 4342527.751500003], [-12818640.431200001, 4342528.670500003], [-12818642.8033, 4342529.767499998], [-12818645.0886, 4342531.036700003], [-12818647.2749, 4342532.4711000025], [-12818649.350200001, 4342534.063199997], [-12818651.303399999, 4342535.804099999], [-12818653.1241, 4342537.684500001], [-12818654.802000001, 4342539.694200002], [-12818656.328499999, 4342541.822300002], [-12818657.694899999, 4342544.057400003], [-12818658.8941, 4342546.387400001], [-12818704.6464, 4342643.991999999], [-12818706.4299, 4342647.995399997], [-12818708.056200001, 4342652.065499999], [-12818709.5232, 4342656.196400002], [-12818710.8284, 4342660.3816], [-12818731.7628, 4342727.3999999985], [-12818746.1402, 4342776.494900003], [-12818746.9446, 4342779.241499998], [-12818760.4897, 4342825.494400002], [-12818760.5177, 4342825.589900002], [-12818793.8229, 4342825.668300003], [-12819004.9428, 4342826.165799998], [-12819239.1672, 4342826.717600003], [-12819742.763, 4342827.880900003], [-12819792.3555, 4342827.994400002], [-12819792.3581, 4342827.900399998], [-12819794.0255, 4342766.857799999], [-12819793.898, 4342763.8499], [-12819793.5975, 4342760.854599997], [-12819793.1246, 4342757.881499998], [-12819792.4808, 4342754.941299997], [-12819791.668499999, 4342752.043200001], [-12819790.6907, 4342749.197300002], [-12819789.550099999, 4342746.413199998], [-12819788.251, 4342743.700099997], [-12819786.7975, 4342741.0669], [-12819785.1945, 4342738.523000002], [-12819783.4475, 4342736.076700002], [-12819781.5624, 4342733.735799998], [-12819779.5453, 4342731.508900002], [-12819777.4032, 4342729.402900003], [-12819746.0437, 4342700.3028], [-12819665.8514, 4342636.795299999], [-12819663.5434, 4342634.837300003], [-12819661.3598, 4342632.740699999], [-12819659.3083, 4342630.513300002], [-12819657.3969, 4342628.163699999], [-12819655.6331, 4342625.700499997], [-12819654.0233, 4342623.132799998], [-12819652.5736, 4342620.470700003], [-12819651.2894, 4342617.724299997], [-12819650.1757, 4342614.9038999975], [-12819649.2367, 4342612.019900002], [-12819648.4759, 4342609.0836], [-12819647.8961, 4342606.105700001], [-12819647.499699999, 4342603.0977], [-12819647.287999999, 4342600.071099997], [-12819640.7342, 4342431.234700002], [-12819640.539900001, 4342428.720299996], [-12819640.1527, 4342426.228500001], [-12819639.575, 4342423.7744999975], [-12819638.809999999, 4342421.372500002], [-12819637.8627, 4342419.036799997], [-12819636.738400001, 4342416.781999998], [-12819635.443799999, 4342414.621100001], [-12819633.9869, 4342412.567000002], [-12819632.376400001, 4342410.632399999], [-12819630.6217, 4342408.828400001], [-12819608.7832, 4342388.042300001], [-12819606.182300001, 4342385.702200003], [-12819603.4572, 4342383.508900002], [-12819600.6162, 4342381.469700001], [-12819597.6679, 4342379.590300001], [-12819594.6212, 4342377.876800001], [-12819591.4853, 4342376.333700001], [-12819588.2697, 4342374.966200002], [-12819584.9841, 4342373.778399996], [-12819581.638500001, 4342372.773699999], [-12819578.243099999, 4342371.955300003], [-12819574.808, 4342371.325499997], [-12819571.3435, 4342370.886399999], [-12819567.8602, 4342370.6391]]], [[[-12844857.83, 4364776.301299997], [-12844848.8677, 4364290.584600002], [-12844839.905299999, 4363804.890900001], [-12844830.943, 4363319.211400002], [-12844832.1034, 4362833.622599997], [-12844833.262699999, 4362348.066799998], [-12844834.4214, 4361862.509000003], [-12844835.579300001, 4361376.9965], [-12844833.976, 4360873.055299997], [-12844832.3732, 4360369.112300001], [-12844814.3928, 4359860.517300002], [-12844796.4112, 4359351.938100003], [-12844806.1899, 4358847.8222], [-12844815.8396, 4358349.9723000005], [-12844328.7812, 4358338.974100001], [-12843841.7245, 4358327.953599997], [-12843820.0521, 4358834.5559], [-12843798.3247, 4359342.405000001], [-12843297.854600001, 4359338.146899998], [-12842797.385499999, 4359333.888599999], [-12842295.0599, 4359330.245800003], [-12841792.7349, 4359326.590800002], [-12841290.4107, 4359322.935800001], [-12840788.0877, 4359319.2809000015], [-12840278.743700001, 4359316.791599996], [-12839769.4026, 4359314.292599998], [-12839264.2183, 4359305.6686], [-12838759.0352, 4359297.045199998], [-12838260.1979, 4359298.017800003], [-12837761.3858, 4359298.990400001], [-12837241.9474, 4359301.854500003], [-12836722.5093, 4359304.718900003], [-12836723.999699999, 4358792.1608000025], [-12836725.4893, 4358279.626900002], [-12836727.9628, 4357768.098700002], [-12836730.4353, 4357256.594800003], [-12836736.6961, 4356743.448299997], [-12836742.955400001, 4356230.351099998], [-12836749.1899, 4355715.096699998], [-12836755.423, 4355199.866300002], [-12836756.251699999, 4354684.726800002], [-12836757.0794, 4354169.636600003], [-12836757.9007, 4353659.182899997], [-12836758.7212, 4353148.752999999], [-12836352.446600001, 4353097.7861], [-12835921.9098, 4353043.556500003], [-12835467.153099999, 4352986.042800002], [-12835012.4019, 4352928.510300003], [-12834500.409, 4352932.535999998], [-12833988.4155, 4352936.537199996], [-12833476.4216, 4352940.513800003], [-12832964.4275, 4352944.465899996], [-12832454.3542, 4352945.417999998], [-12831944.284, 4352946.366300002], [-12831434.2139, 4352947.3147], [-12830924.1408, 4352948.266900003], [-12830931.431200001, 4352432.228299998], [-12830938.7184, 4351916.2141999975], [-12830946.005800001, 4351400.229000002], [-12830953.2961, 4350884.264700003], [-12830953.772599999, 4350374.918399997], [-12830954.2482, 4349865.595899999], [-12830954.723000001, 4349356.296999998], [-12830955.196899999, 4348847.022200003], [-12830907.7006, 4348367.727899998], [-12830860.207899999, 4347888.454599999], [-12830812.718600001, 4347409.202299997], [-12830765.2331, 4346929.9705], [-12831263.5073, 4346936.832900003], [-12831762.2853, 4346943.221199997], [-12832261.1265, 4346948.534100004], [-12832759.910799999, 4346954.252599999], [-12833258.684799999, 4346959.874799997], [-12833757.460099999, 4346965.4738000035], [-12833819.625300001, 4347434.426899999], [-12833944.748399999, 4347435.073799998], [-12833977.325199999, 4347669.369000003], [-12834102.785500001, 4347669.765000001], [-12834119.2478, 4347786.801100001], [-12834244.8743, 4347787.0798999965], [-12834261.5129, 4347903.995099999], [-12834294.772599999, 4348137.799199998], [-12834420.9144, 4348137.7042], [-12834547.0587, 4348137.618500002], [-12834580.9698, 4348370.912299998], [-12834707.4247, 4348370.559799999], [-12834741.709800001, 4348603.644500002], [-12834995.2353, 4348608.248300001], [-12835030.1673, 4348841.354099996], [-12835250.2827, 4348867.487199999], [-12835250.6142, 4349380.2601], [-12835470.4835, 4349406.766099997], [-12835690.3596, 4349433.215899996], [-12835690.3617, 4349689.9592999965], [-12835910.0175, 4349716.611500002], [-12836348.9187, 4349769.924400002], [-12836763.8299, 4349820.350900002], [-12836765.6953, 4350012.672899999], [-12836765.528900001, 4350077.642999999], [-12836761.858, 4350590.935900003], [-12836758.1864, 4351104.252999999], [-12837266.0984, 4351070.622100003], [-12837774.0081, 4351036.967], [-12838282.6596, 4351007.115000002], [-12838536.9842, 4350992.179899998], [-12838537.8396, 4351248.745300002], [-12838283.4539, 4351263.795299999], [-12838284.2479, 4351520.4815], [-12838029.9012, 4351536.225299999], [-12838031.6406, 4352048.182099998], [-12838286.693300001, 4352033.4802], [-12838288.116999999, 4352289.878200002], [-12838542.2611, 4352274.4353], [-12838542.9252, 4352529.5854], [-12838798.3433, 4352514.803800002], [-12838799.2675, 4352770.688500002], [-12839054.484299999, 4352772.026799999], [-12839055.1732, 4353025.608999997], [-12839310.1549, 4353024.6325], [-12839820.1305, 4353022.671700001], [-12839815.4291, 4353286.1635000035], [-12840326.0506, 4353280.022699997], [-12840581.356800001, 4353276.9406], [-12840577.6259, 4353534.207400002], [-12840833.2568, 4353529.043799996], [-12840829.8498, 4353784.240400001], [-12841082.925, 4353784.518600002], [-12841079.8207, 4354039.214000002], [-12841333.1993, 4354038.978600003], [-12841586.5781, 4354038.737400003], [-12841584.1017, 4354289.933300003], [-12841837.791000001, 4354288.373000003], [-12841835.624699999, 4354538.261500001], [-12841835.083, 4354600.734499998], [-12841962.524, 4354599.1373], [-12842089.9646, 4354597.538699999], [-12842217.4056, 4354595.938299999], [-12842344.8464, 4354594.336599998], [-12842408.5669, 4354593.535599999], [-12842407.941599999, 4354655.272600003], [-12842406.6908, 4354778.747599997], [-12842470.3835, 4354777.701700002], [-12842597.7688, 4354775.6087], [-12842661.461199999, 4354774.561700001], [-12842660.1226, 4354898.615999997], [-12842658.810600001, 4355020.2119999975], [-12842722.466, 4355018.838600002], [-12842849.7769, 4355016.0907000005], [-12843373.7931, 4355038.8505000025], [-12843437.557300001, 4355041.4789], [-12843437.4603, 4355173.4133], [-12843437.363400001, 4355305.3522000015], [-12843501.2992, 4355306.886600003], [-12843629.1713, 4355309.954099998], [-12843885.9253, 4355316.108800001], [-12843886.0572, 4355573.361299999], [-12843886.3545, 4355637.561499998], [-12844012.8136, 4355637.185900003], [-12844139.2728, 4355636.808899999], [-12844265.732099999, 4355636.430200003], [-12844392.1913, 4355636.050099999], [-12844392.9605, 4355698.683600001], [-12844394.4988, 4355823.951700002], [-12844395.268, 4355886.586300001], [-12844522.2923, 4355884.635899998], [-12844649.316399999, 4355882.684], [-12844776.3407, 4355880.730599999], [-12844903.364799999, 4355878.775600001], [-12845030.557500001, 4355887.112499997], [-12845157.7501, 4355895.447800003], [-12845284.943300001, 4355903.7815999985], [-12845412.136599999, 4355912.113899998], [-12845539.423700001, 4355920.446699999], [-12845666.711, 4355928.778099999], [-12845793.998599999, 4355937.107900001], [-12845921.2863, 4355945.4362], [-12845987.881099999, 4355949.762500003], [-12846049.3325, 4356014.828400001], [-12846051.1423, 4356016.7447], [-12846178.2339, 4356151.309500001], [-12846178.3389, 4356151.420699999], [-12846435.508000001, 4356412.951399997], [-12846719.6728, 4356701.921499997], [-12846948.5775, 4356934.686099999], [-12846948.623399999, 4356934.733099997], [-12847239.5529, 4357231.820600003], [-12847239.5687, 4357231.836800002], [-12847450.0866, 4357445.706], [-12847739.832600001, 4357740.051200002], [-12847939.5816, 4357942.9617], [-12847940.6494, 4357944.046099998], [-12847981.1522, 4357985.962800004], [-12848021.0188, 4358028.490699999], [-12848060.2401, 4358071.619900003], [-12848098.8071, 4358115.340599999], [-12848136.711, 4358159.642700002], [-12848173.9429, 4358204.516199999], [-12848210.4946, 4358249.950800002], [-12848247.138799999, 4358297.287799999], [-12848283.0456, 4358345.192000002], [-12848318.2061, 4358393.651600003], [-12848352.6117, 4358442.655000001], [-12848386.2544, 4358492.190399997], [-12848419.1257, 4358542.2456], [-12848451.217799999, 4358592.808799997], [-12848476.754700001, 4358634.554799996], [-12848501.7606, 4358676.624200001], [-12848526.2316, 4358719.009800002], [-12848550.1634, 4358761.7051], [-12848574.8519, 4358807.277999997], [-12848598.9263, 4358853.181500003], [-12848622.3821, 4358899.407300003], [-12848705.8301, 4359277.778099999], [-12848743.763, 4359453.523000002], [-12848759.8653, 4359487.855099998], [-12848921.1733, 4359692.7751], [-12848971.4549, 4359758.5933], [-12849106.467, 4359935.319799997], [-12849218.5139, 4360181.515699998], [-12849264.864500001, 4360283.358400002], [-12849348.571600001, 4360467.278800003], [-12849403.660500001, 4360588.317199998], [-12849590.689199999, 4360999.236400001], [-12849616.510499999, 4361054.1479], [-12849786.2881, 4361415.188100003], [-12849919.3699, 4361698.183600001], [-12849955.0832, 4361774.125699997], [-12849989.5125, 4361847.3367], [-12850189.3349, 4362272.231299996], [-12850319.5284, 4362549.059100002], [-12850435.1606, 4362766.572300002], [-12850662.4153, 4363265.507299997], [-12850685.691100001, 4363312.201800004], [-12850808.7901, 4363582.2742], [-12850895.8038, 4363773.172899999], [-12850945.2058, 4363881.553999998], [-12850968.6364, 4363932.441299997], [-12850992.7959, 4363982.983999997], [-12851017.6793, 4364033.171400003], [-12851043.2816, 4364082.993100002], [-12851069.597199999, 4364132.438600004], [-12851096.6208, 4364181.497699998], [-12851124.3467, 4364230.1603000015], [-12851152.7692, 4364278.416100003], [-12851181.6162, 4364325.826200001], [-12851211.1354, 4364372.817599997], [-12851241.320799999, 4364419.380400002], [-12851272.1661, 4364465.505000003], [-12851303.6651, 4364511.182099998], [-12851336.8324, 4364557.810000002], [-12851370.6808, 4364603.9419], [-12851405.2028, 4364649.567699999], [-12851440.3912, 4364694.677599996], [-12851476.2379, 4364739.261500001], [-12851512.7356, 4364783.310099997], [-12851304.0136, 4364783.737899996], [-12850853.069400001, 4364774.427000001], [-12850402.1261, 4364765.116300002], [-12849961.533599999, 4364848.460199997], [-12849509.7394, 4364923.721600004], [-12849057.9178, 4364998.987400003], [-12848612.1298, 4365053.985200003], [-12848213.790199999, 4365102.019199997], [-12847759.3185, 4365156.8037], [-12847304.4321, 4365211.776799999], [-12846849.2396, 4365266.767300002], [-12846353.6259, 4365265.619499996], [-12845858.013799999, 4365264.448899999], [-12845362.4025, 4365263.255099997], [-12844866.7926, 4365262.038400002], [-12844857.83, 4364776.301299997]]]]}}]}