{"type": "FeatureCollection", "name": "New_Hampshire_park", "crs": {"type": "name", "properties": {"name": "urn:ogc:def:crs:EPSG::3857"}}, "features": [{"type": "Feature", "properties": {"OBJECTID": 46, "CreationDate": "2025-01-14T11:11:11Z", "Creator": "NPS_WASO_LANDS", "EditDate": "2025-01-14T11:11:11Z", "Editor": "NPS_WASO_LANDS", "GlobalID": "{477549E5-173D-4946-BE60-ABC6BA3AA407}", "AreaID": 23, "UNIT_CODE": "SAGA", "GIS_Notes": "Lands - http://landsnet.nps.gov/tractsnet/documents/SAGA/Metadata/saga_metadata.xml", "UNIT_NAME": "Saint-Gaudens National Historical Park", "DATE_EDIT": "2011-03-09T00:00:00Z", "STATE": "NH", "REGION": "NE", "GNIS_ID": "1888960", "UNIT_TYPE": "National Historical Park", "CREATED_BY": "Lands", "METADATA": "https://irma.nps.gov/DataStore/Reference/Profile/2171112", "PARKNAME": "Saint-Gaudens", "SHAPE_Length": 13228.979419497504, "SHAPE_Area": 1449351.9901746458}, "geometry": {"type": "MultiPolygon", "coordinates": [[[[-8056860.1236000005, 5387577.950599998], [-8056852.670499999, 5387588.3068], [-8056844.975099999, 5387598.999499999], [-8056840.0078, 5387605.901600003], [-8056829.513, 5387620.4837], [-8056803.493899999, 5387653.468900003], [-8056765.1963, 5387701.277500004], [-8056747.013699999, 5387726.993299998], [-8056739.075300001, 5387741.2108], [-8056736.399700001, 5387753.351800002], [-8056735.228399999, 5387765.323200002], [-8056726.0013, 5387810.156800002], [-8056722.0163, 5387824.320299998], [-8056711.253900001, 5387853.623000003], [-8056704.875, 5387867.9679000005], [-8056690.596999999, 5387896.392200001], [-8056665.534600001, 5387937.2042], [-8056656.691500001, 5387949.045199998], [-8056646.5439, 5387959.7206000015], [-8056625.193399999, 5387978.5276999995], [-8056590.5211, 5388003.795199998], [-8056548.9169, 5388039.410499997], [-8056547.9058, 5388040.275899999], [-8056542.9058, 5388045.422899999], [-8056533.690199999, 5388054.908799998], [-8056526.155300001, 5388062.664800003], [-8056523.476299999, 5388066.183300003], [-8056507.467800001, 5388087.208700001], [-8056491.845799999, 5388102.040600002], [-8056476.404100001, 5388123.382200003], [-8056459.08, 5388142.633699998], [-8056429.1614, 5388169.855800003], [-8056390.979800001, 5388199.0603], [-8056367.7587, 5388222.3554000035], [-8056342.0195, 5388242.595399998], [-8056329.8269, 5388255.337899998], [-8056317.8364, 5388266.526100002], [-8056304.4671, 5388276.454999998], [-8056279.2841, 5388301.143700004], [-8056238.3718, 5388330.2192], [-8056224.0198, 5388338.497500002], [-8056194.014799999, 5388354.119900003], [-8056165.3081, 5388367.178300001], [-8056123.3434999995, 5388383.451700002], [-8056083.1434, 5388400.997500002], [-8056003.340500001, 5388442.909999996], [-8055995.996099999, 5388446.186499998], [-8055982.271299999, 5388450.180600002], [-8055976.273399999, 5388452.851199999], [-8055927.2377, 5388468.677599996], [-8055894.565199999, 5388475.550899997], [-8055886.045499999, 5388477.343199998], [-8055870.2205, 5388480.671999998], [-8055836.2107, 5388474.310099997], [-8055648.9339000005, 5388471.636399999], [-8055552.6261, 5388205.036799997], [-8055821.5013, 5388229.0315999985], [-8055876.7808, 5388176.482799999], [-8055912.1852, 5388149.759099998], [-8055993.347100001, 5388239.066100001], [-8056083.152899999, 5388285.583999999], [-8056119.1295, 5388313.842600003], [-8056247.968800001, 5388235.537199996], [-8056412.3802000005, 5388099.762500003], [-8056417.552100001, 5388093.642099999], [-8056426.1866, 5388083.423799999], [-8056500.9245, 5387994.9772000015], [-8056506.4991999995, 5387988.380000003], [-8056510.871300001, 5387983.205799997], [-8056619.6061, 5387894.991300002], [-8056668.836999999, 5387789.266800001], [-8056705.9427000005, 5387653.1193], [-8056768.946900001, 5387559.543899998], [-8056773.6447, 5387552.566600002], [-8056845.0866, 5387446.4573], [-8056845.4471, 5387445.922399998], [-8056853.7147, 5387455.303999998], [-8056877.3061, 5387482.0748], [-8056948.8489, 5387438.097400002], [-8057005.4967, 5387326.741099998], [-8057028.8006, 5387246.737999998], [-8057044.4167, 5387168.270999998], [-8056912.1151, 5387165.269900002], [-8056866.749, 5387112.813000001], [-8056861.4208, 5387095.273000002], [-8056880.399499999, 5387043.073100001], [-8056909.4835, 5387007.723499998], [-8056964.7486000005, 5386984.801899999], [-8056985.0428, 5386980.396600001], [-8057002.6841, 5386903.984999999], [-8057013.691400001, 5386873.709399998], [-8057015.5294, 5386839.030500002], [-8057084.696799999, 5386843.026100002], [-8057084.7689, 5386864.043499999], [-8057083.4606, 5386916.469999999], [-8057080.921399999, 5386969.058799997], [-8057076.228399999, 5387022.9824], [-8057065.3882, 5387107.2217999995], [-8057055.589299999, 5387164.754799999], [-8057036.847200001, 5387251.599299997], [-8057022.457900001, 5387309.619800001], [-8057005.5353, 5387367.360399999], [-8056985.924799999, 5387428.159599997], [-8056937.830499999, 5387472.953000002], [-8056874.4498, 5387558.044500001], [-8056860.1236000005, 5387577.950599998]]], [[[-8057468.9421, 5388046.943800002], [-8057461.898499999, 5388058.904100001], [-8057338.384199999, 5388268.627700001], [-8057384.2388, 5388325.745499998], [-8057386.1785, 5388328.250200003], [-8057388.030200001, 5388330.8213], [-8057389.791200001, 5388333.455899999], [-8057391.4595, 5388336.150399998], [-8057393.0329, 5388338.901799999], [-8057394.5097, 5388341.706699997], [-8057395.8879, 5388344.561399996], [-8057397.165999999, 5388347.4629999995], [-8057398.3423999995, 5388350.407499999], [-8057399.4155, 5388353.3913], [-8057400.384199999, 5388356.410999998], [-8057401.247300001, 5388359.462800004], [-8057402.003699999, 5388362.542999998], [-8057402.6524, 5388365.647699997], [-8057403.192600001, 5388368.773400001], [-8057403.6237, 5388371.916199997], [-8057403.9452, 5388375.071999997], [-8057404.1568, 5388378.237099998], [-8057404.258099999, 5388381.407899998], [-8057404.249, 5388384.580200002], [-8057404.1296, 5388387.750200003], [-8057403.899900001, 5388390.9142], [-8057403.5602, 5388394.068000004], [-8057403.111, 5388397.2082], [-8057402.5528, 5388400.330799997], [-8057401.886299999, 5388403.431699999], [-8057401.112400001, 5388406.5075], [-8057400.231699999, 5388409.554499999], [-8057399.2458, 5388412.568400003], [-8057398.1555, 5388415.546099998], [-8057396.962099999, 5388418.4837], [-8057395.6676, 5388421.377800003], [-8057394.2729, 5388424.224600002], [-8057392.779999999, 5388427.020900004], [-8057391.1908, 5388429.763099998], [-8057389.507099999, 5388432.447999999], [-8057387.731000001, 5388435.072400004], [-8057385.864700001, 5388437.632700004], [-8057383.9103999995, 5388440.126199998], [-8057381.8704, 5388442.549599998], [-8057379.7476, 5388444.9001], [-8057377.5441, 5388447.174900003], [-8057375.2629, 5388449.370700002], [-8057372.9067, 5388451.485799998], [-8057370.4782, 5388453.5167], [-8057354.457900001, 5388440.533699997], [-8056998.9001, 5388152.373999998], [-8056989.8116999995, 5388144.740699999], [-8056980.9953000005, 5388136.792599998], [-8056972.4616, 5388128.5397000015], [-8056964.2206999995, 5388119.992399998], [-8056956.283299999, 5388111.1603000015], [-8056948.6587000005, 5388102.055200003], [-8056941.3563, 5388092.687700003], [-8056934.385299999, 5388083.069600001], [-8056927.754000001, 5388073.212399997], [-8056921.4706999995, 5388063.128300004], [-8056915.5427, 5388052.829599999], [-8056909.977700001, 5388042.329099998], [-8056904.782299999, 5388031.6395], [-8056899.9999, 5388020.861299999], [-8056895.5934, 5388009.922899999], [-8056891.568, 5387998.8374999985], [-8056887.9286, 5387987.618699998], [-8056884.6796, 5387976.279600002], [-8056881.825099999, 5387964.8342999965], [-8056879.368100001, 5387953.296400003], [-8056877.311899999, 5387941.68], [-8056875.6589, 5387929.998800002], [-8056874.411, 5387918.267099999], [-8056873.57, 5387906.498999998], [-8056873.136499999, 5387894.7086], [-8056873.111199999, 5387882.910400003], [-8056873.4944, 5387871.118500002], [-8056874.2852, 5387859.346900001], [-8056875.482899999, 5387847.609899998], [-8056877.085899999, 5387835.921800002], [-8056879.0923999995, 5387824.296800002], [-8056881.5, 5387812.748499997], [-8056884.305600001, 5387801.291199997], [-8056887.506100001, 5387789.938600004], [-8056891.0973000005, 5387778.704300001], [-8056895.1493, 5387766.747100003], [-8057208.660800001, 5387493.885499999], [-8057223.6993, 5387523.048199996], [-8057468.9421, 5388046.943800002]]], [[[-8056742.1876, 5387793.949500002], [-8056747.688100001, 5387767.222900003], [-8056748.8508, 5387755.339500003], [-8056750.962300001, 5387745.758299999], [-8056757.665100001, 5387733.753399998], [-8056775.2413, 5387708.895199999], [-8056813.331900001, 5387661.344800003], [-8056839.5526, 5387628.104099996], [-8056884.591499999, 5387565.5227999985], [-8056947.227299999, 5387481.431100003], [-8056977.9814, 5387452.787900001], [-8056977.789799999, 5387453.382299997], [-8056887.793299999, 5387705.047700003], [-8056871.153999999, 5387756.400799997], [-8056863.8046, 5387782.004100002], [-8056857.5021, 5387807.498199999], [-8056852.5978, 5387832.9124], [-8056849.179300001, 5387858.4038999975], [-8056847.2259, 5387891.301700003], [-8056846.817299999, 5387903.8156], [-8056846.8321, 5387916.3364999965], [-8056847.270099999, 5387928.849699996], [-8056848.1302000005, 5387941.340499997], [-8056849.4123, 5387953.795299999], [-8056851.114399999, 5387966.199000001], [-8056853.2346, 5387978.537799999], [-8056855.7707, 5387990.797399998], [-8056858.6537, 5388001.692500003], [-8056861.8971, 5388012.485100001], [-8056865.4975000005, 5388023.163199998], [-8056868.072899999, 5388030.157200001], [-8056870.8013, 5388037.092500001], [-8056875.0766, 5388047.149899997], [-8056879.673599999, 5388057.0634], [-8056884.5877, 5388066.822499998], [-8056889.8138, 5388076.4168], [-8056895.3463, 5388085.836800002], [-8056901.1796, 5388095.072300002], [-8056907.3072999995, 5388104.113499999], [-8056913.723200001, 5388112.951200001], [-8056922.0001, 5388123.871299997], [-8056930.647399999, 5388134.4987], [-8056939.8839, 5388145.074299999], [-8056949.4869, 5388155.315700002], [-8056959.444800001, 5388165.2104], [-8056969.7446, 5388174.745700002], [-8056980.3736000005, 5388183.910099998], [-8056991.3189, 5388192.692000002], [-8057307.647700001, 5388451.276000001], [-8057280.954, 5388485.060599998], [-8057269.2337, 5388499.894100003], [-8057248.2480999995, 5388504.770800002], [-8057232.2993, 5388513.927599996], [-8057220.476199999, 5388528.7491], [-8057215.440400001, 5388548.633100003], [-8057234.7576, 5388614.191799998], [-8057247.308499999, 5388647.0625], [-8057248.955800001, 5388682.342699997], [-8057252.247099999, 5388714.932800002], [-8057234.6203000005, 5388763.400700003], [-8057229.583699999, 5388775.680699997], [-8057236.2634, 5388787.641500004], [-8057256.421599999, 5388801.429399997], [-8057258.910499999, 5388809.102499999], [-8057256.376499999, 5388818.684699997], [-8057248.7993, 5388832.273599997], [-8057251.3835, 5388849.622100003], [-8057258.0611000005, 5388864.3495000005], [-8057253.0088, 5388871.7786], [-8057241.230900001, 5388876.936899997], [-8057226.1393, 5388879.923199996], [-8057211.820900001, 5388886.364], [-8057181.673699999, 5388904.071400002], [-8057156.504000001, 5388902.576099999], [-8057138.040200001, 5388904.059900001], [-8057127.9286, 5388910.670299999], [-8057102.7501, 5388912.6237], [-8057080.114600001, 5388901.545999996], [-8057075.964400001, 5388894.504299998], [-8057067.581700001, 5388870.7456], [-8057045.770400001, 5388838.9705], [-8057054.2425, 5388829.568800002], [-8057072.6205, 5388822.5528], [-8057066.8203, 5388809.928400002], [-8057048.3891, 5388794.143799998], [-8057031.5747, 5388786.027000003], [-8056992.1785, 5388780.625699997], [-8056961.0975, 5388786.5407000035], [-8056926.7326, 5388784.763499998], [-8056879.752800001, 5388768.090499997], [-8056826.9004999995, 5388757.438100003], [-8056805.927300001, 5388745.715400003], [-8056765.8155000005, 5388745.769400001], [-8056722.882099999, 5388729.272500001], [-8056707.7146000005, 5388728.787699997], [-8056756.861199999, 5388825.621699996], [-8056674.3498, 5388877.438600004], [-8056217.8804, 5388876.525200002], [-8056036.2544, 5388763.808399998], [-8055947.876, 5388674.7104], [-8055947.3894, 5388674.599100001], [-8055942.2863, 5388673.434299998], [-8055927.2128, 5388663.2809000015], [-8055909.568299999, 5388644.734300002], [-8055901.144200001, 5388627.8851], [-8055861.758099999, 5388591.4179000035], [-8055844.9636, 5388583.968099996], [-8055841.502900001, 5388584.126000002], [-8055832.931, 5388575.641800001], [-8055826.3346, 5388562.650300004], [-8055820.863500001, 5388529.448399998], [-8055818.574100001, 5388490.326499999], [-8055818.491699999, 5388488.275399998], [-8055870.9322999995, 5388493.141500004], [-8055930.464299999, 5388480.9038999975], [-8055981.0714, 5388464.532899998], [-8055986.5956999995, 5388462.072999999], [-8056000.324999999, 5388458.077600002], [-8056008.8203, 5388454.287699997], [-8056088.578199999, 5388412.398699999], [-8056128.1238, 5388395.138400003], [-8056170.178300001, 5388378.830300003], [-8056199.514799999, 5388365.485399999], [-8056230.056399999, 5388349.5836], [-8056245.159700001, 5388340.872100003], [-8056287.3686, 5388310.875100002], [-8056312.646, 5388286.093500003], [-8056325.889900001, 5388276.257600002], [-8056338.6579, 5388264.343999997], [-8056350.481799999, 5388251.987300001], [-8056376.119200001, 5388231.826800004], [-8056399.2805, 5388208.591799997], [-8056437.217499999, 5388179.574500002], [-8056467.9991, 5388151.567000002], [-8056486.194, 5388131.347900003], [-8056501.3434, 5388110.409999996], [-8056516.8529, 5388095.684799999], [-8056535.695599999, 5388070.937200002], [-8056556.513599999, 5388049.508000001], [-8056598.314300001, 5388013.724600002], [-8056633.058800001, 5387988.4045], [-8056655.2654, 5387968.843199998], [-8056666.313999999, 5387957.219899997], [-8056675.9484, 5387944.319300003], [-8056701.593, 5387902.559299998], [-8056716.2468, 5387873.386600003], [-8056722.9175, 5387858.385600001], [-8056733.9946, 5387828.2260000035], [-8056738.235200001, 5387813.153800003], [-8056742.1876, 5387793.949500002]]]]}}]}