{"type": "FeatureCollection", "name": "North_Dakota_park", "crs": {"type": "name", "properties": {"name": "urn:ogc:def:crs:EPSG::3857"}}, "features": [{"type": "Feature", "properties": {"OBJECTID": 67, "CreationDate": "2025-01-14T11:11:11Z", "Creator": "NPS_WASO_LANDS", "EditDate": "2025-01-14T11:11:11Z", "Editor": "NPS_WASO_LANDS", "GlobalID": "{C2161D15-A5EA-4CDC-850B-A42A05E00443}", "AreaID": 47, "UNIT_CODE": "KNRI", "GIS_Notes": "Lands - http://landsnet.nps.gov/tractsnet/documents/KNRI/Metadata/knri_metadata.xml", "UNIT_NAME": "Knife River Indian Villages National Historic Site", "DATE_EDIT": "2012-04-03T00:00:00Z", "STATE": "ND", "REGION": "MW", "GNIS_ID": "1888938", "UNIT_TYPE": "National Historic Site", "CREATED_BY": "Lands", "METADATA": "https://irma.nps.gov/DataStore/Reference/Profile/2185777", "PARKNAME": "Knife River Indian Villages", "SHAPE_Length": 27551.891876408026, "SHAPE_Area": 15618816.935993727}, "geometry": {"type": "MultiPolygon", "coordinates": [[[[-11284574.3332, 5994694.7267], [-11284637.8557, 5994685.027599998], [-11284701.378, 5994675.3279], [-11284786.3332, 5994685.8257], [-11284848.5062, 5994701.482299998], [-11284891.2097, 5994727.165899999], [-11284934.9485, 5994772.457900003], [-11284978.6877, 5994817.750200003], [-11284996.3343, 5994864.150700003], [-11285013.981, 5994910.551899999], [-11285025.9933, 5994963.828900002], [-11285038.0054, 5995017.106299996], [-11285050.0178, 5995070.384099998], [-11285056.6933, 5995132.590499997], [-11285063.369, 5995194.797200002], [-11285112.3658, 5995194.249499999], [-11285161.3628, 5995193.701099999], [-11285210.3596, 5995193.152800001], [-11285279.3485, 5995193.203400001], [-11285324.5136, 5995192.6972], [-11285369.6786, 5995192.190700002], [-11285370.0736, 5995237.4331], [-11285370.4685, 5995282.675899997], [-11285370.8633, 5995327.918799996], [-11285371.2583, 5995373.161700003], [-11285371.6531, 5995418.405199997], [-11285372.0481, 5995463.648800001], [-11285372.443, 5995508.8926], [-11285372.8378, 5995554.136600003], [-11285373.2329, 5995599.380900003], [-11285373.6276, 5995644.625200003], [-11285374.0226, 5995689.869999997], [-11285373.7066, 5995764.773800001], [-11285373.9329, 5995784.968000002], [-11285374.2437, 5995812.729099996], [-11285374.7812, 5995860.684500001], [-11285375.3185, 5995908.640299998], [-11285375.8556, 5995956.5961000025], [-11285376.3931, 5996004.5524], [-11285376.9305, 5996052.509000003], [-11285423.0184, 5996052.3928999975], [-11285469.106, 5996052.276100002], [-11285515.1936, 5996052.159500003], [-11285561.2815, 5996052.042199999], [-11285607.3692, 5996051.924900003], [-11285653.4568, 5996051.807499997], [-11285699.5445, 5996051.689900003], [-11285745.6324, 5996051.571800001], [-11285791.7201, 5996051.453400001], [-11285837.8076, 5996051.335100003], [-11285883.8955, 5996051.2163999975], [-11285929.9833, 5996051.0973000005], [-11285976.0709, 5996050.9782000035], [-11286022.1586, 5996050.858599998], [-11286068.2464, 5996050.739100002], [-11286114.3341, 5996050.619000003], [-11286160.4218, 5996050.498800002], [-11286206.5095, 5996050.378399998], [-11286252.5974, 5996050.257799998], [-11286298.685, 5996050.136799999], [-11286344.7727, 5996050.015699998], [-11286357.3486, 5996049.873300001], [-11286364.135, 5996049.796300001], [-11286370.8681, 5996049.7201000005], [-11286377.6545, 5996049.643200003], [-11286389.8066, 5996049.505400002], [-11286401.7068, 5996049.370700002], [-11286449.9728, 5996048.8235], [-11286498.2387, 5996048.2761999965], [-11286546.5047, 5996047.728399999], [-11286547.0432, 5996095.4595], [-11286547.5815, 5996143.191100001], [-11286548.1199, 5996190.922799997], [-11286548.6584, 5996238.654700004], [-11286549.1968, 5996286.386799999], [-11286549.7352, 5996334.1193], [-11286550.2736, 5996381.8521], [-11286550.8121, 5996429.584899999], [-11286551.3504, 5996477.3182], [-11286551.8891, 5996525.051700003], [-11286552.4275, 5996572.785400003], [-11286552.9659, 5996620.519400001], [-11286553.5044, 5996668.253600001], [-11286554.0428, 5996715.988200001], [-11286554.5813, 5996763.722900003], [-11286500.5337, 5996764.336400002], [-11286446.486, 5996764.9494], [-11286392.4383, 5996765.561899997], [-11286373.4973, 5996765.677100003], [-11286373.6778, 5996814.876199998], [-11286373.8586, 5996864.075599998], [-11286374.0394, 5996913.2754999995], [-11286374.2201, 5996962.4755000025], [-11286392.8578, 5996962.249499999], [-11286447.4918, 5996962.255900003], [-11286502.1257, 5996962.2619], [-11286556.7596, 5996962.267700002], [-11286557.0477, 5997008.868199997], [-11286557.3356, 5997055.468999997], [-11286557.6236, 5997102.07], [-11286557.9116, 5997148.671300001], [-11286558.1996, 5997195.2727999985], [-11286558.4876, 5997241.874600001], [-11286558.7757, 5997288.476599999], [-11286559.0636, 5997335.078900002], [-11286559.3516, 5997381.681400001], [-11286559.6395, 5997428.284000002], [-11286559.9276, 5997474.887000002], [-11286560.2157, 5997521.490500003], [-11286560.5037, 5997568.093999997], [-11286560.7918, 5997614.6976], [-11286561.0798, 5997661.3015], [-11286561.3678, 5997707.9059000015], [-11286561.6559, 5997754.510300003], [-11286561.944, 5997801.115000002], [-11286562.232, 5997847.719899997], [-11286562.52, 5997894.325199999], [-11286562.8081, 5997940.930500001], [-11286563.0962, 5997987.5363000035], [-11286563.3842, 5998034.142200001], [-11286563.6721, 5998080.748499997], [-11286563.9604, 5998127.354999997], [-11286564.1805, 5998162.999399997], [-11286564.2483, 5998173.9614999965], [-11286564.8946, 5998221.196699999], [-11286565.5409, 5998268.4322], [-11286566.1872, 5998315.667800002], [-11286566.8332, 5998362.903700002], [-11286567.4795, 5998410.139899999], [-11286568.1259, 5998457.3763], [-11286568.135, 5998458.8983], [-11286568.4031, 5998503.7509], [-11286568.6802, 5998550.125799999], [-11286568.9573, 5998596.501199998], [-11286569.2346, 5998642.876599997], [-11286569.5119, 5998689.2522], [-11286569.7891, 5998735.628200002], [-11286570.0663, 5998782.004600003], [-11286570.3436, 5998828.380800001], [-11286570.6208, 5998874.757399999], [-11286570.8981, 5998921.134400003], [-11286571.1754, 5998967.511500001], [-11286571.4526, 5999013.888999999], [-11286571.7298, 5999060.266599998], [-11286572.0071, 5999106.644400001], [-11286572.2843, 5999153.022600003], [-11286572.5616, 5999199.400799997], [-11286572.8389, 5999245.7793999985], [-11286573.1162, 5999292.158399999], [-11286573.3934, 5999338.537299998], [-11286573.6707, 5999384.9168], [-11286573.9479, 5999431.296499997], [-11286574.2252, 5999477.676299997], [-11286575.237, 5999529.475199997], [-11286576.2487, 5999581.2744999975], [-11286577.2604, 5999633.074199997], [-11286578.2722, 5999684.873999998], [-11286579.2839, 5999736.674199998], [-11286580.2958, 5999788.474799998], [-11286589.8044, 5999835.8972999975], [-11286599.3132, 5999883.319899999], [-11286641.1403, 5999954.7839], [-11286674.8423, 5999987.8015], [-11286713.7839, 6000011.7667], [-11286752.7258, 6000035.732000001], [-11286791.6679, 6000059.697300002], [-11286830.6103, 6000083.662100002], [-11286869.5528, 6000107.626900002], [-11286908.4956, 6000131.591600001], [-11286947.4387, 6000155.556400001], [-11286986.3819, 6000179.5211], [-11287025.3253, 6000203.485299997], [-11287064.2691, 6000227.450000003], [-11287103.2129, 6000251.413900003], [-11287142.157, 6000275.377999999], [-11287183.9557, 6000301.7333], [-11287225.7543, 6000328.088299997], [-11287267.5534, 6000354.4432], [-11287309.3528, 6000380.798], [-11287351.1525, 6000407.152599998], [-11287392.9523, 6000433.507100001], [-11287434.7524, 6000459.861699998], [-11287472.1377, 6000488.865099996], [-11287509.5236, 6000517.8684], [-11287546.9093, 6000546.8719], [-11287556.6459, 6000554.425300002], [-11287584.157, 6000575.3675], [-11287591.002, 6000580.578000002], [-11287627.7205, 6000611.170900002], [-11287664.4393, 6000641.763700001], [-11287693.7491, 6000680.715400003], [-11287723.059, 6000719.667099997], [-11287752.3694, 6000758.619000003], [-11287781.6799, 6000797.570900001], [-11287815.364, 6000880.078699999], [-11287822.9771, 6000943.0266999975], [-11287830.5905, 6001005.9750000015], [-11287828.9273, 6001055.570100002], [-11287827.2637, 6001105.165299997], [-11287825.6004, 6001154.760799997], [-11287824.0976, 6001201.6272], [-11287822.5947, 6001248.494099997], [-11287821.0918, 6001295.361100003], [-11287819.5888, 6001342.228299998], [-11287818.0859, 6001389.095899999], [-11287816.583, 6001435.963799998], [-11287815.0801, 6001482.831699997], [-11287813.5771, 6001529.6998], [-11287812.0741, 6001576.568599999], [-11287810.949, 6001624.673500001], [-11287809.8239, 6001672.7788999975], [-11287808.6988, 6001720.884499997], [-11287807.5736, 6001768.9903], [-11287806.4485, 6001817.096299998], [-11287805.3234, 6001865.2026999965], [-11287804.1983, 6001913.309299998], [-11287803.0731, 6001961.4164], [-11287801.948, 6002009.523500003], [-11287800.8228, 6002057.630800001], [-11287799.6975, 6002105.738399997], [-11287798.5723, 6002153.846500002], [-11287797.4472, 6002201.954599999], [-11287796.3218, 6002250.063000001], [-11287794.1939, 6002341.038199998], [-11287589.1696, 6002343.391999997], [-11287589.1697, 6002343.428800002], [-11287589.2984, 6002388.857299998], [-11287589.4273, 6002434.322800003], [-11287589.5562, 6002479.788599998], [-11287589.685, 6002525.254600003], [-11287589.8137, 6002570.720799997], [-11287589.9428, 6002616.187299997], [-11287590.0716, 6002661.653999999], [-11287590.2006, 6002707.120899998], [-11287590.3295, 6002752.587899998], [-11287590.4584, 6002798.055299997], [-11287590.5873, 6002843.523000002], [-11287590.7161, 6002888.990900002], [-11287590.8449, 6002934.458899997], [-11287590.8965, 6002980.305], [-11287590.9478, 6003026.1511999965], [-11287590.9992, 6003071.997599997], [-11287591.0505, 6003117.844400004], [-11287591.1019, 6003163.691500001], [-11287591.1534, 6003209.538800001], [-11287591.2047, 6003255.386], [-11287591.2561, 6003301.233800001], [-11287591.3075, 6003347.081699997], [-11287591.3587, 6003392.93], [-11287591.4103, 6003438.7782000005], [-11287591.4618, 6003484.626999997], [-11287591.513, 6003530.4758], [-11287591.5785, 6003588.910700001], [-11287591.6439, 6003647.3461000025], [-11287591.7095, 6003705.781900004], [-11287591.7618, 6003752.531099997], [-11287591.8143, 6003799.280500002], [-11287591.8667, 6003846.030299999], [-11287591.9189, 6003892.780199997], [-11287591.9715, 6003939.530299999], [-11287592.0239, 6003986.281000003], [-11287592.0761, 6004033.031499997], [-11287592.1287, 6004079.782700002], [-11287592.181, 6004126.533699997], [-11287592.2324, 6004172.384800002], [-11287592.2838, 6004218.236000001], [-11287592.3352, 6004264.0876], [-11287592.3864, 6004309.939599998], [-11287592.438, 6004355.791500002], [-11287592.4893, 6004401.643799998], [-11287592.5407, 6004447.4965], [-11287592.592, 6004493.348899998], [-11287592.6435, 6004539.202], [-11287592.6948, 6004585.055100001], [-11287592.7462, 6004630.9086000025], [-11287592.7976, 6004676.762400001], [-11287592.8491, 6004722.6162], [-11287592.9003, 6004768.471600004], [-11287592.9518, 6004814.327399999], [-11287593.0031, 6004860.183499999], [-11287593.0544, 6004906.0396], [-11287593.1058, 6004951.895999998], [-11287593.1574, 6004997.752700001], [-11287593.2087, 6005043.6096], [-11287593.26, 6005089.466700003], [-11287593.3114, 6005135.324199997], [-11287593.3629, 6005181.1818], [-11287593.4142, 6005227.039800003], [-11287593.4654, 6005272.897699997], [-11287593.517, 6005318.755999997], [-11287548.5675, 6005318.7228000015], [-11287503.6176, 6005318.689199999], [-11287458.668, 6005318.655500002], [-11287413.7183, 6005318.6215], [-11287368.7686, 6005318.587300003], [-11287323.8188, 6005318.5528], [-11287278.8692, 6005318.518299997], [-11287233.9195, 6005318.483099997], [-11287211.6277, 6005271.609200001], [-11287189.3361, 6005224.7355], [-11287167.0448, 6005177.862000003], [-11287144.7536, 6005130.988499999], [-11287122.4626, 6005084.1153], [-11287093.0453, 6005031.349799998], [-11287063.6284, 6004978.585100003], [-11287036.753, 6004936.784100004], [-11287009.8782, 6004894.983000003], [-11286983.0035, 6004853.181999996], [-11286956.1291, 6004811.381099999], [-11286929.255, 6004769.580499999], [-11286902.2356, 6004723.445200004], [-11286875.2166, 6004677.3103], [-11286848.1979, 6004631.175399996], [-11286817.9954, 6004589.604099996], [-11286787.7934, 6004548.033], [-11286757.5917, 6004506.461900003], [-11286727.3901, 6004464.890900001], [-11286697.1889, 6004423.320200004], [-11286666.8271, 6004384.213100001], [-11286636.4652, 6004345.1065], [-11286606.1038, 6004305.999399997], [-11286575.7426, 6004266.892700002], [-11286545.3819, 6004227.785899997], [-11286515.0213, 6004188.679399997], [-11286484.6609, 6004149.572700001], [-11286454.3008, 6004110.466300003], [-11286422.4416, 6004078.0044], [-11286390.5826, 6004045.542499997], [-11286344.9249, 6004018.286799997], [-11286299.2673, 6003991.030599996], [-11286253.6104, 6003963.774400003], [-11286197.6495, 6003916.4362], [-11286158.836, 6003881.528099999], [-11286120.0226, 6003846.619800001], [-11286081.2096, 6003811.7114999965], [-11286042.3971, 6003776.803300001], [-11286004.7558, 6003739.245999999], [-11285967.1148, 6003701.688500002], [-11285929.4741, 6003664.130900003], [-11285891.8338, 6003626.573600002], [-11285854.1938, 6003589.016099997], [-11285823.1853, 6003552.999499999], [-11285792.1769, 6003516.982799999], [-11285761.1687, 6003480.9663999975], [-11285730.161, 6003444.9498], [-11285697.516, 6003403.255800001], [-11285664.871, 6003361.562200002], [-11285632.2263, 6003319.868600003], [-11285599.5823, 6003278.174999997], [-11285566.9382, 6003236.4815], [-11285539.3267, 6003191.226300001], [-11285511.7155, 6003145.971299998], [-11285491.0982, 6003100.638499998], [-11285470.4811, 6003055.305799998], [-11285445.7888, 6003012.203199998], [-11285421.0968, 6002969.1008], [-11285396.405, 6002925.998400003], [-11285442.4157, 6002926.176100001], [-11285488.4263, 6002926.353299998], [-11285534.4369, 6002926.530699998], [-11285580.4475, 6002926.707500003], [-11285626.4582, 6002926.884199999], [-11285672.4688, 6002927.060599998], [-11285718.4795, 6002927.2368], [-11285764.4901, 6002927.412600003], [-11285810.5008, 6002927.588500001], [-11285837.4639, 6002927.693099998], [-11285837.1093, 6002880.961099997], [-11285836.7546, 6002834.2294000015], [-11285836.3999, 6002787.4978], [-11285836.0454, 6002740.766599998], [-11285835.6907, 6002694.035499997], [-11285835.336, 6002647.304799996], [-11285834.9815, 6002600.5744], [-11285834.6268, 6002553.843999997], [-11285834.2723, 6002507.114100002], [-11285833.9177, 6002460.384099998], [-11285833.5629, 6002413.654799998], [-11285833.2084, 6002366.925499998], [-11285832.8538, 6002320.196400002], [-11285832.4991, 6002273.467699997], [-11285832.1447, 6002226.739100002], [-11285831.79, 6002180.010899998], [-11285831.4353, 6002133.282899998], [-11285831.0808, 6002086.554899998], [-11285830.7261, 6002039.827600002], [-11285830.3716, 6001993.100100003], [-11285830.017, 6001946.373199999], [-11285829.6625, 6001899.646399997], [-11285829.3079, 6001852.919799998], [-11285828.9532, 6001806.193499997], [-11285828.5988, 6001759.4673999995], [-11285828.1972, 6001714.3499], [-11285827.7957, 6001669.233000003], [-11285827.3942, 6001624.115599997], [-11285826.9926, 6001578.998999998], [-11285826.5912, 6001533.882299997], [-11285826.1895, 6001488.766000003], [-11285825.788, 6001443.649899997], [-11285825.3866, 6001398.534000002], [-11285824.9849, 6001353.418399997], [-11285824.5835, 6001308.303000003], [-11285824.182, 6001263.187700003], [-11285823.7806, 6001218.073100001], [-11285823.3789, 6001172.9580999985], [-11285822.9776, 6001127.843800001], [-11285822.5761, 6001082.7294000015], [-11285822.1744, 6001037.6153], [-11285821.773, 6000992.501699999], [-11285821.3716, 6000947.387999997], [-11285820.9701, 6000902.274599999], [-11285820.5686, 6000857.161600001], [-11285820.1672, 6000812.048600003], [-11285819.7657, 6000766.935999997], [-11285819.3642, 6000721.823700003], [-11285818.9628, 6000676.711599998], [-11285818.5614, 6000631.599600002], [-11285818.16, 6000586.487800002], [-11285817.7584, 6000541.376400001], [-11285817.0701, 6000479.896600001], [-11285816.3817, 6000418.4174000025], [-11285770.4006, 6000418.935199998], [-11285724.4194, 6000419.453000002], [-11285678.4382, 6000419.970299996], [-11285632.4572, 6000420.487599999], [-11285586.476, 6000421.0044], [-11285540.4948, 6000421.521200001], [-11285494.5138, 6000422.0375000015], [-11285448.5327, 6000422.553800002], [-11285402.5514, 6000423.069799997], [-11285356.5702, 6000423.585600004], [-11285310.589, 6000424.1008], [-11285264.6077, 6000424.616099998], [-11285218.6265, 6000425.131099999], [-11285218.454, 6000377.100199997], [-11285218.2814, 6000329.069499999], [-11285218.1086, 6000281.039300002], [-11285217.9361, 6000233.009199999], [-11285217.7633, 6000184.9793], [-11285217.5908, 6000136.949900001], [-11285217.4182, 6000088.920599997], [-11285217.2455, 6000040.891599998], [-11285217.0728, 5999992.862800002], [-11285216.9002, 5999944.8342999965], [-11285216.7282, 5999896.744199999], [-11285216.5563, 5999848.654299997], [-11285216.3843, 5999800.564599998], [-11285216.2123, 5999752.475199997], [-11285216.0405, 5999704.386200003], [-11285215.8685, 5999656.297399998], [-11285215.6965, 5999608.208800003], [-11285215.5246, 5999560.1206], [-11285215.3526, 5999512.032499999], [-11285215.1807, 5999463.944700003], [-11285215.0086, 5999415.857199997], [-11285214.8367, 5999367.769900002], [-11285214.7739, 5999350.2139], [-11285214.6039, 5999302.926799998], [-11285214.434, 5999255.639799997], [-11285214.264, 5999208.353299998], [-11285247.5496, 5999175.3565], [-11285280.8348, 5999142.359399997], [-11285314.1199, 5999109.362400003], [-11285347.4048, 5999076.365400001], [-11285380.6893, 5999043.368600003], [-11285413.9736, 5999010.3715], [-11285447.2578, 5998977.374700002], [-11285480.5413, 5998944.377700001], [-11285513.8251, 5998911.380800001], [-11285547.1085, 5998878.383699998], [-11285580.3915, 5998845.3869], [-11285613.6742, 5998812.389799997], [-11285646.957, 5998779.392999999], [-11285680.2392, 5998746.395900004], [-11285713.5213, 5998713.398900002], [-11285746.803, 5998680.401900001], [-11285780.0845, 5998647.405000001], [-11285813.366, 5998614.407899998], [-11285786.3185, 5998577.682300001], [-11285759.2713, 5998540.956799999], [-11285732.2245, 5998504.231200002], [-11285705.1777, 5998467.5057], [-11285678.1313, 5998430.780500002], [-11285651.085, 5998394.055299997], [-11285624.0389, 5998357.3298999965], [-11285596.9932, 5998320.604699999], [-11285569.9476, 5998283.879799999], [-11285542.9022, 5998247.154700004], [-11285515.8571, 5998210.429799996], [-11285488.8123, 5998173.704999998], [-11285461.7675, 5998136.9802], [-11285434.7231, 5998100.255400002], [-11285407.6788, 5998063.5308], [-11285380.635, 5998026.806100003], [-11285353.5912, 5997990.081600003], [-11285326.5477, 5997953.3571000025], [-11285299.5044, 5997916.632799998], [-11285272.4613, 5997879.908500001], [-11285245.4183, 5997843.184100002], [-11285218.3757, 5997806.459899999], [-11285191.3334, 5997769.735799998], [-11285164.2912, 5997733.0119], [-11285137.2493, 5997696.287699997], [-11285110.2075, 5997659.564000003], [-11285083.1661, 5997622.840099998], [-11285056.1248, 5997586.116599999], [-11285029.0837, 5997549.392499998], [-11285002.043, 5997512.668899998], [-11284975.0024, 5997475.945600003], [-11284947.962, 5997439.2217999995], [-11284920.9218, 5997402.498499997], [-11284893.8818, 5997365.775200002], [-11284866.8423, 5997329.051799998], [-11284839.8028, 5997292.328699999], [-11284812.7636, 5997255.605800003], [-11284785.7245, 5997218.882399999], [-11284758.6858, 5997182.159400001], [-11284731.6473, 5997145.436499998], [-11284704.6089, 5997108.713799998], [-11284677.5708, 5997071.990699999], [-11284650.5328, 5997035.268100001], [-11284623.4952, 5996998.545400001], [-11284596.4578, 5996961.822499998], [-11284544.0501, 5996960.891099997], [-11284491.6425, 5996959.9592999965], [-11284439.2348, 5996959.027099997], [-11284386.8271, 5996958.094499998], [-11284334.4195, 5996957.161600001], [-11284286.5759, 5996958.954499997], [-11284238.7322, 5996960.747299999], [-11284190.8886, 5996962.539300002], [-11284143.045, 5996964.331600003], [-11284161.8557, 5996918.682999998], [-11284180.6665, 5996873.034500003], [-11284199.4768, 5996827.386600003], [-11284216.441, 5996766.612599999], [-11284228.5575, 5996723.142800003], [-11284240.6738, 5996679.673], [-11284252.79, 5996636.203599997], [-11284264.9062, 5996592.734399997], [-11284277.0223, 5996549.2651999965], [-11284289.1382, 5996505.796300001], [-11284293.6657, 5996459.4663999975], [-11284298.1931, 5996413.137199998], [-11284302.7207, 5996366.807899997], [-11284307.4978, 5996320.3081], [-11284312.2749, 5996273.808300003], [-11284317.052, 5996227.309], [-11284321.8289, 5996180.809900001], [-11284326.6058, 5996134.310900003], [-11284331.3828, 5996087.812299997], [-11284336.1596, 5996041.3138], [-11284340.9364, 5995994.815700002], [-11284345.7131, 5995948.317699999], [-11284350.4899, 5995901.819899999], [-11284355.2751, 5995853.626999997], [-11284360.0602, 5995805.434], [-11284364.8455, 5995757.241599999], [-11284369.6306, 5995709.0493], [-11284374.4156, 5995660.857299998], [-11284379.2006, 5995612.6655], [-11284383.9855, 5995564.473999999], [-11284388.7704, 5995516.282799996], [-11284393.5552, 5995468.091799997], [-11284398.3399, 5995419.901100002], [-11284403.1248, 5995371.710699998], [-11284407.9094, 5995323.520400003], [-11284412.694, 5995275.330499999], [-11284411.0833, 5995227.930500001], [-11284409.4728, 5995180.530699998], [-11284407.8618, 5995133.130999997], [-11284401.8522, 5995081.420599997], [-11284395.8427, 5995029.710500002], [-11284389.8331, 5994978.000799999], [-11284386.0297, 5994928.991899997], [-11284382.2264, 5994879.983099997], [-11284399.2864, 5994799.6774], [-11284452.544, 5994746.7651999965], [-11284513.4388, 5994720.746100001], [-11284574.3332, 5994694.7267]]]]}}, {"type": "Feature", "properties": {"OBJECTID": 102, "CreationDate": "2025-01-14T11:11:11Z", "Creator": "NPS_WASO_LANDS", "EditDate": "2025-01-14T11:11:11Z", "Editor": "NPS_WASO_LANDS", "GlobalID": "{EF7FA4AD-A38A-4372-844A-0B07181B4CA2}", "AreaID": 84, "UNIT_CODE": "THRO", "GIS_Notes": "Lands - http://landsnet.nps.gov/tractsnet/documents/THRO/Metadata/thro_metadata.xml", "UNIT_NAME": "Theodore Roosevelt National Park", "DATE_EDIT": "2017-04-27T00:00:00Z", "STATE": "ND", "REGION": "MW", "GNIS_ID": "1033824", "UNIT_TYPE": "National Park", "CREATED_BY": "Lands", "METADATA": "https://irma.nps.gov/DataStore/Reference/Profile/2196728", "PARKNAME": "Theodore Roosevelt", "SHAPE_Length": 187232.14403244155, "SHAPE_Area": 616847538.8250717}, "geometry": {"type": "MultiPolygon", "coordinates": [[[[-11535119.3945, 5981931.7080999985], [-11535138.8121, 5981841.6576000005], [-11535109.2435, 5981339.191600002], [-11535051.3359, 5980958.206799999], [-11535006.7223, 5980742.814499997], [-11534943.1362, 5980435.814499997], [-11534849.7893, 5980150.366499998], [-11534939.8379, 5980150.155199997], [-11535531.0937, 5980148.745399997], [-11535826.5909, 5980741.504600003], [-11536124.1626, 5981338.374499999], [-11536124.4205, 5981930.540299997], [-11535533.6597, 5981930.1162], [-11535534.1375, 5982522.526000001], [-11534991.4804, 5982524.892099999], [-11535119.3945, 5981931.7080999985]]], [[[-11510180.1215, 6045789.348399997], [-11508986.1028, 6045785.232299998], [-11507796.5239, 6045786.1642], [-11506603.7936, 6045785.398699999], [-11505408.8303, 6045780.616800003], [-11504874.3904, 6045777.5546], [-11504283.2969, 6045774.138099998], [-11503100.3551, 6045766.679399997], [-11501908.6877, 6045764.431199998], [-11501902.804, 6044562.7051], [-11500718.0967, 6044555.079099998], [-11500717.4288, 6043361.182800002], [-11499514.2277, 6043360.242799997], [-11498319.5365, 6043352.339400001], [-11497128.1048, 6043344.898599997], [-11495969.2571, 6043336.309299998], [-11495934.9863, 6043336.0528], [-11495340.8973, 6043332.309799999], [-11495339.4106, 6042734.028399996], [-11494745.2397, 6042730.2597], [-11494744.4556, 6042431.1215], [-11493555.5156, 6042423.494099997], [-11493554.4767, 6042124.318999998], [-11492958.905, 6042122.3794], [-11492957.3706, 6041525.538999997], [-11492955.8358, 6040928.779200003], [-11493551.7186, 6040931.3015], [-11493550.5734, 6040334.660599999], [-11493549.4284, 6039738.060800001], [-11493550.5333, 6039009.801700003], [-11494103.1087, 6039107.288099997], [-11494173.6153, 6039119.724399999], [-11494461.0867, 6039170.424099997], [-11494675.8545, 6039302.515799999], [-11494936.4589, 6039625.937299997], [-11495023.4932, 6039744.356700003], [-11495379.1671, 6040228.262199998], [-11495756.2679, 6040474.171599999], [-11495924.1757, 6040539.679700002], [-11496326.508, 6040667.957500003], [-11496524.6314, 6040553.3955999985], [-11496848.3882, 6040209.802599996], [-11497007.0565, 6040000.532799996], [-11497086.0653, 6039804.229500003], [-11497161.9026, 6039391.526299998], [-11497217.7512, 6038826.216300003], [-11497230.4339, 6038528.593099996], [-11497314.1296, 6038152.583899997], [-11497453.7214, 6037891.959600002], [-11497725.7883, 6037540.891599998], [-11497939.7946, 6037394.362800002], [-11498209.2169, 6037267.023599997], [-11498592.6798, 6037103.880000003], [-11498970.6619, 6036933.198299997], [-11499739.8517, 6036907.485299997], [-11499926.1214, 6036962.073200002], [-11499994.4448, 6037243.548699997], [-11499885.0198, 6037891.606799997], [-11499981.3707, 6038209.188000001], [-11500140.3634, 6038544.858900003], [-11500152.8795, 6038544.923900001], [-11500361.4251, 6038546.089400001], [-11500662.5127, 6038547.681500003], [-11500664.9859, 6038075.437700003], [-11500662.5189, 6037477.0383], [-11500661.1473, 6036322.4538], [-11501776.8484, 6036282.032799996], [-11502963.0506, 6036279.505400002], [-11504148.359, 6036278.608999997], [-11504741.3589, 6036278.475699998], [-11505310.6223, 6036278.359700002], [-11506502.917, 6036271.995999999], [-11507692.8416, 6036266.357299998], [-11507682.8202, 6035069.976999998], [-11507673.3869, 6033866.084700003], [-11507653.4246, 6031499.715999998], [-11508837.6542, 6031496.754000001], [-11510184.8282, 6031486.6565999985], [-11511360.3258, 6031494.936999999], [-11512521.4623, 6031481.186700001], [-11513696.6217, 6031492.078199998], [-11514884.2631, 6032686.016999997], [-11514900.6857, 6033884.688000001], [-11517279.0983, 6035178.106700003], [-11517289.1043, 6036275.799000002], [-11517299.1426, 6037455.8191], [-11517300.9301, 6038047.453100003], [-11517302.6614, 6038624.292599998], [-11517303.525, 6041018.742200002], [-11516135.3114, 6041017.829700001], [-11516137.4914, 6042209.887800001], [-11516138.1035, 6042809.365800001], [-11514943.2101, 6042807.698299997], [-11514948.7192, 6043408.850699998], [-11514949.0971, 6044603.715400003], [-11512566.7258, 6044595.999700002], [-11512567.9251, 6045790.064000003], [-11510180.1215, 6045789.348399997]]], [[[-11527229.0667, 5945849.228299998], [-11526052.1797, 5945845.238499999], [-11525591.8268, 5945845.630599998], [-11525490.503, 5945845.716700003], [-11525361.7862, 5945845.825800002], [-11524904.8879, 5945846.156999998], [-11523721.5159, 5944968.123599999], [-11523719.2785, 5944673.784500003], [-11522546.6947, 5944676.265600003], [-11522545.3536, 5943500.008199997], [-11521367.5106, 5943497.394299999], [-11520189.7472, 5943500.172899999], [-11519014.7806, 5943501.572099999], [-11519013.723, 5942322.1489999965], [-11519012.6805, 5941141.703100003], [-11517835.5449, 5941144.0374], [-11516658.88, 5941146.370300002], [-11515480.0733, 5941153.042199999], [-11514300.4322, 5941157.654700004], [-11513125.5772, 5941160.857299998], [-11511949.8687, 5941164.063000001], [-11511943.7276, 5938807.017099999], [-11511657.7261, 5938807.894000001], [-11510769.9091, 5938810.9011999965], [-11510473.9023, 5938811.033200003], [-11509586.1183, 5938810.827299997], [-11509292.7189, 5938300.051299997], [-11508116.295, 5937118.820100002], [-11506938.0724, 5935947.405500002], [-11505761.9465, 5934777.0151999965], [-11505144.6909, 5934775.6395], [-11504559.2424, 5934774.331600003], [-11503385.451, 5933598.8125], [-11501030.6897, 5931258.114699997], [-11501030.4262, 5928898.499399997], [-11501031.3204, 5926540.302000001], [-11501030.8153, 5925208.440200001], [-11501491.9265, 5925130.664300002], [-11501803.5266, 5925050.741700001], [-11502190.1729, 5924927.692199998], [-11502377.0905, 5924856.291299999], [-11502611.45, 5924758.928300001], [-11502863.1994, 5924646.6215], [-11503256.7167, 5924503.511699997], [-11503389.3255, 5924439.742700003], [-11503423.0628, 5924423.518600002], [-11503556.0838, 5924362.375399999], [-11503664.0578, 5924317.8803], [-11503747.0389, 5924281.429799996], [-11503835.4068, 5924248.303300001], [-11503885.7611, 5924232.395400003], [-11503936.1149, 5924216.487800002], [-11504038.8927, 5924193.3961], [-11504073.7793, 5924186.849200003], [-11504181.9445, 5924167.079700001], [-11504279.9046, 5924156.4802], [-11504392.0851, 5924150.642499998], [-11504546.6104, 5924150.303400002], [-11504862.8047, 5924152.876000002], [-11505007.7067, 5924149.189300001], [-11505104.2296, 5924147.432800002], [-11505204.0688, 5924140.274099998], [-11505310.7963, 5924129.343500003], [-11505389.335, 5924115.9196000025], [-11505481.904, 5924101.983000003], [-11505553.1717, 5924081.7831000015], [-11505648.8012, 5924055.413599998], [-11505742.0712, 5924032.754799999], [-11505812.1395, 5924000.844999999], [-11505970.0248, 5923949.876699999], [-11506126.3047, 5923906.497599997], [-11506234.3351, 5923879.947300002], [-11506366.967, 5923858.1461], [-11506514.5398, 5923854.921700001], [-11506593.7043, 5923861.440700002], [-11506679.6176, 5923870.547799997], [-11506699.3482, 5923872.639600001], [-11506798.033, 5923899.159000002], [-11506891.3625, 5923933.4070999995], [-11506913.3944, 5923946.733999997], [-11506917.2232, 5923949.049800001], [-11506997.0491, 5923997.3354], [-11507056.8044, 5924038.463399999], [-11507122.0204, 5924082.814800002], [-11507172.4261, 5924117.0934000015], [-11507249.755, 5924164.762699999], [-11507270.4726, 5924177.533699997], [-11507442.8268, 5924294.669299997], [-11507501.2903, 5924473.784900002], [-11507544.6496, 5924613.008699998], [-11507598.9408, 5924684.473099999], [-11507653.2329, 5924755.937399998], [-11507673.4385, 5924739.558399998], [-11507697.0429, 5924720.424199998], [-11507663.5432, 5924608.4067], [-11507656.3698, 5924584.4201000035], [-11507675.7563, 5924446.2117], [-11507755.6826, 5924473.4113000035], [-11507863.968, 5924505.2183], [-11507981.4319, 5924531.036700003], [-11508094.5577, 5924551.361299999], [-11508111.9661, 5924554.488799997], [-11508116.1237, 5924554.901900001], [-11508194.9609, 5924562.7368], [-11508328.355, 5924561.594700001], [-11508446.9408, 5924566.646499999], [-11508569.6834, 5924566.417300001], [-11508429.1519, 5924886.147200003], [-11508466.2978, 5924904.9388], [-11508469.4695, 5924906.543200001], [-11508484.6841, 5924914.240099996], [-11508531.9007, 5924869.178499997], [-11508583.7836, 5924797.574600004], [-11508592.0318, 5924783.416100003], [-11508596.0609, 5924776.499600001], [-11508629.7593, 5924718.6545], [-11508677.5829, 5924660.311399996], [-11508720.1127, 5924630.687600002], [-11508817.6093, 5924576.410099998], [-11509036.673, 5924503.681999996], [-11509029.6885, 5924423.128200002], [-11509229.8018, 5924383.419500001], [-11509430.505, 5924359.8467999995], [-11509667.2923, 5924330.8950999975], [-11509767.3467, 5924311.034400001], [-11509940.904, 5924316.737099998], [-11510057.9513, 5924320.487300001], [-11510184.2381, 5924356.2184000015], [-11510342.7328, 5924390.754699998], [-11510457.39, 5924439.034500003], [-11510508.8693, 5924463.955799997], [-11510596.9469, 5924506.593199998], [-11510728.7511, 5924582.519299999], [-11510825.2161, 5924683.999300003], [-11510938.3833, 5924801.022600003], [-11511018.4507, 5924895.029799998], [-11511124.7616, 5925044.6351], [-11511211.392, 5925207.095700003], [-11511293.2536, 5925349.5304000005], [-11511360.9533, 5925435.918200001], [-11511449.8294, 5925549.806699999], [-11511595.5383, 5925683.7348000035], [-11511682.9282, 5925757.267800003], [-11511814.9105, 5925837.223999999], [-11511936.4992, 5925904.325400002], [-11511958.9744, 5925916.728699997], [-11512077.1743, 5925963.216799997], [-11512118.55, 5925979.489200003], [-11512285.5833, 5926025.804099999], [-11512480.8053, 5926071.064800002], [-11512642.918, 5926093.308499999], [-11512800.1615, 5926105.9278], [-11512849.1749, 5926109.860200003], [-11513067.6628, 5926129.991800003], [-11513301.6585, 5926133.372400001], [-11513467.951, 5926159.486400001], [-11513666.0075, 5926172.284100004], [-11513880.6223, 5926196.581900001], [-11513989.6278, 5926223.428400002], [-11514051.5455, 5926238.677599996], [-11514218.4439, 5926280.920599997], [-11514402.6538, 5926354.843699999], [-11514566.7331, 5926429.519400001], [-11514723.5148, 5926524.6743], [-11514922.0749, 5926658.675399996], [-11515132.4584, 5926803.061499998], [-11515285.8286, 5926914.506499998], [-11515409.9579, 5926998.757600002], [-11515570.4841, 5927085.6796], [-11515706.2463, 5927157.365099996], [-11515837.3789, 5927213.055100001], [-11515964.3357, 5927264.859099999], [-11516130.9601, 5927298.9978], [-11516276.9964, 5927321.784400001], [-11516406.9243, 5927345.1765], [-11516540.4266, 5927356.305799998], [-11516689.8855, 5927362.7883], [-11516794.8951, 5927366.9054000005], [-11516920.4951, 5927382.369599998], [-11517070.8649, 5927413.063500002], [-11517196.9212, 5927440.6325], [-11517342.6589, 5927455.329000004], [-11517484.5219, 5927474.211900003], [-11517674.8637, 5927495.298100002], [-11517913.9887, 5927526.657499999], [-11518102.0342, 5927540.3684], [-11518295.7974, 5927545.1426], [-11518413.7242, 5927560.2700999975], [-11518490.3218, 5927570.094899997], [-11518619.0408, 5927561.163699999], [-11518800.8752, 5927570.422600001], [-11518947.0754, 5927597.201399997], [-11519126.7149, 5927655.043399997], [-11519304.0098, 5927757.436099999], [-11519436.5499, 5927849.404100001], [-11519556.5518, 5927929.722099997], [-11519676.0974, 5927997.929099999], [-11519702.5038, 5928101.1888], [-11519797.9387, 5928126.684199996], [-11519913.0021, 5928182.933300003], [-11520093.5785, 5928264.979099996], [-11520236.4669, 5928338.513700001], [-11520425.5646, 5928432.357000001], [-11520483.024, 5928458.4597999975], [-11520504.5412, 5928494.021700002], [-11520873.163, 5928641.635899998], [-11520898.1155, 5928608.340000004], [-11520923.0676, 5928575.044200003], [-11521271.9267, 5928741.5178999975], [-11522045.4063, 5928744.615699999], [-11522242.3546, 5928745.241800003], [-11522628.3689, 5928746.455799997], [-11523211.5449, 5929334.871600002], [-11524076.4961, 5929339.545999996], [-11524081.1484, 5928754.170699999], [-11523791.1901, 5928752.282200001], [-11523792.2141, 5928191.942299999], [-11524052.0227, 5928191.0886999965], [-11524056.477, 5928191.074000001], [-11524056.5137, 5928202.244999997], [-11524056.5504, 5928213.416199997], [-11524056.5869, 5928224.587099999], [-11524056.6237, 5928235.758299999], [-11524056.6603, 5928246.929300003], [-11524056.697, 5928258.100400001], [-11524056.7335, 5928269.271600001], [-11524056.77, 5928280.4428], [-11524061.2247, 5928280.427900001], [-11524065.6792, 5928280.413400002], [-11524128.0417, 5928280.2070999965], [-11524221.585, 5928279.897], [-11524230.4939, 5928279.867600001], [-11524292.8564, 5928279.660099998], [-11524324.0374, 5928279.556500003], [-11524386.3998, 5928279.348499998], [-11524395.3087, 5928279.318700001], [-11524457.671, 5928279.110299997], [-11524488.8524, 5928279.005800001], [-11524488.815, 5928267.834700003], [-11524551.1772, 5928267.625600003], [-11524551.1399, 5928256.454400003], [-11524562.2761, 5928256.417000003], [-11524562.0522, 5928189.390500002], [-11524550.9163, 5928189.4278], [-11524550.8268, 5928162.617399998], [-11524550.7896, 5928151.446400002], [-11524550.7524, 5928140.2754999995], [-11524550.7151, 5928129.104500003], [-11524550.6778, 5928117.933499999], [-11524550.644, 5928107.827399999], [-11524550.613, 5928098.488600001], [-11524550.6032, 5928095.591700003], [-11524550.5798, 5928088.5929000005], [-11524561.7382, 5928095.284999996], [-11524572.8965, 5928101.9771], [-11524584.055, 5928108.669100001], [-11524595.2134, 5928115.361199997], [-11524606.3717, 5928122.053199999], [-11524617.5302, 5928128.745200001], [-11524628.6886, 5928135.437399998], [-11524639.8472, 5928142.129199997], [-11524673.3228, 5928162.205200002], [-11524655.0993, 5928162.266599998], [-11524639.9147, 5928162.3178], [-11524683.5977, 5928188.981399998], [-11524904.2704, 5928323.672499999], [-11524655.3078, 5928324.533699997], [-11524647.8713, 5928324.513499998], [-11524622.8827, 5928350.207000002], [-11524556.1365, 5928418.835100003], [-11524556.6682, 5928578.1734], [-11524371.8815, 5928578.792300001], [-11524371.106, 5928756.0309000015], [-11524917.8567, 5928759.081699997], [-11524797.3906, 5929061.6554000005], [-11524752.6355, 5929261.494499996], [-11524753.2223, 5929342.273599997], [-11524753.575, 5929390.836900003], [-11524782.7108, 5929519.089500003], [-11524830.9008, 5929618.303999998], [-11524915.6555, 5929724.190700002], [-11524987.8617, 5929818.433700003], [-11525060.5585, 5929890.345700003], [-11525156.4712, 5929971.540799998], [-11525293.6003, 5930075.399099998], [-11525401.4455, 5930152.0876], [-11525483.8785, 5930197.413199998], [-11525553.2935, 5930218.981700003], [-11525609.69, 5930216.794200003], [-11525664.6851, 5930178.269299999], [-11525759.8071, 5930134.143299997], [-11525867.1684, 5930093.585000001], [-11525986.6137, 5930052.555600002], [-11526115.0497, 5930035.4366], [-11526196.7051, 5930060.567699999], [-11526291.3819, 5930109.453000002], [-11526362.8259, 5930183.501400001], [-11526425.903, 5930249.788699999], [-11526473.1793, 5930324.7771999985], [-11526552.6836, 5930398.512900002], [-11526715.5451, 5930566.317199998], [-11526716.297, 5930853.022100002], [-11526716.7849, 5931039.1083], [-11526950.5035, 5930966.509300001], [-11527182.6002, 5930917.027800001], [-11527215.6113, 5930935.960600004], [-11527242.1673, 5931100.725100003], [-11527246.0088, 5931117.613300003], [-11527256.7564, 5931164.859499998], [-11527433.9112, 5931117.955200002], [-11527847.8342, 5931008.3478000015], [-11528017.8359, 5930710.5515], [-11528175.5869, 5930656.251000002], [-11528403.3261, 5930598.821199998], [-11528574.8218, 5930547.630800001], [-11528746.6299, 5930504.512500003], [-11528886.6806, 5930474.765600003], [-11529077.0703, 5930459.1598000005], [-11529068.7926, 5931120.759999998], [-11529042.8752, 5933484.790399998], [-11529062.2068, 5935823.817400001], [-11529080.7996, 5936985.794399999], [-11530261.5218, 5938784.682400003], [-11530771.7565, 5938784.956], [-11531416.7706, 5938785.439199999], [-11531949.769, 5938785.565399997], [-11531955.0152, 5939959.914800003], [-11533128.0459, 5941144.930600002], [-11533125.2845, 5942319.027400002], [-11531946.0466, 5943499.3418999985], [-11530765.8512, 5944680.2717999965], [-11529584.341, 5945856.413699999], [-11528404.7805, 5945851.843500003], [-11527229.0667, 5945849.228299998]]]]}}]}