{"type": "FeatureCollection", "name": "Oklahoma_park", "crs": {"type": "name", "properties": {"name": "urn:ogc:def:crs:EPSG::3857"}}, "features": [{"type": "Feature", "properties": {"OBJECTID": 303, "CreationDate": "2025-01-14T11:11:12Z", "Creator": "NPS_WASO_LANDS", "EditDate": "2025-01-14T11:11:12Z", "Editor": "NPS_WASO_LANDS", "GlobalID": "{F6C49EC0-F137-47DD-BE38-E55C92F109C2}", "AreaID": 315, "UNIT_CODE": "CHIC", "GIS_Notes": "Lands - http://landsnet.nps.gov/tractsnet/documents/CHIC/Metadata/chic_metadata.xml", "UNIT_NAME": "Chickasaw National Recreation Area", "DATE_EDIT": "2018-03-29T00:00:00Z", "STATE": "OK", "REGION": "IM", "GNIS_ID": "1101907", "UNIT_TYPE": "National Recreation Area", "CREATED_BY": "Lands", "METADATA": "https://irma.nps.gov/DataStore/Reference/Profile/1047933", "PARKNAME": "Chickasaw", "SHAPE_Length": 84403.89282553518, "SHAPE_Area": 58919202.53260327}, "geometry": {"type": "MultiPolygon", "coordinates": [[[[-10792406.5038, 4097232.382600002], [-10792406.8103, 4096988.509800002], [-10792241.3166, 4096987.7760000005], [-10792241.5696, 4096846.635499999], [-10791995.5797, 4096846.093999997], [-10791505.3411, 4096845.0222999975], [-10791022.1399, 4096843.9733999968], [-10791027.0586, 4096478.794399999], [-10791023.2713, 4095990.6198000014], [-10791267.2496, 4095992.1796000004], [-10791266.0655, 4096233.177000001], [-10791387.4513, 4096234.0703999996], [-10791388.3273, 4096356.9623000026], [-10791507.1758, 4096356.8839000016], [-10791996.9546, 4096356.498800002], [-10792241.7796, 4096356.3123999983], [-10792242.9584, 4096479.7897000015], [-10792486.5037, 4096479.389200002], [-10792608.3802, 4096480.2343999967], [-10792608.3886, 4096482.964900002], [-10792608.8299, 4096600.454599999], [-10792852.3035, 4096597.472400002], [-10792853.1935, 4096480.5671000034], [-10792854.1727, 4096355.560800001], [-10792974.601, 4096355.250699997], [-10792974.9903, 4096236.1437000036], [-10793039.2293, 4096236.211099997], [-10793040.8158, 4096049.9897999987], [-10793393.5866, 4096050.070299998], [-10793466.194, 4095991.692400001], [-10793951.005, 4095991.9253999963], [-10793951.8863, 4095870.4228999987], [-10793955.8703, 4095502.5176], [-10793958.5821, 4095256.763899997], [-10794129.9367, 4095256.4507], [-10794165.1401, 4095012.137599997], [-10794213.2971, 4095012.284699999], [-10794409.9486, 4095040.468199998], [-10794379.5036, 4095256.347199999], [-10794443.8723, 4095256.5341000035], [-10794448.7021, 4095256.5463000014], [-10794486.2346, 4095256.664300002], [-10794748.1911, 4095257.4827999994], [-10794930.2125, 4095258.0480000004], [-10795173.3911, 4095258.784699999], [-10795173.6899, 4095220.0737999976], [-10795174.2676, 4095145.2404000014], [-10795174.3304, 4095137.1119000018], [-10795175.1576, 4095029.967799999], [-10795175.275, 4095014.7885999978], [-10794932.1442, 4095014.1987999976], [-10794530.8961, 4095013.145800002], [-10794531.2157, 4094891.0459999964], [-10794446.2264, 4094890.8233999982], [-10794446.7617, 4094672.9831999987], [-10794932.9652, 4094676.545599997], [-10795176.0828, 4094676.8389], [-10795176.4433, 4094525.9482999966], [-10795177.4964, 4094037.3298000023], [-10795178.0222, 4093793.340300001], [-10795178.0487, 4093781.0244000033], [-10795178.548, 4093549.3559999987], [-10795421.6303, 4093549.6882999986], [-10795444.5017, 4093549.709899999], [-10795908.7959, 4093550.136500001], [-10796396.0574, 4093550.2590999976], [-10796396.0315, 4093537.272], [-10796395.0854, 4093062.6542000026], [-10796397.2466, 4092574.338399999], [-10796399.3304, 4092086.2414000034], [-10796400.3821, 4091842.237300001], [-10796401.4338, 4091598.2382000014], [-10796402.269, 4091598.2355000004], [-10796859.6953, 4091596.7070000023], [-10796889.473, 4091596.6067999974], [-10796891.9697, 4091110.0254999995], [-10796891.8062, 4090621.6190000027], [-10796891.6971, 4090133.0165000036], [-10796891.475, 4089643.3869000003], [-10796891.3833, 4089153.4580999985], [-10797376.7695, 4089149.2314999998], [-10797377.47, 4088665.7981999964], [-10797134.0535, 4088667.3928999975], [-10797134.1205, 4088425.5132], [-10797377.81, 4088424.152400002], [-10797378.191, 4088182.5031000003], [-10797375.2638, 4087694.802199997], [-10797372.3511, 4087207.0706999972], [-10796885.5473, 4087208.492200002], [-10796398.6811, 4087209.8693000004], [-10796399.762, 4086721.4218999967], [-10796400.2942, 4086477.1318999976], [-10796158.0328, 4086477.5161999986], [-10796158.4902, 4086233.349299997], [-10795916.2644, 4086233.7624000013], [-10795915.7997, 4086477.9640000015], [-10795673.5742, 4086478.3411], [-10795674.0348, 4086234.159500003], [-10795431.8035, 4086234.5688000023], [-10794947.1251, 4086236.4054000005], [-10794826.0181, 4086236.869900003], [-10794826.5509, 4085993.169399999], [-10794947.9023, 4085992.6797999963], [-10794948.5754, 4085748.7227], [-10795191.0349, 4085747.6944999993], [-10795191.8364, 4085503.7377000004], [-10794949.1551, 4085504.8847000003], [-10794949.8191, 4085260.9368999973], [-10794706.9069, 4085262.083800003], [-10794707.9088, 4084781.1752000004], [-10794708.8982, 4084290.605700001], [-10794709.3851, 4084045.8386999965], [-10794952.7681, 4084044.1428999975], [-10794952.2942, 4084288.640900001], [-10795195.4575, 4084286.6912999973], [-10795437.5982, 4084531.166199997], [-10795504.034, 4084565.033399999], [-10795921.5918, 4084777.8818000033], [-10796164.03, 4084778.3276999965], [-10796404.4723, 4085021.8029000014], [-10796891.1924, 4085020.3249000013], [-10797377.8994, 4085018.8247999996], [-10797376.6553, 4085256.6005999967], [-10797856.8361, 4085250.3989999965], [-10798337.0759, 4085244.3197000027], [-10798825.7513, 4085485.538900003], [-10799312.7828, 4085482.7005999982], [-10799557.3706, 4085481.163900003], [-10799556.4524, 4085724.531000003], [-10799556.8035, 4086090.7048999965], [-10799679.2566, 4086089.411399998], [-10799679.5465, 4086211.5710999966], [-10799557.0965, 4086212.924900003], [-10799557.0857, 4086457.309600003], [-10799801.4377, 4086454.6987999976], [-10800045.7283, 4086452.115500003], [-10800046.9895, 4086207.528999999], [-10800292.0748, 4086204.8935000002], [-10800777.7741, 4086200.3999999985], [-10800775.7567, 4086446.048799999], [-10801264.4238, 4086443.6164000034], [-10801510.0849, 4086445.695600003], [-10801509.2679, 4086692.524599999], [-10801752.2227, 4086693.889399998], [-10801751.6398, 4087186.2163999975], [-10801751.3717, 4087639.872100003], [-10802120.6647, 4087644.077299997], [-10802120.587, 4087521.0023000017], [-10802239.0401, 4087522.5547999963], [-10802360.9209, 4087524.1384000033], [-10802360.994, 4087679.711099997], [-10802672.1758, 4087683.952299997], [-10802671.4876, 4088171.050300002], [-10802671.1838, 4088327.2124999985], [-10802242.0093, 4088318.5900000036], [-10802241.9604, 4088653.861299999], [-10802487.4926, 4088654.8280000016], [-10802487.3459, 4088899.5348000005], [-10802733.9183, 4088902.2820999995], [-10802981.1469, 4088907.2123000026], [-10802981.123, 4089149.6886000037], [-10802980.2214, 4089393.582199998], [-10803227.3144, 4089398.607900001], [-10803226.2881, 4089641.8268000036], [-10803472.1689, 4089647.3194999993], [-10803473.2146, 4089402.101400003], [-10803719.0075, 4089405.4042000026], [-10803717.6902, 4089650.0135999992], [-10804205.3666, 4089658.6692999974], [-10804200.8382, 4090140.170900002], [-10804444.4105, 4090142.5757], [-10804441.8856, 4090385.4508000016], [-10804199.2805, 4090384.3817000017], [-10804197.7276, 4090628.871299997], [-10803708.4525, 4090621.353500001], [-10803462.9471, 4090617.1849000007], [-10803457.6934, 4091104.7656000033], [-10803213.5807, 4091104.4478999972], [-10803210.2455, 4091593.8346000016], [-10803207.6361, 4091835.046599999], [-10802963.7401, 4091834.2158999965], [-10802965.126, 4091590.6545], [-10802721.2357, 4091590.2717000023], [-10802599.0885, 4091590.157499999], [-10802598.5836, 4091638.956299998], [-10802596.542, 4091833.384499997], [-10802593.548, 4092075.791000001], [-10802349.3563, 4092076.5468000025], [-10802347.3493, 4092319.487400003], [-10802224.6606, 4092319.1406999975], [-10802222.655, 4092563.3593000025], [-10801998.7144, 4092563.0244000033], [-10801997.9776, 4092807.2431999967], [-10802219.2873, 4092807.1449000016], [-10802218.6394, 4093051.9048999995], [-10802213.0709, 4093542.905299999], [-10802207.5697, 4094034.016099997], [-10802202.1017, 4094525.2293], [-10802196.6914, 4095016.5172000006], [-10802190.737, 4095505.6542000026], [-10802180.3795, 4095995.5900000036], [-10801733.5272, 4095994.1362999976], [-10801489.1833, 4095993.6335000023], [-10801487.2147, 4096483.528999999], [-10801485.1983, 4097011.0842999965], [-10801242.0124, 4097010.724200003], [-10801166.9715, 4097010.599799998], [-10800829.4891, 4097010.1274000034], [-10800830.8134, 4096482.775399998], [-10800831.8608, 4096108.546599999], [-10800757.9037, 4096108.5319000036], [-10800271.2772, 4096108.520999998], [-10800271.5654, 4095992.2458999977], [-10800271.7171, 4095502.422799997], [-10800272.4791, 4095012.275600001], [-10800273.4647, 4094521.110100001], [-10800274.856, 4094029.2311000004], [-10800520.2571, 4094030.403300002], [-10800527.7868, 4093538.8728], [-10800535.9976, 4093047.785599999], [-10800778.735, 4093048.753200002], [-10801022.1587, 4093050.1230000034], [-10801025.1095, 4092561.044500001], [-10801026.9883, 4092316.7294000015], [-10801270.4941, 4092073.7519000024], [-10801270.7795, 4091829.7246999964], [-10801756.7825, 4091831.4892999977], [-10801757.4012, 4091587.3074999973], [-10801757.1153, 4091100.168899998], [-10802001.5568, 4091101.3827000037], [-10802001.5966, 4090613.8900000006], [-10802000.7299, 4090369.335199997], [-10801753.9209, 4090368.2624000013], [-10801754.0738, 4090123.800999999], [-10801265.0969, 4090122.7368], [-10801021.8328, 4090122.7903999984], [-10801021.4402, 4090611.1158000007], [-10801021.0137, 4091100.972900003], [-10800777.8345, 4091100.035700001], [-10800271.8188, 4091098.7314999998], [-10799807.509, 4091100.6300000027], [-10799806.6581, 4091587.104800001], [-10799806.3264, 4091830.6064999998], [-10799592.8413, 4091936.2533000037], [-10799592.5754, 4091936.384800002], [-10799582.7654, 4091941.2393999994], [-10799552.286, 4091956.3220999986], [-10799495.0911, 4091984.625], [-10799440.8648, 4092011.458499998], [-10799361.938, 4092050.5139999986], [-10799342.5949, 4092060.085699998], [-10799317.2767, 4092072.6136000007], [-10799017.5444, 4092371.360799998], [-10799006.83, 4092382.0393999964], [-10798831.3214, 4092556.963799998], [-10798831.0284, 4092557.2608999982], [-10798732.5231, 4092655.4378999993], [-10798707.2693, 4092680.6071999967], [-10798677.5433, 4092710.2334999964], [-10798663.0505, 4092724.678000003], [-10798589.0008, 4092798.478500001], [-10798344.8229, 4092797.980899997], [-10798344.8228, 4092797.9952000007], [-10798343.1099, 4093042.650899999], [-10798336.0482, 4093538.4794000015], [-10798331.5827, 4094018.408], [-10798329.5053, 4094170.905500002], [-10798329.2943, 4094186.396899998], [-10798324.8185, 4094514.9790999964], [-10798317.6933, 4095020.3198999986], [-10798317.6933, 4095020.3246000037], [-10797837.2481, 4095011.838799998], [-10797836.8864, 4095011.8324000016], [-10797355.3824, 4095011.8345], [-10797354.741, 4095011.8345], [-10797231.4767, 4095012.4447000027], [-10797162.615, 4095083.6105000004], [-10797118.215, 4095191.737400003], [-10797037.0989, 4095245.014899999], [-10796871.1045, 4095291.712200001], [-10796870.1919, 4095506.929700002], [-10796869.2161, 4095998.9354000017], [-10796747.8633, 4095998.9980999976], [-10796684.2152, 4095999.030500002], [-10796684.215, 4095999.067900002], [-10796683.9065, 4096076.496299997], [-10796683.5598, 4096121.5002000034], [-10796683.2295, 4096182.978], [-10796661.0193, 4096182.9351999983], [-10796657.0037, 4096244.3532999977], [-10796433.6795, 4096244.5086999983], [-10796434.9792, 4096072.6851999983], [-10796383.1933, 4096073.447300002], [-10796383.8045, 4095999.1783000007], [-10796384.6136, 4095874.7312999964], [-10795898.4561, 4095871.153499998], [-10795878.9541, 4095871.0084000006], [-10795826.446, 4095996.940700002], [-10795790.6091, 4096082.905299999], [-10795789.3805, 4096344.208499998], [-10795741.7855, 4096429.7809000015], [-10795710.1263, 4096486.701700002], [-10795674.2698, 4096551.1784000024], [-10795522.0986, 4096674.133100003], [-10795406.9099, 4096670.632299997], [-10795323.0042, 4096668.0628999993], [-10795324.0643, 4096631.094999999], [-10795042.6876, 4096623.1818000004], [-10795041.8161, 4096808.9868], [-10795276.5397, 4096800.278999999], [-10795386.5352, 4096815.525200002], [-10795386.8983, 4096995.4223999977], [-10795329.131, 4096995.1833000034], [-10795296.9366, 4096995.0496999994], [-10795258.3542, 4096994.8880999982], [-10795258.2215, 4096994.887599997], [-10795256.6094, 4096994.881099999], [-10795177.7457, 4096994.5507000014], [-10795064.0148, 4096994.0732999966], [-10794977.9237, 4096993.7114000022], [-10794919.335, 4096993.473099999], [-10794606.3009, 4096992.291000001], [-10794525.6347, 4096991.9848999977], [-10794433.7277, 4096991.6604999974], [-10794354.506, 4096991.3866000026], [-10794261.563, 4096991.4135000035], [-10794045.5704, 4096481.435800001], [-10794042.046, 4096473.1202000007], [-10793948.5416, 4096461.5474999994], [-10793462.4164, 4096401.2342000008], [-10793462.1803, 4096480.7267000005], [-10793460.7013, 4096480.7267000005], [-10793459.0168, 4096480.7267000005], [-10793459.2359, 4096542.1986000016], [-10793342.4549, 4096541.0637999997], [-10793341.1671, 4096734.4773999974], [-10793215.6964, 4096738.149700001], [-10793216.7636, 4096989.775600001], [-10793217.5314, 4096989.7766000032], [-10793217.1467, 4097234.078900002], [-10792893.6522, 4097233.414800003], [-10792406.5038, 4097232.382600002]]]]}}, {"type": "Feature", "properties": {"OBJECTID": 310, "CreationDate": "2025-01-14T11:11:12Z", "Creator": "NPS_WASO_LANDS", "EditDate": "2025-01-14T11:11:12Z", "Editor": "NPS_WASO_LANDS", "GlobalID": "{81E86C43-1CA8-4799-BAF4-5AED9FBC9AA5}", "AreaID": 323, "UNIT_CODE": "WABA", "GIS_Notes": "Lands - http://landsnet.nps.gov/tractsnet/documents/WABA/Metadata/waba_metadata.xml", "UNIT_NAME": "Washita Battlefield National Historic Site", "DATE_EDIT": "2022-03-25T00:00:00Z", "STATE": "OK", "REGION": "IM", "GNIS_ID": "1946144", "UNIT_TYPE": "National Historic Site", "CREATED_BY": "Lands", "METADATA": "https://irma.nps.gov/DataStore/Reference/Profile/1048061", "PARKNAME": "Washita Battlefield", "SHAPE_Length": 5947.329651895435, "SHAPE_Area": 1962554.2110432908}, "geometry": {"type": "MultiPolygon", "coordinates": [[[[-11098060.4026, 4248091.909100004], [-11098060.4557, 4248074.980499998], [-11098308.3055, 4248076.5493], [-11098459.8504, 4248077.505800001], [-11098556.1553, 4248078.112400003], [-11098694.3406, 4248078.981399998], [-11098804.005, 4248079.669799998], [-11099050.7429, 4248081.214400001], [-11099051.855, 4248081.2236], [-11099299.7014, 4248083.276600003], [-11099547.5479, 4248085.323799998], [-11099795.3944, 4248087.365199998], [-11100043.2411, 4248089.400899999], [-11100043.2939, 4248106.3303999975], [-11100044.0093, 4248335.5918999985], [-11100044.1972, 4248395.789899997], [-11100044.3152, 4248433.6044000015], [-11100044.7777, 4248581.7885000035], [-11100045.546, 4248827.990599997], [-11100046.3144, 4249074.198299997], [-11099797.6942, 4249073.1543999985], [-11099549.0741, 4249072.104699999], [-11099300.4541, 4249071.049199998], [-11099051.834, 4249069.987999998], [-11098803.214, 4249068.921099998], [-11098554.594, 4249067.848499998], [-11098305.9741, 4249066.7700999975], [-11098057.3543, 4249065.685999997], [-11098058.1297, 4248818.001199998], [-11098058.4352, 4248720.403700002], [-11098058.5563, 4248681.708899997], [-11098058.905, 4248570.322099999], [-11098059.6804, 4248322.648599997], [-11098060.4026, 4248091.909100004]]]]}}]}