{"type": "FeatureCollection", "name": "Puerto_Rico_park", "crs": {"type": "name", "properties": {"name": "urn:ogc:def:crs:EPSG::3857"}}, "features": [{"type": "Feature", "properties": {"OBJECTID": 196, "CreationDate": "2025-01-14T11:11:12Z", "Creator": "NPS_WASO_LANDS", "EditDate": "2025-01-14T11:11:12Z", "Editor": "NPS_WASO_LANDS", "GlobalID": "{9DD640B3-C49B-4C77-BB43-71ADBAAC6448}", "AreaID": 194, "UNIT_CODE": "SAJU", "GIS_Notes": "Unofficial Boundary of San Juan National Historic Site.", "UNIT_NAME": "San Juan National Historic Site", "DATE_EDIT": "2013-12-18T00:00:00Z", "STATE": "PR", "REGION": "SE", "GNIS_ID": "1879024", "UNIT_TYPE": "National Historic Site", "CREATED_BY": "Region", "METADATA": "Preliminary data. Contact the Land Resources Program for additional information.", "PARKNAME": "San Juan", "SHAPE_Length": 8679.125553821676, "SHAPE_Area": 344663.9272551716}, "geometry": {"type": "MultiPolygon", "coordinates": [[[[-7360085.4932, 2091932.8418000005], [-7360080.0145, 2091912.6171999983], [-7360054.5594999995, 2091916.3531000018], [-7360054.6865, 2091917.3401999995], [-7360048.5261, 2091918.2443999983], [-7360046.4947, 2091929.3071999997], [-7360040.8893, 2091917.6125999987], [-7360040.179099999, 2091908.0863999985], [-7360084.8072, 2091902.4098000005], [-7360133.9836, 2091912.3746999986], [-7360135.493100001, 2091928.138799999], [-7360085.4932, 2091932.8418000005]]], [[[-7360211.7358, 2091933.9422999993], [-7360211.0909, 2091929.0403999984], [-7360194.0307, 2091930.5339000002], [-7360193.512, 2091925.9065999985], [-7360196.3039, 2091925.390900001], [-7360196.15, 2091923.1380999982], [-7360195.7853999995, 2091914.7663000003], [-7360208.2433, 2091913.6942000017], [-7360233.544399999, 2091911.3134000003], [-7360234.9603, 2091911.6552999988], [-7360266.609200001, 2091908.6735000014], [-7360266.2027, 2091899.7765999995], [-7360275.1701, 2091897.6138999984], [-7360297.115599999, 2091892.1268000007], [-7360319.6174, 2091886.5601000004], [-7360323.3528, 2091886.2201000005], [-7360326.6216, 2091897.8110000007], [-7360328.966, 2091905.2212999985], [-7360330.291300001, 2091911.1031999998], [-7360326.726299999, 2091913.4996999986], [-7360319.5165, 2091891.3522000015], [-7360283.443700001, 2091900.7862000018], [-7360288.2278, 2091922.2522], [-7360284.2005, 2091923.166099999], [-7360281.490700001, 2091923.7811000012], [-7360275.9991, 2091924.9897999987], [-7360229.178400001, 2091935.2949], [-7360229.754899999, 2091938.3099000007], [-7360211.545700001, 2091941.427099999], [-7360210.471100001, 2091934.1708999984], [-7360211.7358, 2091933.9422999993]]], [[[-7362160.2039, 2092313.6143000014], [-7362155.2742, 2092190.7895000018], [-7362155.1051, 2092186.5760999992], [-7362178.1238, 2092192.3376999982], [-7362231.3244, 2092205.6535999998], [-7362239.649800001, 2092207.0885000005], [-7362246.775699999, 2092208.3165999986], [-7362265.6118, 2092190.5857000016], [-7362284.358100001, 2092210.825199999], [-7362268.6872000005, 2092225.4312000014], [-7362298.107899999, 2092261.857999999], [-7362300.087099999, 2092264.308600001], [-7362301.885600001, 2092311.1358000003], [-7362237.5635, 2092312.2611000016], [-7362160.2039, 2092313.6143000014]]], [[[-7360886.8125, 2092853.2184999995], [-7360852.9046, 2092848.8055000007], [-7360825.3390999995, 2092849.8737000003], [-7360810.7479, 2092851.3407000005], [-7360802.2542, 2092856.7512000017], [-7360795.5528, 2092859.8379999995], [-7360790.532199999, 2092858.9576999992], [-7360785.3225, 2092852.2443999983], [-7360780.6248, 2092845.8478999995], [-7360773.9011, 2092836.6933000013], [-7360769.1811999995, 2092830.2734000012], [-7360762.0678, 2092822.7619999982], [-7360756.201300001, 2092819.2410000004], [-7360749.511, 2092816.5885000005], [-7360740.6086, 2092817.2802999988], [-7360734.3301, 2092812.4213000014], [-7360725.124, 2092804.4756000005], [-7360718.8345, 2092799.616700001], [-7360711.721100001, 2092798.7364000008], [-7360706.2776, 2092798.7364000008], [-7360700.834100001, 2092796.0956999995], [-7360694.1438, 2092796.0956999995], [-7360689.112, 2092790.7908000015], [-7360683.6796, 2092785.4976000004], [-7360676.6559, 2092781.0931999981], [-7360666.3050999995, 2092779.6226000004], [-7360657.3969, 2092779.3652000017], [-7360652.339400001, 2092780.0828999989], [-7360647.764699999, 2092780.075100001], [-7360645.1631000005, 2092779.7584000006], [-7360644.0867, 2092776.3537999988], [-7360664.0744, 2092742.4855000004], [-7360639.089, 2092703.054299999], [-7360647.9932, 2092667.7432999983], [-7360565.738500001, 2092609.2280000001], [-7360542.2886, 2092625.701299999], [-7360521.619100001, 2092629.4171000011], [-7360482.5196, 2092636.927000001], [-7360468.286, 2092594.382199999], [-7360471.9848, 2092586.632199999], [-7360482.8431, 2092566.7289999984], [-7360478.1711, 2092564.0940999985], [-7360434.2435, 2092541.4332000017], [-7360408.7827, 2092528.183699999], [-7360391.2809, 2092519.1006999984], [-7360388.366, 2092517.6118], [-7360381.747199999, 2092528.5799000002], [-7360374.883199999, 2092540.0755999982], [-7360369.7237, 2092539.4298], [-7360363.224400001, 2092550.2828000002], [-7360341.978, 2092547.6121000014], [-7360311.8682, 2092543.493999999], [-7360262.7193, 2092537.8913000003], [-7360253.9815, 2092471.9450000003], [-7360254.2311, 2092465.9651999995], [-7360254.4438000005, 2092463.2292999998], [-7360204.539999999, 2092460.3425000012], [-7360179.245999999, 2092458.796500001], [-7360167.9069, 2092473.5144000016], [-7360127.920700001, 2092489.803100001], [-7360075.715399999, 2092479.7879999988], [-7360067.1293, 2092458.6094000004], [-7360066.556600001, 2092457.2274000011], [-7360033.1193, 2092455.6237000003], [-7360000.5024999995, 2092454.4343000017], [-7359949.0394, 2092451.7481999993], [-7359943.169600001, 2092464.831700001], [-7359905.1291000005, 2092489.2166999988], [-7359882.7741, 2092479.9081000015], [-7359861.2653, 2092470.9437000006], [-7359845.9684, 2092438.1048000008], [-7359845.9366, 2092438.0978999995], [-7359811.130799999, 2092430.8203999996], [-7359749.780300001, 2092417.8156999983], [-7359726.375600001, 2092412.8871], [-7359717.9311999995, 2092440.1405999996], [-7359706.2511, 2092442.2076999992], [-7359688.8947, 2092498.2230999991], [-7359676.786800001, 2092499.581700001], [-7359665.087200001, 2092500.0394000001], [-7359659.6335, 2092497.1645000018], [-7359655.9879, 2092498.7536000013], [-7359649.340500001, 2092499.543299999], [-7359642.826199999, 2092500.4677999988], [-7359641.6404, 2092494.5846000016], [-7359633.935699999, 2092491.7639999986], [-7359626.1043, 2092488.0628000014], [-7359624.1755, 2092475.703499999], [-7359608.135500001, 2092468.8553000018], [-7359593.231899999, 2092463.8279], [-7359581.5627999995, 2092461.0434000008], [-7359558.4728, 2092458.8202], [-7359541.6423, 2092456.6350999996], [-7359517.8013, 2092455.852499999], [-7359497.0911, 2092450.512699999], [-7359477.7919, 2092450.0571000017], [-7359464.1379, 2092448.3407999985], [-7359454.447000001, 2092444.6986999996], [-7359445.3671, 2092447.4274000004], [-7359432.354499999, 2092452.3685999997], [-7359419.358899999, 2092452.2932000011], [-7359409.160800001, 2092454.4182000011], [-7359402.1566, 2092455.4299999997], [-7359390.000700001, 2092452.558600001], [-7359381.633400001, 2092449.193500001], [-7359379.2655, 2092450.3341000006], [-7359378.9120000005, 2092453.2729000002], [-7359378.3521, 2092454.5797999986], [-7359376.946900001, 2092455.3170999996], [-7359373.399599999, 2092456.3673], [-7359368.164799999, 2092462.8493000008], [-7359368.112, 2092462.9195999987], [-7359368.0569, 2092462.9879], [-7359367.999600001, 2092463.054299999], [-7359367.9399, 2092463.1187000014], [-7359367.8781, 2092463.1809], [-7359367.814200001, 2092463.2410000004], [-7359367.7480999995, 2092463.298700001], [-7359367.680199999, 2092463.3542000018], [-7359367.610300001, 2092463.4072999991], [-7359367.538799999, 2092463.457800001], [-7359367.465500001, 2092463.5058000013], [-7359367.3906, 2092463.5513000004], [-7359367.314200001, 2092463.5940999985], [-7359367.236300001, 2092463.6341999993], [-7359367.1570999995, 2092463.6717000008], [-7359367.0767, 2092463.7063000016], [-7359366.995200001, 2092463.7380999997], [-7359366.9125, 2092463.767000001], [-7359366.829, 2092463.7930000015], [-7359366.7445, 2092463.8159999996], [-7359366.6592999995, 2092463.8361999989], [-7359366.5736, 2092463.8533999994], [-7359366.487199999, 2092463.8676000014], [-7359366.4004999995, 2092463.8786999993], [-7359366.3133000005, 2092463.8867999986], [-7359366.2261, 2092463.8918999992], [-7359366.138599999, 2092463.8938999996], [-7359366.051100001, 2092463.8927999996], [-7359365.9637, 2092463.888700001], [-7359365.876499999, 2092463.8814999983], [-7359365.7896, 2092463.8713999987], [-7359365.7031, 2092463.8581999987], [-7359365.6172, 2092463.8420000002], [-7359365.5318, 2092463.8227999993], [-7359365.4472, 2092463.8007000014], [-7359365.3632, 2092463.7754999995], [-7359365.280300001, 2092463.7476000004], [-7359365.1985, 2092463.7166999988], [-7359365.117699999, 2092463.6829000004], [-7359365.0381000005, 2092463.646400001], [-7359364.9597, 2092463.6072000004], [-7359364.8829, 2092463.565200001], [-7359364.807399999, 2092463.5205999985], [-7359364.7336, 2092463.4732999988], [-7359364.661499999, 2092463.4235999994], [-7359364.5911, 2092463.3713000007], [-7359364.522500001, 2092463.3167000003], [-7359364.456, 2092463.2595999986], [-7359364.3914, 2092463.2003000006], [-7359364.3289, 2092463.138700001], [-7359364.2684, 2092463.0749999993], [-7359364.2103, 2092463.009300001], [-7359364.1545, 2092462.9415999986], [-7359364.101, 2092462.8718000017], [-7359364.050000001, 2092462.8004], [-7359364.001499999, 2092462.7272999994], [-7359363.955399999, 2092462.6523999982], [-7359363.9121, 2092462.5760000013], [-7359363.871300001, 2092462.4979999997], [-7359363.8333, 2092462.4188], [-7359363.798, 2092462.3383000009], [-7359363.7656, 2092462.2564999983], [-7359363.7359, 2092462.173799999], [-7359363.709100001, 2092462.0899999999], [-7359363.6852, 2092462.0051999986], [-7359361.998400001, 2092449.2148999982], [-7359363.830700001, 2092449.0474999994], [-7359357.957800001, 2092435.4653999992], [-7359351.882999999, 2092432.2434], [-7359340.0896000005, 2092429.8084999993], [-7359321.5931, 2092428.7303999998], [-7359303.403899999, 2092434.4974999987], [-7359274.3506000005, 2092433.2800999992], [-7359251.0691, 2092437.6911999993], [-7359229.3291, 2092443.308699999], [-7359216.9712000005, 2092446.6129], [-7359200.4322, 2092451.2551999986], [-7359198.9549, 2092455.9772000015], [-7359198.042099999, 2092458.8216000013], [-7359195.379899999, 2092459.5430999994], [-7359183.4366999995, 2092458.294300001], [-7359180.5316, 2092457.7533], [-7359172.634199999, 2092453.4035999998], [-7359162.344699999, 2092453.112399999], [-7359151.536, 2092450.9957000017], [-7359147.4057, 2092449.9591999985], [-7359139.960899999, 2092449.0626999997], [-7359131.346000001, 2092449.9010999985], [-7359125.8705, 2092455.0982000008], [-7359117.3149, 2092455.9224000014], [-7359111.3499, 2092462.273600001], [-7359104.9452, 2092467.950100001], [-7359103.942600001, 2092468.3046999983], [-7359096.998, 2092476.4893999994], [-7359097.1863, 2092482.0980999991], [-7359091.508199999, 2092480.8630999997], [-7359084.1326, 2092480.9743000008], [-7359076.6691, 2092480.8491000012], [-7359070.5857, 2092479.2380000018], [-7359066.467599999, 2092477.6006000005], [-7359057.8355, 2092472.549800001], [-7359053.509400001, 2092469.5984999985], [-7359033.2546, 2092474.0108999982], [-7359031.1599, 2092472.3198000006], [-7359036.3825, 2092471.9767999984], [-7359035.9388, 2092471.252700001], [-7359035.7947, 2092471.0267000012], [-7359035.643200001, 2092470.805399999], [-7359035.4844, 2092470.5896000005], [-7359035.318499999, 2092470.3790000007], [-7359035.1458, 2092470.1741999984], [-7359034.966399999, 2092469.9752999991], [-7359034.7805, 2092469.7824999988], [-7359034.588400001, 2092469.5960000008], [-7359034.3901, 2092469.416099999], [-7359034.1861000005, 2092469.2430000007], [-7359033.976399999, 2092469.0766999982], [-7359033.761299999, 2092468.9175000004], [-7359033.541099999, 2092468.7655999996], [-7359033.355599999, 2092468.747299999], [-7359033.171, 2092468.7230000012], [-7359032.9871, 2092468.692499999], [-7359032.804300001, 2092468.6559999995], [-7359032.6228, 2092468.6136999987], [-7359032.4428, 2092468.565299999], [-7359032.2645, 2092468.511], [-7359032.0879999995, 2092468.4508999996], [-7359030.962400001, 2092468.0676000006], [-7359029.8248, 2092467.7215999998], [-7359028.6766, 2092467.4133000001], [-7359027.5189, 2092467.1427999996], [-7359026.3532, 2092466.9107999988], [-7359025.180500001, 2092466.7171999998], [-7359024.002, 2092466.5621999986], [-7359022.8193, 2092466.4461999983], [-7359021.633400001, 2092466.3691999987], [-7359018.4373, 2092466.261], [-7359015.239499999, 2092466.2456], [-7359009.843699999, 2092466.1977999993], [-7359002.782199999, 2092465.6151], [-7358995.7414, 2092464.8176000006], [-7358989.9311, 2092463.8784999996], [-7358989.6074, 2092463.7974999994], [-7358989.286699999, 2092463.705600001], [-7358988.9691, 2092463.6030000001], [-7358988.655200001, 2092463.4897999987], [-7358988.3453, 2092463.3660000004], [-7358988.0396, 2092463.2316999994], [-7358987.738600001, 2092463.0872000009], [-7358987.442500001, 2092462.932599999], [-7358987.151799999, 2092462.768199999], [-7358986.866699999, 2092462.5940000005], [-7358986.5876, 2092462.4103999995], [-7358986.3149, 2092462.2173000015], [-7358986.048599999, 2092462.0152000003], [-7358985.7894, 2092461.804200001], [-7358985.5372, 2092461.5844999999], [-7358985.2925, 2092461.3564000018], [-7358985.0557, 2092461.1202999987], [-7358984.838300001, 2092460.8883999996], [-7358984.628799999, 2092460.6490999982], [-7358984.4276, 2092460.4026999995], [-7358984.2349, 2092460.1495999992], [-7358984.050899999, 2092459.8900000006], [-7358983.8758000005, 2092459.6242999993], [-7358983.709899999, 2092459.3526000008], [-7358983.553300001, 2092459.0753999986], [-7358983.406099999, 2092458.7930000015], [-7358983.2688, 2092458.5056999996], [-7358983.1412, 2092458.2138999999], [-7358983.023499999, 2092457.9178000018], [-7358982.916099999, 2092457.617800001], [-7358982.8188000005, 2092457.3143999986], [-7358982.732000001, 2092457.0078000017], [-7358982.7114, 2092456.9246999994], [-7358982.693700001, 2092456.8409000002], [-7358982.6788, 2092456.7564999983], [-7358982.6665, 2092456.6717000008], [-7358982.657299999, 2092456.5866999999], [-7358982.650800001, 2092456.5012000017], [-7358982.6472, 2092456.4156999998], [-7358982.646500001, 2092456.3299999982], [-7358982.648600001, 2092456.2443000004], [-7358982.6535, 2092456.1589000002], [-7358982.6613, 2092456.0735], [-7358982.672, 2092455.9886000007], [-7358982.6854, 2092455.9039000012], [-7358982.7018, 2092455.8198999986], [-7358982.720799999, 2092455.7364000008], [-7358982.742799999, 2092455.6535999998], [-7358982.979599999, 2092454.7567000017], [-7358983.185900001, 2092453.8522999994], [-7358983.3618, 2092452.941300001], [-7358983.506899999, 2092452.0247999988], [-7358983.620999999, 2092451.1039999984], [-7358983.7041, 2092450.1798], [-7358983.755999999, 2092449.2533], [-7358983.7765999995, 2092448.3255000003], [-7358983.766000001, 2092447.3975999989], [-7358983.9257, 2092439.454500001], [-7358984.292099999, 2092431.5183000006], [-7358984.726, 2092431.3216999993], [-7358985.1533, 2092431.1108000018], [-7358985.5735, 2092430.886], [-7358985.986099999, 2092430.6473999992], [-7358986.3906, 2092430.395300001], [-7358986.786699999, 2092430.129900001], [-7358987.174000001, 2092429.8515000008], [-7358987.551899999, 2092429.5606000014], [-7358987.92, 2092429.257199999], [-7358988.278100001, 2092428.9417999983], [-7358988.6258000005, 2092428.6147999987], [-7358988.962400001, 2092428.2765999995], [-7358989.287900001, 2092427.9272999987], [-7358989.6018, 2092427.567400001], [-7358989.662699999, 2092427.3806000017], [-7358989.7171, 2092427.1917999983], [-7358989.764799999, 2092427.0011], [-7358989.8059, 2092426.8090000004], [-7358989.840399999, 2092426.6154000014], [-7358989.868100001, 2092426.4208000004], [-7358989.8892, 2092426.2254000008], [-7358989.9033, 2092426.0293000005], [-7358989.910800001, 2092425.8328999989], [-7358989.9114, 2092425.6363000013], [-7358989.905300001, 2092425.4398000017], [-7358989.8924, 2092425.2437000014], [-7358989.8727, 2092425.0480000004], [-7358989.8462000005, 2092424.8533000015], [-7358989.812999999, 2092424.6596000008], [-7358989.7732, 2092424.4670999981], [-7358989.726600001, 2092424.2760999985], [-7358989.673599999, 2092424.0868999995], [-7358989.6141, 2092423.8997999988], [-7358989.5481, 2092423.7148000002], [-7358989.4757, 2092423.5322000012], [-7358989.397, 2092423.3520999998], [-7358989.3123, 2092423.1750000007], [-7358989.2213, 2092423.0009999983], [-7358989.124500001, 2092422.8302999996], [-7358989.0219, 2092422.6629999988], [-7358988.9134, 2092422.499499999], [-7358988.7994, 2092422.3398000002], [-7358988.68, 2092422.1842], [-7358988.555199999, 2092422.0329999998], [-7358988.4253, 2092421.886], [-7358988.2904, 2092421.743900001], [-7358988.150699999, 2092421.6064999998], [-7358988.0063000005, 2092421.4741000012], [-7358987.8574, 2092421.3467000015], [-7358987.7042, 2092421.2247000001], [-7358987.546800001, 2092421.1081000008], [-7358987.385600001, 2092420.9970999993], [-7358987.2205, 2092420.8918000013], [-7358987.051999999, 2092420.7923999988], [-7358986.880100001, 2092420.6988999993], [-7358986.7051, 2092420.6114999987], [-7358986.5271000005, 2092420.5302000009], [-7358986.3465, 2092420.4552000016], [-7358986.0393, 2092418.9415999986], [-7358985.774499999, 2092417.4197000004], [-7358985.552100001, 2092415.8911000006], [-7358985.206700001, 2092415.7456], [-7358984.8661, 2092415.5892999992], [-7358984.530300001, 2092415.422600001], [-7358984.1998, 2092415.2454999983], [-7358983.8749, 2092415.0582999997], [-7358983.556, 2092414.8610000014], [-7358983.2432, 2092414.6539999992], [-7358991.645300001, 2092405.1361999996], [-7358997.623, 2092402.1642000005], [-7359007.635600001, 2092397.9032999985], [-7359033.110200001, 2092390.4309], [-7359041.616900001, 2092387.699000001], [-7359052.554500001, 2092358.0511000007], [-7359049.9812, 2092357.0903000012], [-7359049.2919, 2092356.6196999997], [-7359048.6172, 2092356.127799999], [-7359047.958000001, 2092355.6154000014], [-7359047.3148, 2092355.0826999992], [-7359046.687999999, 2092354.5304000005], [-7359046.0787, 2092353.958900001], [-7359045.3923, 2092353.2448999994], [-7359044.730699999, 2092352.5077], [-7359044.0945, 2092351.7481000014], [-7359043.4846, 2092350.9670999981], [-7359042.9015999995, 2092350.1655000001], [-7359042.3463, 2092349.3443000019], [-7359041.819, 2092348.5044], [-7359041.320900001, 2092347.6468999982], [-7359040.8521, 2092346.7727999985], [-7359040.4134, 2092345.8828999996], [-7359040.0052000005, 2092344.9785000011], [-7359039.6281, 2092344.0606000014], [-7359039.282299999, 2092343.1303000003], [-7359038.9684999995, 2092342.1884999983], [-7359038.686799999, 2092341.2364999987], [-7359038.4377999995, 2092340.2754000016], [-7359038.2216, 2092339.3062000014], [-7359038.0385, 2092338.3301], [-7359037.888800001, 2092337.3484000005], [-7359037.772500001, 2092336.3619999997], [-7359037.6899, 2092335.372299999], [-7359037.641000001, 2092334.3801999986], [-7359037.6259, 2092333.3871], [-7359037.6446, 2092332.3940000013], [-7359037.697000001, 2092331.4021000005], [-7359037.783299999, 2092330.4127000012], [-7359037.903000001, 2092329.4266999997], [-7359038.056299999, 2092328.4455000013], [-7359038.242900001, 2092327.4701000005], [-7359038.4626, 2092326.5018000007], [-7359038.7151, 2092325.5416], [-7359039.0002, 2092324.5905999988], [-7359039.317500001, 2092323.6501000002], [-7359039.6665, 2092322.7208999991], [-7359040.0469, 2092321.8044000007], [-7359040.4584, 2092320.9013999999], [-7359040.9003, 2092320.0132], [-7359041.372199999, 2092319.1407000013], [-7359041.873500001, 2092318.2851999998], [-7359042.4036, 2092317.4472000003], [-7359042.961999999, 2092316.6279999986], [-7359043.547800001, 2092315.828499999], [-7359044.160499999, 2092315.0496999994], [-7359044.7994, 2092314.2925000004], [-7359045.4638, 2092313.5577000007], [-7359046.1526, 2092312.8462000005], [-7359046.8654, 2092312.1587999985], [-7359045.458000001, 2092295.0694000013], [-7359045.306, 2092293.2241000012], [-7359046.4881, 2092292.8282999992], [-7359063.396299999, 2092287.145300001], [-7359079.335899999, 2092281.8773999996], [-7359081.7870000005, 2092281.0672999993], [-7359092.872199999, 2092277.3366999999], [-7359099.2896, 2092275.2210000008], [-7359112.239399999, 2092271.1611000001], [-7359115.5101, 2092270.2424999997], [-7359135.211200001, 2092265.3493000008], [-7359149.144400001, 2092262.5969000012], [-7359156.559599999, 2092261.3465999998], [-7359165.3245, 2092260.1220000014], [-7359192.682700001, 2092256.4802], [-7359228.579299999, 2092251.6959000006], [-7359244.166200001, 2092249.6953999996], [-7359255.8839, 2092248.7769000009], [-7359261.9978, 2092247.058600001], [-7359263.0735, 2092246.8405999988], [-7359267.0295, 2092246.0384000018], [-7359273.619100001, 2092244.375500001], [-7359274.2491, 2092244.2164000012], [-7359279.9903, 2092242.7930000015], [-7359298.9309, 2092236.4662999995], [-7359329.8127, 2092224.5581], [-7359330.7029, 2092224.2159999982], [-7359332.1994, 2092223.5604999997], [-7359335.0908, 2092222.2939999998], [-7359341.6228, 2092219.2628000006], [-7359347.0013, 2092216.5888999999], [-7359352.3379999995, 2092212.8016000018], [-7359353.2861, 2092212.2443000004], [-7359357.392000001, 2092209.8381000012], [-7359358.546800001, 2092209.2019999996], [-7359359.7223000005, 2092208.6053000018], [-7359360.917199999, 2092208.0489999987], [-7359362.130100001, 2092207.5337000005], [-7359363.3596, 2092207.059799999], [-7359364.6043, 2092206.6279999986], [-7359365.4772, 2092206.3583000004], [-7359366.358899999, 2092206.118900001], [-7359367.248199999, 2092205.9101000018], [-7359368.144099999, 2092205.7322000004], [-7359369.045600001, 2092205.5854000002], [-7359369.9516, 2092205.4697999991], [-7359370.861, 2092205.3856000006], [-7359371.772700001, 2092205.3328999989], [-7359373.281400001, 2092205.2963999994], [-7359374.234099999, 2092205.3037], [-7359375.186000001, 2092205.3409999982], [-7359376.136299999, 2092205.4083000012], [-7359377.084100001, 2092205.5053000003], [-7359378.0283, 2092205.632100001], [-7359378.9683, 2092205.7884999998], [-7359397.0418, 2092212.294399999], [-7359415.849099999, 2092215.2518000007], [-7359431.0143, 2092217.7391999997], [-7359452.433599999, 2092221.362399999], [-7359460.0473, 2092222.864500001], [-7359485.2349, 2092227.8214999996], [-7359499.1395, 2092230.5370999984], [-7359499.4322, 2092230.5991000012], [-7359499.7228, 2092230.670400001], [-7359500.011, 2092230.7511], [-7359500.296399999, 2092230.8409000002], [-7359500.5789, 2092230.9397], [-7359500.858100001, 2092231.0474999994], [-7359501.1339, 2092231.1642999984], [-7359501.4057, 2092231.2897999994], [-7359501.6735, 2092231.423799999], [-7359502.1108, 2092231.6603999995], [-7359502.5405, 2092231.9105000012], [-7359502.962200001, 2092232.1739999987], [-7359503.375600001, 2092232.4505999982], [-7359503.780200001, 2092232.7401], [-7359504.1757, 2092233.0421000011], [-7359504.8726, 2092233.6081000008], [-7359505.5535, 2092234.1937999986], [-7359506.217499999, 2092234.7985999994], [-7359506.8643, 2092235.4219999984], [-7359507.0163, 2092235.577399999], [-7359507.1636, 2092235.7375000007], [-7359507.306, 2092235.9019000009], [-7359507.4432, 2092236.070799999], [-7359507.5754, 2092236.2435999997], [-7359507.702099999, 2092236.420499999], [-7359534.8408, 2092307.934799999], [-7359537.3978, 2092314.6728000008], [-7359560.9202, 2092348.0496999994], [-7359565.1631000005, 2092347.5441000015], [-7359590.6219999995, 2092366.2298000008], [-7359634.3957, 2092384.1380999982], [-7359723.749299999, 2092381.2776000015], [-7359845.4157, 2092400.9283000007], [-7359844.4113, 2092407.2221000008], [-7359845.422, 2092409.9822000004], [-7359845.5974, 2092410.3911000006], [-7359845.786800001, 2092410.7936000004], [-7359845.989600001, 2092411.1893999986], [-7359846.205800001, 2092411.5780999996], [-7359846.4350000005, 2092411.958900001], [-7359846.676999999, 2092412.3317999989], [-7359846.931600001, 2092412.6961999983], [-7359847.1984, 2092413.0515], [-7359847.4771, 2092413.3973999992], [-7359847.7674, 2092413.7336999997], [-7359848.069, 2092414.059700001], [-7359848.3813000005, 2092414.3751000017], [-7359848.704399999, 2092414.6796000004], [-7359849.3344, 2092415.2485999987], [-7359849.9835, 2092415.795400001], [-7359850.651000001, 2092416.319600001], [-7359851.335899999, 2092416.8203999996], [-7359852.0373, 2092417.2972999997], [-7359852.7546, 2092417.7498999983], [-7359853.487, 2092418.1772999987], [-7359854.2334, 2092418.5793000013], [-7359854.993000001, 2092418.9552999996], [-7359855.7651, 2092419.3049000017], [-7359856.548599999, 2092419.627700001], [-7359857.342700001, 2092419.9233000018], [-7359858.146299999, 2092420.191399999], [-7359873.549699999, 2092423.9635000005], [-7359910.321699999, 2092432.4796000011], [-7359914.2183, 2092433.606800001], [-7359933.849199999, 2092441.071800001], [-7359934.806600001, 2092438.7149999999], [-7359916.126800001, 2092430.4287], [-7359876.9243, 2092419.1024000011], [-7359862.208799999, 2092415.243999999], [-7359859.3453, 2092414.396400001], [-7359858.8204, 2092414.022500001], [-7359857.4552, 2092412.0890999995], [-7359857.378900001, 2092411.6906999983], [-7359857.5145, 2092410.2401], [-7359857.5887, 2092409.7225000001], [-7359858.545600001, 2092403.048799999], [-7359918.205600001, 2092412.6843000017], [-7359938.541999999, 2092416.0753999986], [-7360003.0513, 2092426.8319999985], [-7360029.5141, 2092431.2445], [-7360079.458799999, 2092439.5722999983], [-7360089.218599999, 2092441.0445000008], [-7360098.131899999, 2092442.0097000003], [-7360107.073000001, 2092442.6640999988], [-7360116.031199999, 2092443.0069999993], [-7360124.995999999, 2092443.0379000008], [-7360129.639599999, 2092442.831700001], [-7360134.278100001, 2092442.5311000012], [-7360134.2709, 2092442.4904999994], [-7360145.175000001, 2092441.5216999985], [-7360163.7761, 2092439.9945], [-7360169.680500001, 2092439.5097999983], [-7360199.0096, 2092441.3630999997], [-7360240.348300001, 2092443.7087999992], [-7360266.202400001, 2092445.0863999985], [-7360273.782400001, 2092445.6382], [-7360273.4428, 2092455.6129], [-7360273.027799999, 2092455.7223999985], [-7360273.181299999, 2092462.7835999988], [-7360272.5644000005, 2092463.1306999996], [-7360272.703, 2092465.4239000008], [-7360272.1701, 2092472.3526999988], [-7360273.0977, 2092478.4373999983], [-7360272.5382, 2092478.7270999998], [-7360274.343800001, 2092497.3997999988], [-7360276.055, 2092497.5117000006], [-7360276.229599999, 2092502.7054999992], [-7360276.831599999, 2092502.8680999987], [-7360279.5669, 2092521.0474000014], [-7360315.374399999, 2092526.0828999989], [-7360372.2454, 2092535.2190000005], [-7360387.888599999, 2092508.8205000013], [-7360437.384500001, 2092534.6997999996], [-7360442.9201, 2092523.3894999996], [-7360446.3529, 2092525.0813000016], [-7360447.119100001, 2092523.3487999998], [-7360447.1998, 2092522.9030000009], [-7360447.2651, 2092522.4547000006], [-7360447.3149, 2092522.0045000017], [-7360447.349099999, 2092521.5527999997], [-7360447.3675, 2092521.1000999995], [-7360447.3704, 2092520.6471000016], [-7360447.3575, 2092520.1941], [-7360447.329, 2092519.7419000007], [-7360447.2849, 2092519.291099999], [-7360447.225199999, 2092518.8420999981], [-7360447.15, 2092518.3953999989], [-7360447.0594, 2092517.9514999986], [-7360446.953400001, 2092517.5111999996], [-7360446.8324, 2092517.0747999996], [-7360446.6963, 2092516.6429999992], [-7360446.545299999, 2092516.2162000015], [-7360446.3796999995, 2092515.7949], [-7360446.1996, 2092515.3795999996], [-7360446.005100001, 2092514.9710000008], [-7360445.796700001, 2092514.5692999996], [-7360445.615700001, 2092514.2232999988], [-7360445.422800001, 2092513.8839000016], [-7360445.2181, 2092513.5516000018], [-7360445.002, 2092513.2265999988], [-7360444.774700001, 2092512.9094999991], [-7360444.536599999, 2092512.6004000008], [-7360444.287799999, 2092512.3000999987], [-7360444.0287, 2092512.0086000003], [-7360443.7597, 2092511.726399999], [-7360443.480900001, 2092511.454], [-7360443.1928, 2092511.1915000007], [-7360442.8959, 2092510.9393000007], [-7360442.590399999, 2092510.6977000013], [-7360442.2765999995, 2092510.4670000002], [-7360441.9548, 2092510.2474999987], [-7360441.6258000005, 2092510.0395000018], [-7360441.2897, 2092509.8431999981], [-7360426.0293000005, 2092502.297699999], [-7360409.0145, 2092493.9239999987], [-7360408.6504999995, 2092492.2531000003], [-7360395.4177, 2092485.3427000009], [-7360395.3484000005, 2092485.2884000018], [-7360395.2809999995, 2092485.2316000015], [-7360395.215600001, 2092485.172600001], [-7360395.1521000005, 2092485.1114999987], [-7360395.0909, 2092485.0480999984], [-7360395.0318, 2092484.9827999994], [-7360394.975, 2092484.9153000005], [-7360394.920499999, 2092484.8460000008], [-7360394.8682, 2092484.7749000005], [-7360394.818600001, 2092484.7019999996], [-7360394.771400001, 2092484.6273999996], [-7360394.7268, 2092484.5513000004], [-7360394.684800001, 2092484.4736000001], [-7360394.645400001, 2092484.3946000002], [-7360394.6086, 2092484.3143999986], [-7360394.5748, 2092484.2327999994], [-7360394.5436, 2092484.1501999982], [-7360394.5154, 2092484.0665000007], [-7360394.4899, 2092483.981899999], [-7360394.4673, 2092483.896400001], [-7360394.447699999, 2092483.8103], [-7360394.431, 2092483.7236000001], [-7360394.417199999, 2092483.6361999996], [-7360394.406400001, 2092483.5485999994], [-7360394.398600001, 2092483.4604999982], [-7360394.3937, 2092483.372299999], [-7360394.391899999, 2092483.2839000002], [-7360394.392999999, 2092483.1955000013], [-7360394.397299999, 2092483.1072000004], [-7360394.4044, 2092483.0190999992], [-7360394.4145, 2092482.9312999994], [-7360394.4276, 2092482.8438999988], [-7360394.4438000005, 2092482.757100001], [-7360394.4628, 2092482.6708000004], [-7360394.4848, 2092482.5850999989], [-7360394.5096, 2092482.5003999993], [-7360394.5372, 2092482.4164999984], [-7360394.5677000005, 2092482.3335999995], [-7360394.6011, 2092482.2518000007], [-7360395.009199999, 2092481.363400001], [-7360392.6512, 2092480.0364000015], [-7360392.296800001, 2092479.697999999], [-7360391.954299999, 2092479.3471999988], [-7360391.624299999, 2092478.9844999984], [-7360391.307, 2092478.6105999984], [-7360391.0030000005, 2092478.2256000005], [-7360390.7126, 2092477.8302000016], [-7360390.435900001, 2092477.424899999], [-7360390.173699999, 2092477.0100000016], [-7360389.925899999, 2092476.5861999989], [-7360389.7017, 2092476.170499999], [-7360389.4914, 2092475.7474999987], [-7360389.295499999, 2092475.3176000006], [-7360389.1139, 2092474.8812999986], [-7360388.9472, 2092474.439199999], [-7360388.8452, 2092474.0916999988], [-7360388.754899999, 2092473.7410000004], [-7360388.676200001, 2092473.3874999993], [-7360388.609200001, 2092473.0315999985], [-7360388.554, 2092472.6735000014], [-7360388.5107, 2092472.3139000013], [-7360388.4792, 2092471.9530000016], [-7360388.4597, 2092471.5912000015], [-7360388.9429, 2092471.6116000004], [-7360383.528000001, 2092444.2091999985], [-7360466.482000001, 2092425.7573999986], [-7360466.4515, 2092425.1061999984], [-7360552.001700001, 2092401.1523000002], [-7360569.224300001, 2092421.3357999995], [-7360577.0494, 2092428.5687999986], [-7360580.0496, 2092431.3460000008], [-7360676.0568, 2092520.2173999995], [-7360700.538699999, 2092493.4263000004], [-7360809.7511, 2092475.302099999], [-7360885.571900001, 2092462.6761000007], [-7360875.5002, 2092447.0582999997], [-7360880.338500001, 2092429.827300001], [-7360893.608100001, 2092412.0625], [-7360895.8377, 2092407.3224], [-7360895.2497000005, 2092401.0943999998], [-7360891.5528, 2092396.1572999991], [-7360885.8881, 2092393.7137000002], [-7360880.852399999, 2092393.2741999999], [-7360803.087200001, 2092422.4615000002], [-7360782.760500001, 2092397.6173], [-7360786.133099999, 2092394.4224999994], [-7360681.454600001, 2092265.7936000004], [-7360677.7257, 2092268.8341000006], [-7360661.047599999, 2092246.316300001], [-7360678.119999999, 2092189.0868999995], [-7360627.1974, 2092175.794399999], [-7360612.3367, 2092197.1526999995], [-7360530.019200001, 2092184.3438000008], [-7360522.6842, 2092192.0637000017], [-7360483.741, 2092163.5364999995], [-7360487.507200001, 2092160.4910000004], [-7360460.306500001, 2092140.132100001], [-7360447.998500001, 2092156.1818999983], [-7360447.737, 2092156.5229000002], [-7360419.6273, 2092134.077399999], [-7360389.226500001, 2092126.3636999987], [-7360376.343900001, 2092079.1327], [-7360373.8145, 2092069.8592000008], [-7360391.8474, 2092064.8808000013], [-7360404.7929, 2092061.3068000004], [-7360401.132099999, 2092087.1620000005], [-7360466.2941, 2092132.3242999986], [-7360466.3719999995, 2092132.3784000017], [-7360528.985099999, 2092161.7049000002], [-7360530.477600001, 2092170.9563000016], [-7360571.703500001, 2092177.6598000005], [-7360649.2424, 2092153.1598000005], [-7360676.8884, 2092162.7173000015], [-7360689.480599999, 2092179.067499999], [-7360677.9668000005, 2092220.796599999], [-7360686.916099999, 2092250.1495000012], [-7360729.6379, 2092300.1438000016], [-7360770.0879999995, 2092357.2608999982], [-7360807.684599999, 2092392.2831999995], [-7360875.634099999, 2092370.7685999982], [-7360922.4991, 2092379.7314999998], [-7360903.3432, 2092441.4294999987], [-7360958.641000001, 2092503.9732000008], [-7360991.012800001, 2092552.9547999986], [-7360990.964199999, 2092582.0419999994], [-7360970.2136, 2092577.6629999988], [-7360956.7094, 2092602.4649999999], [-7360976.0987, 2092620.568500001], [-7360973.9311999995, 2092629.0265999995], [-7360975.211300001, 2092637.7116999999], [-7360977.014699999, 2092646.9365000017], [-7360979.074100001, 2092662.1235999987], [-7360982.1688, 2092678.4021999985], [-7360987.311799999, 2092698.4715999998], [-7360992.1987, 2092713.1306000017], [-7360991.3749, 2092721.4752999991], [-7360996.0726, 2092735.8878000006], [-7360999.378799999, 2092752.1312000006], [-7361002.584799999, 2092769.6303999983], [-7361006.826099999, 2092790.4276], [-7361008.4068, 2092811.0606000014], [-7361009.4421, 2092825.1680000015], [-7361009.1861000005, 2092836.8341999985], [-7361007.638699999, 2092847.4206000008], [-7361001.4605, 2092853.6528000012], [-7360992.1987, 2092856.9155000001], [-7360985.7644, 2092860.4365000017], [-7360978.050000001, 2092861.2580999993], [-7360970.3244, 2092860.4365000017], [-7360958.012499999, 2092859.2041999996], [-7360936.449899999, 2092858.2886999995], [-7360911.5143, 2092854.990699999], [-7360886.8125, 2092853.2184999995]]]]}}]}