{"type": "FeatureCollection", "name": "Rhode_Island_park", "crs": {"type": "name", "properties": {"name": "urn:ogc:def:crs:EPSG::3857"}}, "features": [{"type": "Feature", "properties": {"OBJECTID": 61, "CreationDate": "2025-01-14T11:11:11Z", "Creator": "NPS_WASO_LANDS", "EditDate": "2025-01-14T11:11:11Z", "Editor": "NPS_WASO_LANDS", "GlobalID": "{FF7949EE-51D7-44D5-A944-08983693E1A6}", "AreaID": 38, "UNIT_CODE": "ROWI", "GIS_Notes": "Lands - http://landsnet.nps.gov/tractsnet/documents/ROWI/Metadata/rowi_metadata.xml", "UNIT_NAME": "Roger Williams National Memorial", "DATE_EDIT": "2011-09-30T00:00:00Z", "STATE": "RI", "REGION": "NE", "GNIS_ID": "1904107", "UNIT_TYPE": "National Memorial", "CREATED_BY": "Lands", "METADATA": "https://irma.nps.gov/DataStore/Reference/Profile/2215978", "PARKNAME": "Roger Williams", "SHAPE_Length": 986.1485953960374, "SHAPE_Area": 33122.47710500327}, "geometry": {"type": "MultiPolygon", "coordinates": [[[[-7949404.5834, 5135761.180299997], [-7949403.064099999, 5135755.484700002], [-7949301.67, 5135361.063100003], [-7949301.646199999, 5135360.996100001], [-7949301.624600001, 5135360.928400002], [-7949301.605599999, 5135360.859999999], [-7949301.5888, 5135360.791199997], [-7949301.5744, 5135360.721500002], [-7949301.5623, 5135360.651500002], [-7949301.5527, 5135360.581100002], [-7949301.545600001, 5135360.510600001], [-7949301.540899999, 5135360.439599998], [-7949301.538699999, 5135360.368699998], [-7949301.538899999, 5135360.297700003], [-7949301.5415, 5135360.2267], [-7949301.546599999, 5135360.1558], [-7949301.554, 5135360.0852999985], [-7949301.564200001, 5135360.014899999], [-7949301.5765, 5135359.945], [-7949301.5912999995, 5135359.875500001], [-7949301.6085, 5135359.806699999], [-7949301.6281, 5135359.738399997], [-7949301.65, 5135359.670999996], [-7949301.6743, 5135359.604099996], [-7949301.7006, 5135359.538199998], [-7949301.729499999, 5135359.473499998], [-7949301.760399999, 5135359.409400001], [-7949301.7937, 5135359.346699998], [-7949301.8289, 5135359.284999996], [-7949301.8664, 5135359.224799998], [-7949301.9059, 5135359.166100003], [-7949301.9473, 5135359.108400002], [-7949301.990700001, 5135359.0524], [-7949302.0362, 5135358.9978], [-7949302.0834, 5135358.945100002], [-7949302.1324000005, 5135358.893700004], [-7949302.1832, 5135358.844300002], [-7949302.2355, 5135358.796599999], [-7949302.2896, 5135358.750699997], [-7949302.3453, 5135358.706699997], [-7949302.4025, 5135358.6647000015], [-7949302.4608, 5135358.624799997], [-7949302.5207, 5135358.586900003], [-7949302.581700001, 5135358.550999999], [-7949302.644200001, 5135358.5173999965], [-7949302.7074, 5135358.486000001], [-7949302.772, 5135358.456600003], [-7949302.837400001, 5135358.429700002], [-7949302.9037999995, 5135358.405000001], [-7949394.3451000005, 5135337.4103000015], [-7949394.415999999, 5135337.402999997], [-7949394.487, 5135337.398199998], [-7949394.5583, 5135337.395800002], [-7949394.6295, 5135337.3961], [-7949394.7005, 5135337.398800001], [-7949394.7718, 5135337.403999999], [-7949394.842599999, 5135337.411799997], [-7949394.9132, 5135337.421999998], [-7949394.9833, 5135337.434500001], [-7949395.0529, 5135337.449600004], [-7949395.1219999995, 5135337.467200004], [-7949395.190300001, 5135337.487099998], [-7949395.258099999, 5135337.509499997], [-7949395.324899999, 5135337.534000002], [-7949395.390900001, 5135337.560900003], [-7949395.4559, 5135337.5901999995], [-7949395.52, 5135337.621799998], [-7949395.582699999, 5135337.655599996], [-7949395.644300001, 5135337.691500001], [-7949395.704600001, 5135337.729699999], [-7949395.763499999, 5135337.769699998], [-7949395.8211, 5135337.811999999], [-7949395.8772, 5135337.8561], [-7949395.931600001, 5135337.9023], [-7949395.9844, 5135337.950199999], [-7949396.035499999, 5135338.000100002], [-7949396.085000001, 5135338.051700003], [-7949396.132300001, 5135338.104999997], [-7949396.178099999, 5135338.1598000005], [-7949396.2217, 5135338.216300003], [-7949396.263499999, 5135338.2742], [-7949396.303099999, 5135338.333700001], [-7949396.3407000005, 5135338.394400001], [-7949396.3761, 5135338.456500001], [-7949396.409499999, 5135338.519699998], [-7949396.4406, 5135338.583899997], [-7949396.4694, 5135338.649400003], [-7949396.4958999995, 5135338.7157000005], [-7949396.52, 5135338.7831000015], [-7949396.541999999, 5135338.851199999], [-7949396.5613, 5135338.9199], [-7949396.578500001, 5135338.989200003], [-7949396.5932, 5135339.059299998], [-7949396.6053, 5135339.129799999], [-7949396.615, 5135339.200599998], [-7949404.645500001, 5135374.437700003], [-7949406.4868, 5135383.0559], [-7949408.0941, 5135391.7211000025], [-7949409.465600001, 5135400.427199997], [-7949451.873500001, 5135684.395999998], [-7949454.053099999, 5135700.888999999], [-7949455.675899999, 5135717.446599998], [-7949456.7401, 5135734.049900003], [-7949457.2444, 5135750.679700002], [-7949457.244200001, 5135750.751100004], [-7949457.2413, 5135750.822700001], [-7949457.236199999, 5135750.893799998], [-7949457.228499999, 5135750.964900002], [-7949457.2183, 5135751.035700001], [-7949457.205600001, 5135751.105899997], [-7949457.1905000005, 5135751.175800003], [-7949457.1731, 5135751.245200001], [-7949457.153100001, 5135751.313600004], [-7949457.130999999, 5135751.3816], [-7949457.1064, 5135751.448799998], [-7949457.079399999, 5135751.515000001], [-7949457.0503, 5135751.580300003], [-7949457.0188, 5135751.644400001], [-7949456.985200001, 5135751.707400002], [-7949456.9493, 5135751.769100003], [-7949456.9114, 5135751.829599999], [-7949456.871300001, 5135751.888800003], [-7949456.829299999, 5135751.946599998], [-7949456.7853, 5135752.002599999], [-7949456.739399999, 5135752.057300001], [-7949456.6916000005, 5135752.110200003], [-7949456.641899999, 5135752.161399998], [-7949456.590500001, 5135752.210900001], [-7949456.5374, 5135752.258699998], [-7949456.482799999, 5135752.304399997], [-7949456.4266, 5135752.348200001], [-7949456.368799999, 5135752.390000001], [-7949456.309599999, 5135752.429899998], [-7949456.2491, 5135752.467600003], [-7949456.1873, 5135752.5031], [-7949456.124299999, 5135752.536399998], [-7949456.0602, 5135752.567699999], [-7949455.995200001, 5135752.596500002], [-7949455.929, 5135752.623099998], [-7949455.8621, 5135752.647399999], [-7949455.794299999, 5135752.669399999], [-7949455.7259, 5135752.6888], [-7949455.6566, 5135752.706], [-7949407.1258000005, 5135763.488200001], [-7949407.0571, 5135763.502400003], [-7949406.9881, 5135763.513899997], [-7949406.919, 5135763.523199998], [-7949406.849400001, 5135763.5298999995], [-7949406.7797, 5135763.534500003], [-7949406.709799999, 5135763.536600001], [-7949406.640000001, 5135763.536200002], [-7949406.5701, 5135763.533500001], [-7949406.500399999, 5135763.528399996], [-7949406.431, 5135763.520800002], [-7949406.3618, 5135763.511100002], [-7949406.2928, 5135763.4987], [-7949406.2246, 5135763.483999997], [-7949406.1568, 5135763.467100002], [-7949406.089500001, 5135763.447899997], [-7949406.0231, 5135763.426200002], [-7949405.9574, 5135763.402400002], [-7949405.8925, 5135763.3763], [-7949405.828500001, 5135763.348099999], [-7949405.7655, 5135763.317599997], [-7949405.7037, 5135763.284900002], [-7949405.642899999, 5135763.250200003], [-7949405.5835, 5135763.213399999], [-7949405.5253, 5135763.174599998], [-7949405.4684, 5135763.133699998], [-7949405.412900001, 5135763.0911], [-7949405.359099999, 5135763.046400003], [-7949405.306500001, 5135763.000100002], [-7949405.255899999, 5135762.951899998], [-7949405.206800001, 5135762.901799999], [-7949405.159399999, 5135762.850400001], [-7949405.113700001, 5135762.7971], [-7949405.0701, 5135762.7425], [-7949405.028100001, 5135762.686399996], [-7949404.988299999, 5135762.628700003], [-7949404.950300001, 5135762.569799997], [-7949404.9145, 5135762.509599999], [-7949404.8806, 5135762.448200002], [-7949404.8489, 5135762.385799997], [-7949404.8193, 5135762.322099999], [-7949404.791999999, 5135762.257600002], [-7949404.7666, 5135762.192199998], [-7949404.743899999, 5135762.126000002], [-7949404.723200001, 5135762.058899999], [-7949404.7048, 5135761.9912], [-7949404.5834, 5135761.180299997]]]]}}]}