{"type": "FeatureCollection", "name": "South_Carolina_park", "crs": {"type": "name", "properties": {"name": "urn:ogc:def:crs:EPSG::3857"}}, "features": [{"type": "Feature", "properties": {"OBJECTID": 17, "CreationDate": "2025-01-14T11:11:09Z", "Creator": "NPS_WASO_LANDS", "EditDate": "2025-01-14T11:11:09Z", "Editor": "NPS_WASO_LANDS", "GlobalID": "{EBB0F0F6-8742-43CD-9DFC-DC22C370EDF9}", "AreaID": 453, "UNIT_CODE": "REER", "GIS_Notes": "Lands - http://landsnet.nps.gov/tractsnet/documents/REER/Metadata/reer_metadata.xml", "UNIT_NAME": "Reconstruction Era National Historical Park", "DATE_EDIT": "2024-12-05T00:00:00Z", "STATE": "SC", "REGION": "SE", "GNIS_ID": "2783288", "UNIT_TYPE": "National Historical Park", "CREATED_BY": "Lands", "METADATA": "https://irma.nps.gov/DataStore/Reference/Profile/2249524", "PARKNAME": "Reconstruction Era", "SHAPE_Length": 5561.373198464616, "SHAPE_Area": 420912.07462039066}, "geometry": {"type": "MultiPolygon", "coordinates": [[[[-8980210.0771, 3820232.3830000013], [-8980210.4398, 3820206.3737000003], [-8980233.589, 3820206.6994000003], [-8980233.2265, 3820232.708800003], [-8980210.0771, 3820232.3830000013]]], [[[-8980282.2345, 3820886.3247999996], [-8980282.4952, 3820813.030199997], [-8980325.4283, 3820813.346900001], [-8980325.1714, 3820886.539300002], [-8980282.2345, 3820886.3247999996]]], [[[-8981039.0112, 3813963.7638000026], [-8981035.8644, 3813932.017999999], [-8981030.1728, 3813906.972400002], [-8981025.4878, 3813877.1127000004], [-8981024.8785, 3813870.1306999996], [-8981024.9002, 3813863.116700001], [-8981025.5527, 3813856.1895999983], [-8981026.8356, 3813849.462700002], [-8981027.8376, 3813846.1032000035], [-8981029.1101, 3813842.7217999995], [-8981029.382, 3813842.2302], [-8981411.2257, 3813843.419399999], [-8981513.0867, 3813843.7344999984], [-8981477.7063, 3813917.0434999987], [-8981427.2169, 3813861.1427000016], [-8981271.4504, 3813860.6592999995], [-8981273.0874, 3814052.1141000018], [-8981189.7924, 3814050.9504000023], [-8981190.1502, 3813935.0569999963], [-8981131.8107, 3813934.875], [-8981109.4093, 3814018.520300001], [-8981136.1621, 3814123.2299999967], [-8981300.581, 3814145.269100003], [-8981264.6574, 3814356.093699999], [-8981231.7466, 3814349.7550000027], [-8981141.3516, 3814332.3444000036], [-8981138.1322, 3814325.8347999975], [-8981136.8828, 3814321.748999998], [-8981136.2636, 3814317.9201999977], [-8981136.0994, 3814312.722599998], [-8981136.5823, 3814302.3073000014], [-8981136.585, 3814301.4412999973], [-8981136.4187, 3814296.9003000036], [-8981135.104, 3814284.786799997], [-8981133.2389, 3814275.7399000004], [-8981124.4827, 3814250.457800001], [-8981115.8018, 3814229.9936999977], [-8981110.2531, 3814216.955499999], [-8981103.6362, 3814199.5097000003], [-8981097.2899, 3814182.0588999987], [-8981091.0346, 3814164.319799997], [-8981084.6918, 3814145.7087000012], [-8981081.5718, 3814134.3708999977], [-8981077.0167, 3814120.7018000036], [-8981069.5184, 3814096.8619000018], [-8981062.9161, 3814074.7628000006], [-8981056.0506, 3814050.3417000026], [-8981050.7077, 3814029.1184], [-8981047.5048, 3814015.4536999986], [-8981044.6652, 3814000.9240999967], [-8981041.2902, 3813984.6435000002], [-8981039.9734, 3813973.2151999995], [-8981039.0112, 3813963.7638000026]]], [[[-8969599.5338, 3814638.9235000014], [-8969600.1258, 3814603.2260999978], [-8969524.3733, 3814603.0524000004], [-8969497.3179, 3814214.6589], [-8969607.145, 3814191.6709999964], [-8969712.4197, 3814169.6349000037], [-8969712.1425, 3814191.981700003], [-8969730.9808, 3814192.023199998], [-8969735.8, 3814192.0791999996], [-8969927.5018, 3814194.3342999965], [-8970169.0295, 3814197.1084999964], [-8970240.6621, 3814197.4591000006], [-8970425.7155, 3814198.1384000033], [-8970416.917, 3814212.3523999974], [-8970410.4156, 3814222.0207], [-8970396.03, 3814238.6975999996], [-8970385.3813, 3814247.2907999977], [-8970370.2324, 3814255.1850000024], [-8970357.8345, 3814256.4054000005], [-8970347.7917, 3814254.1198000014], [-8970329.8163, 3814246.092299998], [-8970321.0612, 3814246.1467999965], [-8970314.7109, 3814244.5544999987], [-8970309.2745, 3814253.6252000034], [-8970314.674, 3814258.5451000035], [-8970330.4062, 3814266.9465999976], [-8970335.4968, 3814271.6172999963], [-8970338.1598, 3814281.7989000008], [-8970334.6044, 3814296.291100003], [-8970334.6058, 3814296.295400001], [-8970340.2478, 3814314.012699999], [-8970340.242, 3814360.248499997], [-8970365.1212, 3814405.4475999996], [-8970367.2719, 3814408.6437000036], [-8970369.8558, 3814416.2063999996], [-8970371.0947, 3814421.9521000013], [-8970368.2854, 3814448.0055000037], [-8970372.1444, 3814452.329499997], [-8970371.9336, 3814459.914800003], [-8970370.196, 3814466.072999999], [-8970367.0222, 3814470.713799998], [-8970364.4903, 3814472.6169999987], [-8970361.239, 3814474.092699997], [-8970353.2519, 3814476.4482999966], [-8970343.4587, 3814479.3364999965], [-8970342.2839, 3814480.033699997], [-8970340.1102, 3814482.544200003], [-8970338.0184, 3814487.115699999], [-8970334.4588, 3814497.9936999977], [-8970332.097, 3814502.4623000026], [-8970322.5531, 3814510.686300002], [-8970314.1854, 3814517.8790000007], [-8970291.516, 3814550.5847999975], [-8970044.9143, 3814550.976999998], [-8970046.9833, 3814605.8971000016], [-8969998.6678, 3814604.8539000005], [-8969999.4968, 3814588.983000003], [-8969861.7073, 3814581.596699998], [-8969861.61, 3814605.5102000013], [-8969724.6482, 3814602.782899998], [-8969706.4705, 3814640.348200001], [-8969599.5338, 3814638.9235000014]]]]}}, {"type": "Feature", "properties": {"OBJECTID": 188, "CreationDate": "2025-01-14T11:11:12Z", "Creator": "NPS_WASO_LANDS", "EditDate": "2025-01-14T11:11:12Z", "Editor": "NPS_WASO_LANDS", "GlobalID": "{C65367A9-1FE9-4B60-82E3-A9421D597A17}", "AreaID": 183, "UNIT_CODE": "CONG", "GIS_Notes": "Lands - http://landsnet.nps.gov/tractsnet/documents/CONG/Metadata/cong_metadata.xml", "UNIT_NAME": "Congaree National Park", "DATE_EDIT": "2022-06-07T00:00:00Z", "STATE": "SC", "REGION": "SE", "GNIS_ID": "2035095", "UNIT_TYPE": "National Park", "CREATED_BY": "Lands", "METADATA": "https://irma.nps.gov/DataStore/Reference/Profile/2229070", "PARKNAME": "Congaree", "SHAPE_Length": 116341.7116168095, "SHAPE_Area": 157073614.9285513}, "geometry": {"type": "MultiPolygon", "coordinates": [[[[-9001491.5701, 4007481.837899998], [-9001515.0596, 4007527.674900003], [-9001483.0956, 4007505.6816999987], [-9001448.0414, 4007485.0143000036], [-9001411.0472, 4007466.3022999987], [-9001376.5646, 4007451.5089000016], [-9001329.0647, 4007434.9772000015], [-9001303.7683, 4007427.6383000016], [-9001267.2263, 4007418.751500003], [-9001217.4122, 4007412.052199997], [-9001163.5981, 4007408.3121000007], [-9001126.8624, 4007408.155000001], [-9001142.6241, 4007193.070600003], [-9001073.1637, 4007154.8219000027], [-9001067.3031, 4007127.6023999974], [-9000952.9156, 4007169.6313999966], [-9000826.8789, 4007162.7104], [-9000816.7701, 4007120.476800002], [-9000788.199, 4007063.827299997], [-9000726.9112, 4007020.0495000035], [-9000666.1918, 4007010.8280000016], [-9000646.0952, 4006975.2202999964], [-9000678.9529, 4006923.925499998], [-9000706.3355, 4006863.456699997], [-9000717.4919, 4006790.882299997], [-9000708.8674, 4006763.820600003], [-9000622.3504, 4006687.0568000004], [-9000580.2419, 4006655.115699999], [-9000537.0712, 4006631.3900000006], [-9000480.3436, 4006537.543300003], [-9000423.5656, 4006525.5080000013], [-9000371.1351, 4006500.7427999973], [-9000297.6745, 4006440.6982999966], [-9000260.0773, 4006396.1092000008], [-9000198.0989, 4006357.1777999997], [-9000122.0013, 4006313.8082000017], [-9000069.9403, 4006259.5535999984], [-9000032.439, 4006236.4060999975], [-8999961.1578, 4006207.206299998], [-8999908.9082, 4006203.105800003], [-8999846.9693, 4006167.5157999992], [-8999796.9537, 4006188.9135000035], [-8999756.2917, 4006238.321999997], [-8999697.0529, 4006218.7918], [-8999679.6352, 4006181.826899998], [-8999599.8473, 4006202.8790000007], [-8999529.5486, 4006225.846900001], [-8999441.0246, 4006309.3564999998], [-8999413.4665, 4006367.657200001], [-8999352.2704, 4006454.695299998], [-8999280.4067, 4006431.093199998], [-8999263.5027, 4006506.3290000036], [-8999148.8978, 4006588.3440999985], [-8998949.7941, 4006575.6272], [-8998848.6762, 4006586.1459000036], [-8998794.0587, 4006601.3320999965], [-8998755.1365, 4006728.299999997], [-8998556.7167, 4006651.0732000023], [-8998556.6642, 4006651.0529000014], [-8998293.7915, 4006742.1833000034], [-8998130.7982, 4006715.591600001], [-8998133.674, 4006691.4186000004], [-8998124.601, 4006689.9384000003], [-8997970.5529, 4006664.8038000017], [-8997970.0913, 4006813.7474000007], [-8997890.9956, 4006814.656300001], [-8997900.5302, 4007797.1801000014], [-8997620.5804, 4007911.068599999], [-8997604.056, 4007818.093999997], [-8997574.0781, 4007823.1196999997], [-8997079.4334, 4006524.409400001], [-8997042.9147, 4006571.477300003], [-8996146.2239, 4006523.927500002], [-8995522.5508, 4006508.0700000003], [-8994731.4071, 4006499.466499999], [-8994465.5849, 4006492.3756000027], [-8994194.3143, 4006489.6125999987], [-8994266.2351, 4006015.0034999996], [-8994141.0833, 4005568.3781000003], [-8993782.9588, 4005021.8537999988], [-8993709.0014, 4004965.7419999987], [-8993708.9805, 4004965.7260000035], [-8993608.1762, 4004889.2480999976], [-8993244.5997, 4004756.168700002], [-8993206.2201, 4004641.3237999976], [-8993178.3586, 4004593.7300999984], [-8993140.3629, 4004543.9547000006], [-8993094.6661, 4004504.0408999994], [-8993071.7882, 4004490.3291999996], [-8993059.9922, 4004482.7463999987], [-8993044.193, 4004473.3703000024], [-8992777.3569, 4004322.8034000024], [-8992458.2819, 4004146.0579999983], [-8992151.3766, 4004171.0154], [-8991903.6924, 4004191.151100002], [-8991844.7893, 4004228.5037999973], [-8991812.4048, 4004285.8444000036], [-8991796.6342, 4004332.418399997], [-8991790.6913, 4004355.429200001], [-8991740.4768, 4004593.2744000033], [-8991320.4447, 4004381.938699998], [-8991271.0632, 4004359.3056000024], [-8991240.8429, 4004348.963100001], [-8991042.4935, 4004289.0825999975], [-8990870.056, 4004237.586199999], [-8990783.9508, 4004213.9683], [-8990535.8023, 4004150.0680000037], [-8990484.7263, 4004135.3822000027], [-8990439.2728, 4004118.0271999985], [-8990393.8012, 4004095.1723000035], [-8990154.3615, 4003944.595399998], [-8990064.2849, 4003897.490500003], [-8989736.1967, 4003773.847400002], [-8989433.0733, 4003697.047600001], [-8989378.25, 4003690.9275999963], [-8989313.9001, 4003700.6309999973], [-8989151.4907, 4003742.977499999], [-8989010.8274, 4003769.411399998], [-8988893.6203, 4003809.707800001], [-8988792.5057, 4003814.224299997], [-8988692.7801, 4003798.903999999], [-8988599.2498, 4003768.9267999977], [-8988547.7164, 4003756.9507], [-8988492.8028, 4003761.159900002], [-8988327.6198, 4003801.9580999985], [-8988196.126, 4003838.4288000017], [-8987988.5561, 4003901.410700001], [-8987934.4374, 4003911.887000002], [-8987870.4149, 4003914.852300003], [-8987807.3669, 4003910.3391000032], [-8987746.7246, 4003908.1658999994], [-8987733.2472, 4003849.4275999963], [-8987722.8513, 4003749.0161999986], [-8987728.2378, 4003703.2742], [-8987746.6137, 4003607.147500001], [-8987745.7007, 4003559.6426], [-8987729.2104, 4003455.505599998], [-8987731.8355, 4003364.137699999], [-8987722.1404, 4003328.544500001], [-8987704.8869, 4003299.803000003], [-8987697.0551, 4003275.7638000026], [-8987697.0474, 4003275.7004000023], [-8987678.1983, 4003118.524700001], [-8987677.2956, 4003106.3928000033], [-8987693.0806, 4003052.0667999983], [-8987707.3499, 4002944.6411999986], [-8987649.6367, 4002878.2397999987], [-8987588.5077, 4002926.2541000023], [-8987558.2727, 4002922.108099997], [-8987531.4185, 4002893.9179999977], [-8987503.8496, 4002843.1262999997], [-8987387.6133, 4002819.270800002], [-8987319.289, 4002778.729800001], [-8987231.0235, 4002761.1027999967], [-8987167.8619, 4002741.2934999987], [-8987080.4198, 4002719.9386000037], [-8986996.2594, 4002724.367899999], [-8986923.3076, 4002727.050999999], [-8986891.1288, 4002689.9645000026], [-8986836.0716, 4002682.761500001], [-8986765.1446, 4002657.6093999967], [-8986734.4361, 4002656.644699998], [-8986691.338, 4002666.0895000026], [-8986586.2679, 4002664.4789000005], [-8986503.5839, 4002654.2792000026], [-8986432.8431, 4002634.9597999975], [-8986335.8858, 4002636.0737999976], [-8986271.6304, 4002648.1028999984], [-8986231.2685, 4002634.0974999964], [-8986220.3365, 4002596.6142000034], [-8986217.7895, 4002556.5437999964], [-8986177.3731, 4002559.0471], [-8986154.0506, 4002576.5023000017], [-8986120.2632, 4002581.9306000024], [-8986091.0239, 4002603.1872999966], [-8986042.9732, 4002605.8659999967], [-8985955.9726, 4002632.845899999], [-8985925.5274, 4002684.607000001], [-8985865.2597, 4002663.971000001], [-8985844.8177, 4002670.9848999977], [-8985810.8692, 4002684.0632999986], [-8985774.2476, 4002750.9860000014], [-8985727.3434, 4002862.1300000027], [-8985642.5637, 4003002.4343999997], [-8985668.1656, 4003018.295400001], [-8985780.3409, 4003041.1718000025], [-8985773.6168, 4003081.9777999967], [-8985786.496, 4003115.0024000034], [-8985812.6215, 4003141.7009000033], [-8985848.0115, 4003145.815899998], [-8985888.5787, 4003118.520199999], [-8986000.2885, 4003141.5102000013], [-8986088.968, 4003143.9692], [-8986136.7684, 4003159.441399999], [-8986172.3984, 4003212.8708999977], [-8986198.5639, 4003229.536899999], [-8986245.1273, 4003233.5287000015], [-8986200.4957, 4003506.6450000033], [-8985626.2829, 4004289.6520000026], [-8985587.5949, 4004325.1169999987], [-8985503.8115, 4004365.107000001], [-8985262.6996, 4004203.5939000025], [-8984969.2886, 4004006.9794000015], [-8984900.3978, 4003960.576200001], [-8984822.9065, 4003905.9293000028], [-8984759.21, 4003859.0058000013], [-8984707.9889, 4003819.9530000016], [-8984617.6023, 4003749.6099999994], [-8984529.4841, 4003676.4206999987], [-8984443.723, 4003600.4591000006], [-8984360.4053, 4003521.8017000034], [-8984279.6151, 4003440.527800001], [-8984201.4337, 4003356.7194000036], [-8984125.9397, 4003270.461000003], [-8984053.2092, 4003181.8396999985], [-8983944.1969, 4003047.7968000025], [-8983909.5738, 4003005.2245000005], [-8983527.6387, 4002535.5693000033], [-8983023.826, 4001916.1730000004], [-8982789.686, 4001628.3264999986], [-8982629.5569, 4001431.4606000036], [-8982312.5199, 4001041.525899999], [-8982177.1405, 4000875.0111000016], [-8981962.8816, 4000611.9470999986], [-8981402.7044, 3999930.783], [-8981089.4692, 3999548.598099999], [-8981013.6999, 3999455.856200002], [-8980968.9644, 3999470.590499997], [-8980941.2686, 3999480.382799998], [-8980941.2559, 3999480.382799998], [-8981188.7928, 3999782.7029], [-8980814.029, 3999638.9089], [-8980274.405, 3999689.157899998], [-8979411.8375, 4000083.2611000016], [-8979482.9708, 4000342.2502999976], [-8979158.6049, 4000536.5725999996], [-8979052.0085, 4000408.1926999986], [-8978910.6454, 4000309.2019999996], [-8978803.805, 4000283.4023], [-8978656.2258, 4000334.7392999977], [-8978631.5566, 4000459.048799999], [-8978540.3425, 4000677.8396999985], [-8978591.3146, 4000896.3479999974], [-8978682.7887, 4001143.109700002], [-8978580.4282, 4001155.8044999987], [-8978466.3588, 4001104.780000001], [-8978316.1267, 4001112.929200001], [-8978105.3488, 4001176.3891000003], [-8978035.4076, 4001263.2468999997], [-8977599.6199, 4001318.1196999997], [-8977375.385, 4001434.5451999977], [-8977020.6716, 4001436.657499999], [-8977021.1572, 4001295.8237000033], [-8976959.9544, 4001114.516900003], [-8976843.9747, 4000915.4309], [-8976753.9669, 4000829.4365999997], [-8976792.1095, 4000797.096199997], [-8976558.8344, 4000651.349100001], [-8976342.0481, 4000530.4712999985], [-8976382.5447, 4000354.2348999977], [-8976386.666, 4000336.2994000018], [-8976339.1687, 3999947.189199999], [-8976195.8383, 4000563.3303999975], [-8976038.8112, 4000415.9082999974], [-8975954.8274, 4000326.652400002], [-8975878.327, 4000243.999300003], [-8975764.5783, 4000161.4180999994], [-8975046.8965, 3999859.160400003], [-8974976.6954, 3999788.181900002], [-8974927.1282, 3999717.785400003], [-8974873.1471, 3999601.5945999995], [-8974806.5504, 3999326.6819999963], [-8974745.6881, 3999211.5036000013], [-8974767.3941, 3999135.6771000028], [-8974719.6012, 3999145.916699998], [-8974686.282, 3999141.963799998], [-8974531.9756, 3999076.553000003], [-8974489.9046, 3999053.8643999994], [-8974432.7361, 3999013.492399998], [-8974411.6046, 3999003.897399999], [-8974377.1918, 3998968.998800002], [-8974368.2478, 3998953.7624000013], [-8974303.4611, 3998924.8999999985], [-8974250.3619, 3998899.4932999983], [-8974214.0609, 3998886.248999998], [-8973985.8395, 3998780.2317999974], [-8973970.0118, 3998775.843800001], [-8973909.3678, 3998747.911399998], [-8973741.179, 3998681.019100003], [-8973624.7724, 3998638.0569999963], [-8973071.6947, 3998417.8209000006], [-8973017.5187, 3998399.3682999983], [-8972887.7274, 3998345.829099998], [-8972903.5598, 3998334.898000002], [-8972919.6753, 3998321.501500003], [-8972927.7291, 3998316.2885000035], [-8972930.6552, 3998311.8346000016], [-8972937.2356, 3998305.8840999976], [-8972948.1993, 3998293.2590000033], [-8972988.3468, 3998248.7551999986], [-8973001.8419, 3998238.396399997], [-8973016.2276, 3998225.8260999992], [-8973025.3126, 3998215.0075000003], [-8973041.2509, 3998200.2282000035], [-8973056.9408, 3998181.724299997], [-8973062.6818, 3998168.8856000006], [-8973063.0959, 3998153.525799997], [-8973063.8805, 3998134.2377000004], [-8973059.3178, 3998117.7871999964], [-8973056.1715, 3998103.128200002], [-8973051.9538, 3998089.5370000005], [-8973046.3024, 3998078.7981999964], [-8973039.2263, 3998068.411200002], [-8973033.2476, 3998050.1691000015], [-8973027.9546, 3998038.7172000036], [-8973020.8867, 3998026.186800003], [-8973004.9263, 3998013.2651000023], [-8972987.175, 3998003.5516000018], [-8972966.5843, 3997992.041100003], [-8972945.6421, 3997979.4574000016], [-8972928.3165, 3997973.842], [-8972893.8855, 3997963.3910000026], [-8972853.4519, 3997970.6877999976], [-8972808.9015, 3997976.3126000017], [-8972774.2366, 3997984.459399998], [-8972745.3408, 3997993.4565000013], [-8972714.8116, 3997998.3068000004], [-8972682.076, 3997998.0825000033], [-8972641.1937, 3997988.292199999], [-8972624.3435, 3997979.8158000037], [-8972611.8569, 3997968.0419000015], [-8972599.0734, 3997959.412799999], [-8972589.9968, 3997949.6538999975], [-8972583.7694, 3997939.6203000024], [-8972580.3891, 3997929.8834000006], [-8972574.4595, 3997916.4191000015], [-8972570.5183, 3997904.3922000006], [-8972564.3118, 3997888.924800001], [-8972560.6554, 3997876.899099998], [-8972558.974, 3997869.742899999], [-8972557.4833, 3997863.7410999984], [-8972549.3746, 3997848.4793], [-8972537.1869, 3997832.030100003], [-8972525.0015, 3997814.995099999], [-8972521.5665, 3997797.9941999987], [-8972509.415, 3997772.172600001], [-8972499.3813, 3997755.552199997], [-8972499.6553, 3997731.130099997], [-8972497.3848, 3997714.7195999995], [-8972498.6077, 3997700.0798999965], [-8972500.9974, 3997685.444600001], [-8972503.9727, 3997670.225900002], [-8972509.8692, 3997653.847000003], [-8972516.3557, 3997635.713200003], [-8972530.4078, 3997622.2947999984], [-8972544.4666, 3997607.1191999987], [-8972563.7689, 3997593.721000001], [-8972584.2175, 3997585.599299997], [-8972603.4814, 3997582.159199998], [-8972633.2368, 3997581.1027000025], [-8972653.0616, 3997583.522399999], [-8972664.7509, 3997577.7097999975], [-8972682.2581, 3997576.0200000033], [-8972707.3511, 3997573.7738000005], [-8972735.3606, 3997571.5386999995], [-8972755.8137, 3997562.245099999], [-8972789.0958, 3997554.1724999994], [-8972820.6166, 3997549.022], [-8972851.5339, 3997549.140900001], [-8972878.3323, 3997558.6162], [-8972895.207, 3997569.8106999993], [-8972908.5549, 3997588.020800002], [-8972917.2338, 3997606.7989000008], [-8972919.4959, 3997625.5522999987], [-8972910.6544, 3997649.535099998], [-8972902.9994, 3997668.2506000027], [-8972901.7725, 3997684.061800003], [-8972905.1836, 3997707.5062000006], [-8972907.4367, 3997728.6027999967], [-8972907.9153, 3997756.1362000033], [-8972914.831, 3997778.4224999994], [-8972932.1215, 3997790.7739000022], [-8972954.4281, 3997797.3194999993], [-8972971.9244, 3997798.5582000017], [-8972981.846, 3997797.4245999977], [-8973004.6036, 3997795.7546000034], [-8973025.6512, 3997783.5337999985], [-8973043.1899, 3997773.6426], [-8973067.1896, 3997752.0605999976], [-8973085.3581, 3997729.8703999966], [-8973093.0261, 3997707.6401000023], [-8973097.7838, 3997683.6415000036], [-8973101.3792, 3997658.466799997], [-8973106.1549, 3997629.7820999995], [-8973105.6957, 3997596.976999998], [-8973102.3177, 3997564.7466999963], [-8973095.9719, 3997545.977600001], [-8973089.0382, 3997528.3779999986], [-8973077.3228, 3997514.929200001], [-8973070.0172, 3997503.054899998], [-8973058.4018, 3997486.9305000007], [-8973046.1002, 3997475.8286999986], [-8973033.6432, 3997461.711099997], [-8973017.7304, 3997435.1855999976], [-8972998.982, 3997420.0106000006], [-8972982.4725, 3997411.7629000023], [-8972971.2268, 3997398.3608999997], [-8972958.5418, 3997378.900600001], [-8972956.2767, 3997364.527400002], [-8972953.2647, 3997343.162900001], [-8972956.4492, 3997319.104699999], [-8972961.832, 3997301.8253000006], [-8972971.0948, 3997282.0911], [-8972984.7525, 3997257.1018999964], [-8972996.6537, 3997233.8633999974], [-8973005.4972, 3997209.2951999977], [-8973002.5264, 3997185.121100001], [-8972998.6525, 3997164.036799997], [-8972993.6943, 3997145.0771000013], [-8972991.2704, 3997121.076200001], [-8972980.6345, 3997107.1457], [-8972963.0945, 3997090.0319000036], [-8972938.0169, 3997070.9949999973], [-8972913.5464, 3997057.6427000016], [-8972893.4581, 3997049.358000003], [-8972857.6462, 3997042.2754999995], [-8972833.7734, 3997037.1328999996], [-8972807.3279, 3997047.132799998], [-8972785.9049, 3997059.0459999964], [-8972758.214, 3997065.8841999993], [-8972739.3131, 3997075.912900001], [-8972721.6939, 3997079.6331999972], [-8972708.488, 3997080.2136999965], [-8972693.4126, 3997076.367399998], [-8972677.0992, 3997067.465499997], [-8972667.673, 3997066.1662999988], [-8972653.282, 3997047.8016000018], [-8972648.3173, 3997030.7358999997], [-8972652.7692, 3997017.4948000014], [-8972667.2953, 3997000.5042999983], [-8972680.5543, 3996986.034500003], [-8972701.97, 3996976.0155000016], [-8972729.0249, 3996971.0692000017], [-8972771.1599, 3996968.7062000036], [-8972796.9499, 3996965.648699999], [-8972818.9677, 3996962.576700002], [-8972847.2487, 3996965.842299998], [-8972874.2796, 3996967.208899997], [-8972902.5798, 3996965.4233999997], [-8972928.3436, 3996969.3105000034], [-8972950.9924, 3996965.6093000025], [-8972973.6676, 3996954.963399999], [-8973000.7415, 3996944.965599999], [-8973014.5928, 3996939.9679000005], [-8973018.37, 3996938.719700001], [-8973030.9686, 3996932.454400003], [-8973050.5001, 3996921.7963000014], [-8973062.4819, 3996912.372100003], [-8973076.2258, 3996906.1005999967], [-8973097.7947, 3996895.3743999973], [-8973114.8803, 3996884.1806999967], [-8973143.1817, 3996872.1290000007], [-8973176.3807, 3996869.5537], [-8973210.9101, 3996871.036399998], [-8973232.4192, 3996876.0724000037], [-8973257.4808, 3996890.579400003], [-8973285.675, 3996906.899899997], [-8973305.3174, 3996931.2942999974], [-8973326.3188, 3996952.0908999965], [-8973350.4564, 3996973.8002000004], [-8973366.028, 3996980.655000001], [-8973392.108, 3996979.909400001], [-8973402.2348, 3996971.2195999995], [-8973418.2544, 3996961.4258999974], [-8973431.217, 3996944.299999997], [-8973440.8223, 3996925.1906000003], [-8973452.1162, 3996904.398199998], [-8973454.7445, 3996876.5341000035], [-8973453.5603, 3996856.3095000014], [-8973447.3452, 3996825.4067], [-8973438.7707, 3996803.1965999976], [-8973423.3271, 3996786.4136999995], [-8973405.5925, 3996767.891900003], [-8973381.5712, 3996741.272500001], [-8973353.5209, 3996716.9444999993], [-8973326.6196, 3996692.6208999977], [-8973296.8642, 3996663.672799997], [-8973284.1234, 3996638.9619000033], [-8973265.375, 3996612.786799997], [-8973244.6967, 3996581.3835999966], [-8973236.9548, 3996566.344499998], [-8973240.9207, 3996548.739699997], [-8973221.5151, 3996524.5200000033], [-8973202.8516, 3996510.5697000027], [-8973194.737, 3996494.7082], [-8973180.2039, 3996477.6494000033], [-8973172.682, 3996459.444799997], [-8973158.1313, 3996447.076700002], [-8973142.4018, 3996437.635499999], [-8973133.1127, 3996423.528499998], [-8973117.3699, 3996417.6052], [-8973099.8799, 3996410.5024999976], [-8973084.1305, 3996406.338100001], [-8973064.3071, 3996398.6401999965], [-8973042.1127, 3996400.3140999973], [-8973015.8266, 3996403.1450999975], [-8972980.1737, 3996412.3894999996], [-8972954.4537, 3996419.9130000025], [-8972924.2566, 3996436.003899999], [-8972901.9476, 3996446.914800003], [-8972878.9421, 3996449.025700003], [-8972852.6525, 3996450.7573999986], [-8972835.8944, 3996441.8957], [-8972826.8062, 3996431.963799998], [-8972822.8287, 3996422.0516000018], [-8972821.4229, 3996407.750699997], [-8972828.0467, 3996393.847199999], [-8972837.7424, 3996382.9711000025], [-8972854.0311, 3996367.6093000025], [-8972872.3631, 3996348.472000003], [-8972897.3641, 3996328.487400003], [-8972927.5631, 3996313.469999999], [-8972971.1158, 3996292.6832000017], [-8973006.518, 3996281.1779000014], [-8973038.7751, 3996272.3435999975], [-8973064.7802, 3996273.3236000016], [-8973087.2552, 3996280.452200003], [-8973122.3127, 3996283.2272000015], [-8973151.2448, 3996283.0442999974], [-8973174.3275, 3996284.012699999], [-8973195.9271, 3996290.844300002], [-8973209.6264, 3996300.286799997], [-8973224.5291, 3996300.6371000037], [-8973236.8139, 3996297.7493999973], [-8973254.6466, 3996296.0568000004], [-8973280.6617, 3996294.395199999], [-8973302.3112, 3996288.0217999965], [-8973324.567, 3996275.781800002], [-8973333.5931, 3996284.619400002], [-8973350.9393, 3996281.8813000023], [-8973356.0601, 3996277.0490000024], [-8973366.3159, 3996268.8511999995], [-8973375.1681, 3996263.942900002], [-8973384.5449, 3996257.2293], [-8973407.6231, 3996244.032200001], [-8973417.9629, 3996240.083800003], [-8973427.2607, 3996231.612300001], [-8973433.9112, 3996223.1308000013], [-8973437.9362, 3996208.7907999977], [-8973440.8642, 3996204.5485000014], [-8973447.8835, 3996200.2365999967], [-8973459.7846, 3996189.7947999984], [-8973463.6628, 3996180.3768000007], [-8973468.4031, 3996168.8184999973], [-8973473.5752, 3996155.9755000025], [-8973488.5725, 3996141.8834000006], [-8973503.9953, 3996128.2217999995], [-8973519.8305, 3996118.420400001], [-8973539.5261, 3996103.9174000025], [-8973554.9279, 3996095.829400003], [-8973569.1354, 3996089.293200001], [-8973583.7483, 3996079.8170000017], [-8973605.1361, 3996071.7278999984], [-8973624.147, 3996064.651100002], [-8973644.858, 3996056.218999997], [-8973666.6416, 3996051.339299999], [-8973671.6711, 3996047.8099000007], [-8973683.697, 3996041.8853999972], [-8973698.9014, 3996027.421099998], [-8973718.9469, 3996007.4430000037], [-8973733.5015, 3995982.603600003], [-8973741.1875, 3995952.8977999985], [-8973739.2326, 3995923.1559000015], [-8973732.452, 3995894.778800003], [-8973721.5346, 3995867.769199997], [-8973708.515, 3995850.4327000007], [-8973690.0097, 3995826.851999998], [-8973667.3184, 3995817.7770000026], [-8973644.6219, 3995810.0847999975], [-8973613.6334, 3995809.967699997], [-8973596.3178, 3995810.608900003], [-8973581.2423, 3995811.3627000004], [-8973569.6679, 3995811.589299999], [-8973550.533, 3995818.273599997], [-8973532.7356, 3995827.1251000017], [-8973513.3133, 3995838.6730000004], [-8973488.2274, 3995853.172600001], [-8973459.8986, 3995871.173299998], [-8973428.3337, 3995890.783200003], [-8973408.9244, 3995898.8178000003], [-8973396.8575, 3995904.788900003], [-8973377.8178, 3995911.475299999], [-8973358.7895, 3995915.1202000007], [-8973346.3441, 3995913.383299999], [-8973334.8556, 3995909.8992], [-8973323.4663, 3995901.5605000034], [-8973311.9551, 3995894.0062000006], [-8973306.8709, 3995882.184799999], [-8973299.8691, 3995868.8539000005], [-8973294.5809, 3995854.456699997], [-8973295.953, 3995835.766099997], [-8973302.9028, 3995816.5549999997], [-8973311.3169, 3995799.8158000037], [-8973325.1717, 3995773.231899999], [-8973342.9079, 3995759.4877000004], [-8973368.5649, 3995729.4958999977], [-8973393.1913, 3995712.325099997], [-8973414.0677, 3995705.1215000004], [-8973439.1534, 3995688.117399998], [-8973449.7665, 3995681.6471000016], [-8973464.9461, 3995667.975299999], [-8973477.4869, 3995659.9966999963], [-8973491.1159, 3995639.8084999993], [-8973507.8899, 3995615.095700003], [-8973529.8529, 3995596.6838999987], [-8973534.7704, 3995582.7440000027], [-8973537.9779, 3995561.4695999995], [-8973546.7168, 3995547.8932000026], [-8973556.3809, 3995540.2048999965], [-8973565.1992, 3995530.8641000018], [-8973579.8603, 3995513.4716000035], [-8973599.0415, 3995495.3982999995], [-8973616.8678, 3995484.0815000013], [-8973644.9798, 3995461.475400001], [-8973675.5002, 3995452.2092999965], [-8973707.2325, 3995447.6384999976], [-8973783.6846, 3995449.9014], [-8973803.0136, 3995450.119099997], [-8973818.2475, 3995451.0495999977], [-8973837.9272, 3995451.5327999964], [-8973858.8265, 3995447.987499997], [-8973870.8253, 3995435.9441], [-8973890.258, 3995426.6385999992], [-8973915.7866, 3995420.2415999994], [-8973934.8452, 3995414.902400002], [-8973957.4866, 3995412.101599999], [-8973979.7755, 3995407.4958999977], [-8974008.4955, 3995412.2927], [-8974031.4346, 3995426.085500002], [-8974051.4974, 3995440.5891000032], [-8974067.968, 3995455.0790000036], [-8974088.0534, 3995463.4505999982], [-8974114.9749, 3995468.9618000016], [-8974159.8706, 3995470.9328999966], [-8974197.6193, 3995462.7771999985], [-8974223.4821, 3995450.777099997], [-8974244.7263, 3995429.602300003], [-8974251.5043, 3995411.4842000008], [-8974258.8177, 3995388.1841999963], [-8974255.2747, 3995368.990699999], [-8974250.1812, 3995350.3100000024], [-8974244.5619, 3995334.2192], [-8974235.8261, 3995323.3005999997], [-8974229.7458, 3995312.6010999978], [-8974227.5358, 3995311.1379999965], [-8974220.4212, 3995300.9530000016], [-8974211.1749, 3995288.4773999974], [-8974198.3016, 3995279.6169999987], [-8974180.2564, 3995273.329099998], [-8974167.9166, 3995259.8052999973], [-8974153.5177, 3995244.7185999975], [-8974137.5759, 3995228.0710000023], [-8974120.0796, 3995212.972900003], [-8974099.9889, 3995201.4934], [-8974085.4742, 3995194.3016000018], [-8974064.5523, 3995188.7503999993], [-8974063.0727, 3995187.6498000026], [-8974036.9614, 3995173.4777999967], [-8973997.786, 3995154.5653000027], [-8973977.2917, 3995137.599299997], [-8973957.7389, 3995118.7603999972], [-8973949.3956, 3995100.9016999975], [-8973944.7724, 3995087.748300001], [-8973939.1904, 3995081.159400001], [-8973934.6054, 3995057.6850999966], [-8973927.1756, 3995045.4597000033], [-8973927.1355, 3995025.9199], [-8973930.0625, 3995022.9518000036], [-8973937.6387, 3994995.7700999975], [-8973948.8933, 3994984.553000003], [-8973963.9097, 3994966.7820999995], [-8973971.4092, 3994960.2422999963], [-8973982.6497, 3994952.7782000005], [-8973996.6969, 3994944.3862999976], [-8974021.8494, 3994943.8445999995], [-8974051.99, 3994943.9575000033], [-8974094.1533, 3994953.1947000027], [-8974113.7054, 3994963.8608999997], [-8974143.7677, 3994985.159199998], [-8974181.315, 3995020.1050999984], [-8974199.2821, 3995051.9514999986], [-8974223.283, 3995082.3071999997], [-8974247.3009, 3995108.1228], [-8974287.8909, 3995135.5134999976], [-8974331.5286, 3995153.8356000036], [-8974368.3649, 3995166.4482000023], [-8974396.2868, 3995161.858000003], [-8974427.1369, 3995155.020800002], [-8974451.921, 3995152.503700003], [-8974470.6298, 3995146.943400003], [-8974489.3488, 3995138.5680000037], [-8974506.2025, 3995129.2475000024], [-8974541.1479, 3995116.779600002], [-8974560.7895, 3995103.2324], [-8974584.9354, 3995094.2418000028], [-8974610.6328, 3995073.1503000036], [-8974645.3778, 3995050.5788000003], [-8974662.0879, 3995014.3211999983], [-8974669.7557, 3994978.0304000005], [-8974671.3843, 3994944.743900001], [-8974666.9904, 3994909.9219999984], [-8974647.5041, 3994881.0977], [-8974624.9707, 3994861.3418999985], [-8974608.4821, 3994837.0687000006], [-8974571.6582, 3994800.227499999], [-8974532.4066, 3994780.3386999965], [-8974497.0937, 3994758.7721000016], [-8974477.4961, 3994741.212399997], [-8974462.3759, 3994728.181900002], [-8974455.7216, 3994704.465099998], [-8974469.5335, 3994595.517499998], [-8974482.7607, 3994581.0151000023], [-8974496.5436, 3994594.5151999965], [-8974517.7945, 3994623.4224999994], [-8974525.6466, 3994640.0656000003], [-8974546.4314, 3994661.090599999], [-8974566.51, 3994678.5012999997], [-8974591.722, 3994697.3510000035], [-8974604.507, 3994714.037100002], [-8974624.6069, 3994725.668899998], [-8974638.2328, 3994737.2770000026], [-8974659.0443, 3994751.078599997], [-8974685.2218, 3994769.9563999996], [-8974703.6084, 3994783.556900002], [-8974733.8207, 3994793.725299999], [-8974786.8531, 3994808.195600003], [-8974811.228, 3994824.7344999984], [-8974834.7155, 3994841.3051000014], [-8974882.4297, 3994840.7503999993], [-8974910.5164, 3994836.519100003], [-8974932.8537, 3994826.4878999963], [-8974939.8753, 3994816.901299998], [-8974986.1648, 3994809.237400003], [-8975024.3727, 3994802.362400003], [-8975052.2635, 3994794.074000001], [-8975058.1495, 3994793.300800003], [-8975061.8169, 3994793.2704000026], [-8975064.7604, 3994793.253399998], [-8975081.9729, 3994769.2443000004], [-8975101.4873, 3994744.033], [-8975098.0053, 3994712.2365999967], [-8975100.9324, 3994698.522399999], [-8975145.5696, 3994688.5722000003], [-8975187.3424, 3994674.9997999966], [-8975258.5905, 3994666.590599999], [-8975307.8838, 3994649.191399999], [-8975310.1378, 3994648.2386000007], [-8975370.2293, 3994628.711199999], [-8975399.0712, 3994610.034599997], [-8975429.349, 3994592.0856000036], [-8975450.2596, 3994578.4365999997], [-8975486.3233, 3994551.8401999995], [-8975507.9763, 3994531.6928000003], [-8975538.9603, 3994517.3577999994], [-8975577.8775, 3994497.031000003], [-8975625.0419, 3994480.417000003], [-8975664.6089, 3994463.775600001], [-8975708.6961, 3994457.8308999985], [-8975737.5611, 3994459.460500002], [-8975766.4478, 3994454.9868], [-8975789.2185, 3994461.1718000025], [-8975819.5869, 3994467.3840000033], [-8975843.888, 3994470.522699997], [-8975872.6936, 3994488.9355999976], [-8975896.9949, 3994492.0742999986], [-8975921.2799, 3994499.7902000025], [-8975957.7046, 3994512.1269999966], [-8975989.5981, 3994516.818400003], [-8976009.2869, 3994535.1985], [-8976038.1037, 3994550.5595000014], [-8976060.8478, 3994564.3730999976], [-8976088.1613, 3994575.1511999965], [-8976110.9002, 3994590.4904000014], [-8976127.5719, 3994602.7563999966], [-8976154.8587, 3994621.1635000035], [-8976176.0675, 3994639.5489000008], [-8976178.5279, 3994641.300800003], [-8976215.516, 3994656.473200001], [-8976253.4237, 3994679.4953999966], [-8976282.2196, 3994700.9592999965], [-8976317.1206, 3994714.8156000003], [-8976348.9292, 3994743.9192999974], [-8976370.1706, 3994753.149599999], [-8976386.8533, 3994762.3637999967], [-8976417.2335, 3994765.5227999985], [-8976452.1669, 3994770.223700002], [-8976476.4634, 3994774.8871000037], [-8976512.9058, 3994782.6448], [-8976553.9175, 3994787.366899997], [-8976593.399, 3994795.1350999996], [-8976632.8698, 3994805.9548999965], [-8976669.2859, 3994821.3413999975], [-8976692.1574, 3994844.799999997], [-8976722.3216, 3994872.3461000025], [-8976733.2088, 3994882.3769999966], [-8976735.1534, 3994894.034599997], [-8976743.6624, 3994907.5654999986], [-8976748.898, 3994925.1762000024], [-8976750.1987, 3994942.4130999967], [-8976752.3427, 3994957.4914999977], [-8976745.3429, 3994976.458800003], [-8976734.6632, 3994999.835000001], [-8976720.8111, 3995021.0715000033], [-8976703.7498, 3995050.810800001], [-8976696.2458, 3995075.262500003], [-8976684.4726, 3995108.213399999], [-8976679.0734, 3995136.9294999987], [-8976670.4427, 3995180.5342999995], [-8976665.2333, 3995239.6611], [-8976662.4765, 3995306.406199999], [-8976668.2053, 3995352.9015000015], [-8976684.8769, 3995398.5901999995], [-8976712.4851, 3995445.162600003], [-8976751.0393, 3995490.0834000036], [-8976769.4942, 3995507.048299998], [-8976799.5253, 3995536.846900001], [-8976857.4721, 3995566.747299999], [-8976890.3756, 3995602.0067000017], [-8976930.0389, 3995623.0768000036], [-8976994.1982, 3995638.7519000024], [-8977049.3933, 3995653.609700002], [-8977095.7556, 3995651.858099997], [-8977168.1554, 3995649.5587000027], [-8977223.3902, 3995652.9384000003], [-8977272.6541, 3995661.6806000024], [-8977340.9489, 3995691.804700002], [-8977382.3938, 3995714.6511999965], [-8977389.1993, 3995717.9043999985], [-8977403.2222, 3995724.276799999], [-8977407.7726, 3995727.0978000015], [-8977419.1355, 3995734.142099999], [-8977437.2199, 3995748.5375000015], [-8977494.0883, 3995804.271300003], [-8977520.9915, 3995829.158399999], [-8977541.3657, 3995848.0058000013], [-8977557.7415, 3995873.3641000018], [-8977565.4938, 3995904.9570000023], [-8977577.6593, 3995928.0419000015], [-8977589.8699, 3995956.0908999965], [-8977624.7907, 3996026.241899997], [-8977643.0831, 3996093.3751000017], [-8977689.8731, 3996181.4692], [-8977725.7418, 3996231.231200002], [-8977754.1901, 3996270.6981000006], [-8977792.677, 3996321.157899998], [-8977830.3575, 3996372.407399997], [-8977877.3671, 3996417.1780999973], [-8977937.1412, 3996468.8060000017], [-8977997.7533, 3996505.2260000035], [-8978029.031, 3996524.0195000023], [-8978083.8085, 3996556.9334999993], [-8978133.3218, 3996582.9777000025], [-8978180.3062, 3996615.0591999963], [-8978227.4947, 3996642.041100003], [-8978303.1307, 3996675.0737000033], [-8978374.0944, 3996694.853500001], [-8978408.4034, 3996708.8989000022], [-8978458.3474, 3996720.0116000026], [-8978539.3784, 3996787.315700002], [-8978575.8467, 3996846.2322999984], [-8978605.3314, 3996919.568099998], [-8978621.0083, 3996973.2908999994], [-8978622.3376, 3997024.3191], [-8978624.5044, 3997082.7880000025], [-8978636.0967, 3997146.0287000015], [-8978637.4976, 3997198.1752000004], [-8978635.7777, 3997242.4113000035], [-8978630.1344, 3997283.474200003], [-8978610.3184, 3997327.727600001], [-8978585.0006, 3997370.2277999967], [-8978534.4897, 3997417.4614000022], [-8978474.2435, 3997437.0106000006], [-8978408.0429, 3997438.0408999994], [-8978333.82, 3997454.5680000037], [-8978276.5822, 3997480.033699997], [-8978229.4814, 3997506.6228], [-8978204.0128, 3997527.037100002], [-8978012.9248, 3997920.900899999], [-8978057.9991, 3998201.933600001], [-8978180.0564, 3998362.400600001], [-8978265.2855, 3998429.9494000003], [-8978371.4139, 3998477.282399997], [-8978612.1177, 3998470.3779999986], [-8979062.4887, 3998385.571999997], [-8979240.4698, 3998313.7139], [-8979535.2013, 3998024.699699998], [-8979667.4267, 3997923.8216999993], [-8979687.789, 3997907.1027999967], [-8979727.584, 3997881.4179000035], [-8979727.3068, 3997803.6978999972], [-8979768.3479, 3997767.7864999995], [-8979866.3957, 3997718.8211999983], [-8980098.5931, 3997707.9426999986], [-8980204.9729, 3997688.283200003], [-8980232.1607, 3997667.4460000023], [-8980315.7686, 3997644.3659000024], [-8980402.7563, 3997581.460699998], [-8980454.0018, 3997499.922799997], [-8980468.3655, 3997417.1787], [-8980487.9985, 3997259.855700001], [-8980487.4645, 3997165.835199997], [-8980543.9399, 3997029.1965000033], [-8980597.0753, 3997004.660099998], [-8980659.5112, 3997013.3445999995], [-8980715.2868, 3997041.406300001], [-8980765.9864, 3997076.726499997], [-8980823.7487, 3997107.2189000025], [-8980887.7, 3997120.7568000033], [-8980960.1598, 3997116.134499997], [-8981022.9715, 3997107.844499998], [-8981155.8554, 3997024.5820000023], [-8981216.4499, 3996948.1978999972], [-8981256.6855, 3996886.7029], [-8981301.5566, 3996822.5854], [-8981388.6726, 3996727.3012000024], [-8981482.5688, 3996653.390900001], [-8981521.7222, 3996626.2787000015], [-8981596.3167, 3996552.6611], [-8981676.7122, 3996473.2531000003], [-8981719.8922, 3996403.6877000034], [-8981793.7408, 3996302.686800003], [-8981852.5126, 3996229.8508], [-8981894.8131, 3996215.8748999983], [-8981928.6359, 3996234.2321000025], [-8981979.2439, 3996255.1295000017], [-8981981.3142, 3996286.8725999966], [-8982031.279, 3996302.032300003], [-8982096.0803, 3996331.159400001], [-8982215.0684, 3996323.8734000027], [-8982250.8628, 3996317.404600002], [-8982313.0166, 3996299.046099998], [-8982341.2815, 3996288.617700003], [-8982364.1329, 3996282.848700002], [-8982364.1446, 3996282.845200002], [-8982423.5226, 3996264.847099997], [-8982457.0571, 3996255.9772000015], [-8982501.1921, 3996250.727600001], [-8982625.6465, 3996229.528300002], [-8982673.0012, 3996220.1652999967], [-8982804.0398, 3996218.2283999994], [-8982977.4105, 3996205.0023000017], [-8983121.9247, 3996186.8083000034], [-8983165.336, 3996169.5200999975], [-8983202.0195, 3996171.637500003], [-8983220.6452, 3996189.778300002], [-8983303.3315, 3996201.0735], [-8983381.9706, 3996227.7630999982], [-8983442.4896, 3996267.0581], [-8983500.5178, 3996311.8852000013], [-8983543.7154, 3996358.9591000006], [-8983585.8291, 3996386.563500002], [-8983643.8912, 3996419.9394999966], [-8983782.7979, 3996495.9175999984], [-8983917.2067, 3996550.1247000024], [-8984028.7899, 3996611.1356000006], [-8984109.3054, 3996687.3298000023], [-8984132.2428, 3996772.397699997], [-8984107.8759, 3996836.0803000033], [-8984059.4114, 3996868.3237000033], [-8984011.6401, 3996899.295400001], [-8983952.9444, 3996961.2431999967], [-8983908.5287, 3996997.980899997], [-8983875.1008, 3997066.0515], [-8983852.7839, 3997122.329599999], [-8983843.6736, 3997160.5609000027], [-8983835.9521, 3997197.404799998], [-8983831.5427, 3997286.4284999967], [-8983845.8553, 3997365.7683999985], [-8983860.5972, 3997404.6094999984], [-8983862.0191, 3997408.355700001], [-8983873.343, 3997438.190899998], [-8983898.7806, 3997485.0418], [-8983927.3727, 3997542.8762999997], [-8983963.9389, 3997577.6327000037], [-8984014.1813, 3997606.6532000005], [-8984046.4818, 3997624.7934999987], [-8984064.3831, 3997650.1116999984], [-8984098.2796, 3997671.128399998], [-8984140.4914, 3997703.9261000007], [-8984196.5385, 3997735.1292999983], [-8984266.4116, 3997768.005599998], [-8984334.6443, 3997805.7783999965], [-8984396.2979, 3997868.8572999984], [-8984434.0426, 3997923.021899998], [-8984463.2971, 3997979.0628999993], [-8984488.9849, 3998027.7031000033], [-8984539.6205, 3998096.715599999], [-8984582.8252, 3998159.9750000015], [-8984658.5701, 3998223.719300002], [-8984718.6969, 3998246.896899998], [-8984802.1099, 3998259.1503000036], [-8984869.3493, 3998260.613499999], [-8984969.2824, 3998221.3561000004], [-8985028.9684, 3998157.8779999986], [-8985045.2733, 3998122.2629000023], [-8985066.227, 3998075.590499997], [-8985077.3567, 3998015.149899997], [-8985070.0385, 3997963.021899998], [-8985046.1256, 3997901.9934], [-8985004.5789, 3997814.2885000035], [-8984977.4314, 3997722.149099998], [-8984974.9231, 3997603.3699999973], [-8985010.0809, 3997512.5966000035], [-8985031.9034, 3997446.229000002], [-8985051.037, 3997377.0984999985], [-8985064.7746, 3997258.783699997], [-8985051.4133, 3997192.8445999995], [-8985034.9819, 3997107.022500001], [-8985040.4297, 3997020.215800002], [-8985070.867, 3996937.6631999984], [-8985096.032, 3996878.1093000025], [-8985112.0124, 3996872.1893000007], [-8985127.4528, 3996816.480800003], [-8985158.8129, 3996776.8188000023], [-8985190.1472, 3996746.5710999966], [-8985237.0751, 3996727.8725000024], [-8985296.4488, 3996729.0824000016], [-8985363.0974, 3996736.588100001], [-8985442.1723, 3996771.3241000026], [-8985511.8215, 3996824.862300001], [-8985603.2678, 3996907.7487000003], [-8985726.8593, 3997046.162799999], [-8985798.4711, 3997145.732000001], [-8985809.9891, 3997228.1718000025], [-8985830.0822, 3997346.8791999966], [-8985856.067, 3997443.6306999996], [-8985890.0173, 3997525.862800002], [-8985889.9814, 3997539.1482999995], [-8985923.4984, 3997592.380900003], [-8985989.4349, 3997660.1939999983], [-8986073.9395, 3997757.706699997], [-8986204.947, 3997841.559299998], [-8986285.0852, 3997863.7481999993], [-8986372.967, 3997880.923299998], [-8986450.7873, 3997869.552699998], [-8986512.6332, 3997833.592100002], [-8986581.3302, 3997770.7831000015], [-8986612.1351, 3997700.5493], [-8986625.3811, 3997653.7075999975], [-8986635.278, 3997553.2026999965], [-8986632.8438, 3997538.0517000034], [-8986617.5946, 3997443.1358999982], [-8986591.5967, 3997363.1796000004], [-8986587.1409, 3997277.641599998], [-8986583.7099, 3997158.2731000036], [-8986574.4638, 3997115.0163000003], [-8986579.2205, 3997045.4447000027], [-8986581.3601, 3996986.9406000003], [-8986590.7851, 3996927.791199997], [-8986611.4401, 3996878.6449000016], [-8986624.7766, 3996842.776900001], [-8986648.0432, 3996807.600100003], [-8986676.5859, 3996780.4157000035], [-8986718.1167, 3996761.8652999997], [-8986780.4729, 3996735.9394999966], [-8986820.2443, 3996735.7685000002], [-8986963.0615, 3996761.0446000025], [-8987085.5131, 3996768.6886000037], [-8987210.9939, 3996732.3957], [-8987292.7273, 3996668.4239000008], [-8987348.1582, 3996615.4272999987], [-8987414.5121, 3996521.3972999975], [-8987482.067, 3996427.3706], [-8987581.2441, 3996254.690899998], [-8987638.1434, 3996186.5019000024], [-8987678.166, 3996160.6912999973], [-8987715.6639, 3996145.7408000007], [-8987750.6285, 3996144.9937999994], [-8987788.0525, 3996159.2991999984], [-8987832.1237, 3996178.636699997], [-8987866.1719, 3996211.3228999972], [-8987891.8876, 3996247.331699997], [-8987916.75, 3996291.6974000037], [-8987922.5101, 3996318.4607999995], [-8987931.6168, 3996338.545599997], [-8987940.686, 3996373.6767000034], [-8987944.6411, 3996456.4420000017], [-8987946.1783, 3996507.4368999973], [-8987894.3369, 3996598.4213000014], [-8987837.2268, 3996681.882299997], [-8987770.1633, 3996862.7016000003], [-8987725.8597, 3996967.8770999983], [-8987662.7797, 3997034.0485000014], [-8987570.4771, 3997111.156800002], [-8987510.7109, 3997160.097900003], [-8987450.4774, 3997213.0757], [-8987384.7142, 3997313.1347000003], [-8987362.8235, 3997379.2010999992], [-8987359.6047, 3997388.915600002], [-8987350.7286, 3997451.1674000025], [-8987359.0568, 3997485.6975999996], [-8987375.6824, 3997554.6292999983], [-8987428.0826, 3997611.7432999983], [-8987477.5964, 3997655.123499997], [-8987483.1161, 3997656.7760000005], [-8987581.0497, 3997670.9309], [-8987617.4899, 3997671.024099998], [-8987647.1849, 3997657.4844999984], [-8987683.6617, 3997643.1111999974], [-8987715.0363, 3997635.5326000005], [-8987768.421, 3997637.3703000024], [-8987809.0748, 3997646.8342000023], [-8987848.0167, 3997663.1010999978], [-8987896.2101, 3997707.473099999], [-8987933.3827, 3997753.519199997], [-8987954.437, 3997806.3325000033], [-8987967.0509, 3997845.5090000033], [-8987964.3638, 3997903.3686000034], [-8987964.326, 3997987.7038000003], [-8987983.1774, 3998132.4477000013], [-8988004.2016, 3998262.193099998], [-8988014.9007, 3998351.2173999995], [-8988019.8491, 3998393.8913000003], [-8988037.9613, 3998428.4724999964], [-8988057.0796, 3998465.088100001], [-8988070.1419, 3998497.6252000034], [-8988084.2002, 3998536.2595999986], [-8988098.2087, 3998562.800999999], [-8988106.3367, 3998578.977499999], [-8988126.9433, 3998596.9651999995], [-8988215.642, 3998704.6889000013], [-8988336.0118, 3998817.9174000025], [-8988375.685, 3998844.965999998], [-8988417.2576, 3998862.4302999973], [-8988490.0132, 3998881.816399999], [-8988526.6413, 3998885.6728999987], [-8988583.0774, 3998891.6146000028], [-8988668.3337, 3998892.984700002], [-8988735.8864, 3998868.2224999964], [-8988786.5806, 3998837.4355000034], [-8988850.2792, 3998771.474100001], [-8988894.8956, 3998717.2261999995], [-8988950.3936, 3998637.6388000026], [-8989007.1927, 3998516.9864000008], [-8989010.0157, 3998504.933600001], [-8989034.7177, 3998475.7766999975], [-8989137.6889, 3998377.028499998], [-8989216.3554, 3998363.7228000015], [-8989280.7039, 3998319.9565000013], [-8989336.8582, 3998259.9475999996], [-8989356.6491, 3998220.4384000003], [-8989358.9868, 3998157.8122999966], [-8989351.867, 3998097.048600003], [-8989350.5687, 3998085.9683], [-8989326.2611, 3998036.8583000004], [-8989303.9874, 3997988.4346999973], [-8989251.8995, 3997924.270199999], [-8989209.9171, 3997890.105700001], [-8989159.8067, 3997850.4714], [-8989138.0601, 3997872.387699999], [-8989149.4876, 3997895.476499997], [-8989196.2764, 3997920.048299998], [-8989196.2176, 3997944.5736000016], [-8989177.1866, 3997958.8341000006], [-8989145.2668, 3997972.3822000027], [-8989093.0029, 3997981.793300003], [-8989046.2257, 3997966.6917999983], [-8989004.8713, 3997953.6471000016], [-8988964.248, 3997918.8038000017], [-8988964.3945, 3997858.1718999967], [-8988978.1689, 3997773.0483999997], [-8988985.8341, 3997707.509999998], [-8988994.8211, 3997610.842], [-8988961.4635, 3997538.4268999994], [-8988929.3246, 3997482.3411], [-8988900.0591, 3997451.3180000037], [-8988849.5434, 3997395.6987000033], [-8988816.2986, 3997382.042199999], [-8988749.7357, 3997385.0116000026], [-8988652.0512, 3997356.5768000036], [-8988535.7487, 3997287.3699999973], [-8988477.7083, 3997207.865000002], [-8988449.8746, 3997108.594999999], [-8988461.5343, 3997018.8219000027], [-8988491.8426, 3996957.288900003], [-8988539.8132, 3996902.0650999993], [-8988596.0615, 3996863.5689999983], [-8988654.2948, 3996863.712700002], [-8988712.4443, 3996898.3143000007], [-8988735.2326, 3996934.917300001], [-8988736.1403, 3996989.2179000005], [-8988753.6686, 3997050.8691999987], [-8988780.6177, 3997100.2497000024], [-8988796.6218, 3997154.820600003], [-8988841.912, 3997231.5711999983], [-8988891.6146, 3997303.9114999995], [-8988937.0347, 3997327.6043], [-8988992.7562, 3997338.057400003], [-8989026.4939, 3997339.6136000007], [-8989085.185, 3997335.3351000026], [-8989165.9133, 3997317.844899997], [-8989262.8242, 3997281.2334999964], [-8989345.0926, 3997232.7951999977], [-8989429.0696, 3997168.965999998], [-8989513.7039, 3997131.334899999], [-8989578.0572, 3997120.4152000025], [-8989631.3092, 3997140.843000002], [-8989678.1001, 3997173.2512999997], [-8989712.8754, 3997235.159900002], [-8989712.7345, 3997295.1401999965], [-8989696.8843, 3997373.2624000013], [-8989678.5733, 3997443.0508999974], [-8989652.0914, 3997583.5693999976], [-8989650.87, 3997655.144299999], [-8989668.8383, 3997701.7709000036], [-8989677.7878, 3997740.9020000026], [-8989689.5178, 3997780.7380999997], [-8989712.3497, 3997831.7751], [-8989744.2531, 3997870.262599997], [-8989768.7567, 3997932.891400002], [-8989777.8954, 3998003.7260999978], [-8989768.3687, 3998061.652999997], [-8989752.8917, 3998155.7591999993], [-8989747.638, 3998283.8187000006], [-8989783.3653, 3998429.719999999], [-8989807.1923, 3998468.2224999964], [-8989824.3609, 3998490.369599998], [-8989847.229, 3998529.831100002], [-8989864.3308, 3998543.205600001], [-8989883.9741, 3998567.4532999992], [-8989890.1745, 3998575.107000001], [-8989950.4327, 3998612.1931999996], [-8989951.3157, 3998612.7365000024], [-8989959.2904, 3998613.838399999], [-8990022.0891, 3998622.514799997], [-8990088.0056, 3998624.9799999967], [-8990089.0382, 3998625.018600002], [-8990104.3588, 3998625.591499999], [-8990215.3942, 3998600.861100003], [-8990247.7332, 3998577.0878000036], [-8990280.5606, 3998552.9551], [-8990361.1045, 3998474.3279], [-8990395.6889, 3998411.9334999993], [-8990401.632, 3998344.2075999975], [-8990430.4163, 3998287.0658000037], [-8990484.1001, 3998239.133299999], [-8990574.229, 3998150.9174999967], [-8990638.5376, 3998057.8368000016], [-8990662.4515, 3998023.5895000026], [-8990673.1445, 3997931.3407000005], [-8990680.3761, 3997857.5837000012], [-8990679.1177, 3997789.482500002], [-8990687.7104, 3997738.4285999984], [-8990707.6702, 3997659.0270000026], [-8990753.2609, 3997609.1072999984], [-8990816.7372, 3997535.849799998], [-8990874.7237, 3997509.0266999975], [-8990924.1691, 3997510.557599999], [-8990970.732, 3997537.6180000007], [-8991006.2233, 3997572.939000003], [-8991037.4637, 3997621.3017999977], [-8991041.5589, 3997659.1050999984], [-8991020.5772, 3997695.802000001], [-8990996.0932, 3997736.6832000017], [-8990980.6987, 3997776.053000003], [-8990964.3495, 3997814.4597999975], [-8990948.9762, 3997844.2189000025], [-8990932.6507, 3997872.0538000017], [-8990915.3295, 3997917.1862000003], [-8990904.6526, 3997985.4004999995], [-8990916.9202, 3998060.395300001], [-8990936.8993, 3998120.835900001], [-8990957.0156, 3998191.6916999966], [-8990985.8347, 3998256.7475999966], [-8991034.9811, 3998312.4782999977], [-8991063.6491, 3998326.960199997], [-8991095.4807, 3998337.2551999986], [-8991132.4806, 3998349.2217999995], [-8991213.7364, 3998377.2776999995], [-8991273.0336, 3998385.0999], [-8991364.8965, 3998375.6941], [-8991444.3627, 3998347.998300001], [-8991501.846, 3998310.6416999996], [-8991536.3541, 3998279.9619999975], [-8991555.3382, 3998248.739], [-8991572.9281, 3998228.963299997], [-8991579.5773, 3998222.8543], [-8991600.6198, 3998203.2140000015], [-8991630.3672, 3998161.9513000026], [-8991651.1758, 3998124.1361000016], [-8991682.2329, 3998067.8759000003], [-8991711.0733, 3998003.5449], [-8991769.6509, 3997901.796400003], [-8991912.6466, 3997691.630099997], [-8992065.1329, 3997514.162799999], [-8992084.3458, 3997476.7228000015], [-8992105.4593, 3997445.0534000024], [-8992137.7068, 3997350.4365999997], [-8992150.4031, 3997282.5689999983], [-8992164.0522, 3997220.523199998], [-8992191.6355, 3997064.9963999987], [-8992228.8891, 3996984.979000002], [-8992306.5391, 3996906.3422000036], [-8992390.209, 3996870.0551000014], [-8992494.5935, 3996813.2716000006], [-8992603.9821, 3996767.8269999996], [-8992673.9751, 3996746.015299998], [-8992746.5577, 3996740.0200000033], [-8992818.2366, 3996748.076700002], [-8992884.4069, 3996776.3960999995], [-8992940.3622, 3996790.382100001], [-8992980.9332, 3996826.679700002], [-8993001.5919, 3996849.8374999985], [-8993015.3467, 3996873.7512999997], [-8993020.6419, 3996909.2048999965], [-8993019.0348, 3996944.644199997], [-8993006.6907, 3996980.0610999987], [-8992974.4194, 3997009.272399999], [-8992869.4731, 3997043.7788999975], [-8992710.2366, 3997132.7358999997], [-8992598.441, 3997232.5102000013], [-8992548.7348, 3997310.088200003], [-8992505.9368, 3997404.8927000016], [-8992486.3208, 3997484.8615999967], [-8992490.6487, 3997575.6850999966], [-8992503.1834, 3997665.1943000033], [-8992524.4308, 3997736.4509000033], [-8992525.6446, 3997740.521899998], [-8992562.0197, 3997816.701700002], [-8992652.126, 3997905.2804000005], [-8992734.4805, 3997972.9015000015], [-8992878.5734, 3998006.7546000034], [-8993047.7876, 3998007.968500003], [-8993230.3529, 3997980.8588000014], [-8993414.5653, 3997954.3761000037], [-8993515.5485, 3997954.5834000036], [-8993638.1441, 3997968.1199999973], [-8994004.9669, 3998037.7267000005], [-8994205.3645, 3998075.5516000018], [-8994361.5197, 3998142.2927], [-8994380.1047, 3998154.718800001], [-8994380.3275, 3998154.867700003], [-8994461.1727, 3998208.9209999964], [-8994617.1743, 3998356.586599998], [-8994750.4164, 3998463.1394999996], [-8994839.2798, 3998516.458800003], [-8994910.7761, 3998559.1787], [-8994972.3385, 3998579.971900001], [-8995026.4954, 3998595.061300002], [-8995040.745, 3998599.0315999985], [-8995055.9526, 3998601.404799998], [-8995058.3885, 3998601.7410999984], [-8995119.4309, 3998610.1679000035], [-8995144.3458, 3998610.5569999963], [-8995144.3601, 3998610.5573000014], [-8995188.5544, 3998611.1944999993], [-8995298.1445, 3998600.2195999995], [-8995343.1448, 3998588.1115999967], [-8995384.9728, 3998583.934600003], [-8995409.2304, 3998597.782899998], [-8995422.9594, 3998613.5062000006], [-8995435.0165, 3998668.0273], [-8995459.3767, 3998780.9705], [-8995483.8077, 3998881.1204999983], [-8995503.7038, 3998950.0481999964], [-8995514.8716, 3998980.1379999965], [-8995521.7207, 3998992.336000003], [-8995563.2136, 3999066.2316000015], [-8995643.0855, 3999152.3225999996], [-8995650.409, 3999158.849600002], [-8995742.0361, 3999240.5107000023], [-8995818.887, 3999293.8035999984], [-8995819.9831, 3999294.5516000018], [-8995849.8831, 3999314.954400003], [-8995888.0166, 3999340.4482999966], [-8995918.0765, 3999366.8874000013], [-8995921.6394, 3999370.0212000012], [-8995974.4954, 3999416.5102000013], [-8996002.2296, 3999440.9033999965], [-8996163.2115, 3999526.3227000013], [-8996205.6445, 3999541.0135999992], [-8996281.7001, 3999563.9345000014], [-8996341.9168, 3999558.585500002], [-8996348.7363, 3999557.979699999], [-8996431.4354, 3999529.269100003], [-8996491.9872, 3999485.3297000006], [-8996544.4736, 3999442.3880999982], [-8996563.8696, 3999397.016400002], [-8996582.7983, 3999297.512000002], [-8996599.0263, 3999210.1093999967], [-8996626.692, 3999093.136], [-8996694.649, 3998938.357500002], [-8996731.8913, 3998866.423600003], [-8996804.2146, 3998744.6921999976], [-8996889.3602, 3998658.4263999984], [-8996964.8728, 3998612.683600001], [-8997013.802, 3998579.6965999976], [-8997126.4348, 3998571.3566000015], [-8997232.635, 3998597.1433999985], [-8997371.7192, 3998653.9239000008], [-8997631.9153, 3998770.101999998], [-8997741.0063, 3998797.681900002], [-8997808.4149, 3998824.4306000024], [-8997848.4692, 3998893.751500003], [-8997859.7163, 3998967.5912000015], [-8997829.2911, 3999033.751699999], [-8997765.1592, 3999088.6978999972], [-8997701.8057, 3999127.909199998], [-8997567.2046, 3999213.5494000018], [-8997444.4091, 3999307.5623999983], [-8997341.4459, 3999399.096699998], [-8997252.6187, 3999547.1831], [-8997226.3927, 3999625.7396000028], [-8997215.9347, 3999718.803000003], [-8997179.4435, 3999776.658], [-8997128.6201, 3999810.9157000035], [-8997098.4821, 3999830.7261999995], [-8997072.1558, 3999851.440200001], [-8997009.8623, 3999945.726999998], [-8996962.7129, 4000042.065399997], [-8996950.7542, 4000081.9003000036], [-8996940.6874, 4000110.459899999], [-8996939.1782, 4000134.166100003], [-8996949.162, 4000173.667000003], [-8996962.3986, 4000190.8539000005], [-8996973.1641, 4000221.371299997], [-8997000.0745, 4000242.4689000025], [-8997016.1549, 4000281.0473000035], [-8997039.4625, 4000297.9311000034], [-8997055.4177, 4000319.241899997], [-8997077.4125, 4000324.6318000033], [-8997101.424, 4000346.7914000005], [-8997146.8136, 4000371.1181000024], [-8997199.7266, 4000365.3786000013], [-8997311.5757, 4000352.282200001], [-8997411.4474, 4000311.378399998], [-8997610.0072, 4000185.8954000026], [-8997707.988, 4000134.746600002], [-8997810.858, 4000091.219999999], [-8998002.4571, 4000031.454999998], [-8998108.77, 4000011.528300002], [-8998237.7476, 4000017.4636999965], [-8998356.163, 4000079.910700001], [-8998417.2261, 4000136.8962000012], [-8998442.5293, 4000194.7959999964], [-8998448.1739, 4000267.5248000026], [-8998435.8556, 4000351.7413000017], [-8998412.751, 4000512.380400002], [-8998401.3763, 4000590.407200001], [-8998406.3681, 4000672.7787000015], [-8998407.5439, 4000738.414300002], [-8998420.2855, 4000780.904100001], [-8998422.2557, 4000797.0956000015], [-8998422.978, 4000803.0308], [-8998427.0315, 4000815.4327000007], [-8998431.736, 4000829.8264999986], [-8998465.9654, 4000931.3989999965], [-8998510.0172, 4001001.3994999975], [-8998545.314, 4001077.5187000036], [-8998620.1017, 4001143.474399999], [-8998729.5369, 4001216.3649000004], [-8998805.855, 4001262.2238000035], [-8998830.5279, 4001277.0495000035], [-8998896.018, 4001303.8011000007], [-8998969.4354, 4001316.6855000034], [-8999013.9293, 4001316.755400002], [-8999303.6387, 4001383.6567], [-8999548.817, 4001477.0637999997], [-8999606.1898, 4001498.8200000003], [-8999681.1276, 4001533.378200002], [-8999730.5494, 4001559.8874000013], [-8999791.1258, 4001596.025899999], [-8999844.5406, 4001620.1372999996], [-8999889.1682, 4001652.2463999987], [-8999954.537, 4001685.1871000007], [-8999989.6025, 4001710.071999997], [-9000005.4141, 4001731.475100003], [-9000086.827, 4001781.5106000006], [-9000158.5399, 4001841.6965000033], [-9000273.7968, 4001921.3105000034], [-9000287.2926, 4001929.0243000016], [-9000361.0509, 4001959.146300003], [-9000493.9831, 4002013.304200001], [-9000564.9083, 4002042.1991000026], [-9000572.577, 4002052.4871999994], [-9000589.89, 4002062.316399999], [-9000605.5995, 4002071.2349999994], [-9000684.31, 4002122.6779000014], [-9000841.9266, 4002225.6890999973], [-9000943.3136, 4002273.718800001], [-9001017.3026, 4002292.4114999995], [-9001038.7793, 4002294.577799998], [-9001113.5064, 4002303.6987999976], [-9001201.0955, 4002300.101499997], [-9001296.1161, 4002274.2060000002], [-9001363.9912, 4002253.2299999967], [-9001430.6124, 4002247.1238999963], [-9001598.3246, 4002240.2511000037], [-9001774.0298, 4002302.8751000017], [-9001862.2491, 4002366.564000003], [-9001916.1529, 4002496.7346], [-9001919.8881, 4002682.652599998], [-9001917.0739, 4002730.526799999], [-9001938.9046, 4002896.6728999987], [-9001963.935, 4003030.7148], [-9001982.7286, 4003104.688199997], [-9001997.4716, 4003138.3039000034], [-9002009.43, 4003191.4882000014], [-9002020.2373, 4003204.7946000025], [-9002064.6169, 4003299.1067999974], [-9002077.9712, 4003333.6930000037], [-9002087.9227, 4003360.152099997], [-9002099.8741, 4003374.1454000026], [-9002133.0239, 4003432.6872999966], [-9001986.271, 4003446.5044], [-9001945.0248, 4003454.6374000013], [-9001881.1032, 4003469.5864000022], [-9001809.2852, 4003501.515299998], [-9001774.873, 4003537.1331999972], [-9001732.3843, 4003566.5841000006], [-9001699.6317, 4003604.2415999994], [-9001648.3672, 4003620.747100003], [-9001584.5697, 4003657.905100003], [-9001517.5812, 4003723.128700003], [-9001472.8627, 4003800.598200001], [-9001380.3646, 4004034.730800003], [-9001368.4064, 4004134.0271999985], [-9001368.2342, 4004200.7079000026], [-9001402.9968, 4004248.5984999985], [-9001415.3965, 4004289.7258], [-9001420.5116, 4004347.2876999974], [-9001431.7394, 4004381.795500003], [-9001474.6075, 4004422.5200000033], [-9001531.2302, 4004460.742899999], [-9001622.3658, 4004489.4318000004], [-9001717.9475, 4004525.6159999967], [-9001814.4307, 4004538.6297999993], [-9001828.2652, 4004528.7694000006], [-9001893.517, 4004503.1396000013], [-9001928.5669, 4004532.059600003], [-9001952.3623, 4004525.383100003], [-9002018.043, 4004490.8796999976], [-9002105.6768, 4004441.8668000028], [-9002223.5625, 4004411.556599997], [-9002287.3285, 4004413.3955999985], [-9002165.4505, 4005268.9870999977], [-9001981.766, 4005245.8539000005], [-9001795.7725, 4006511.8588000014], [-9001700.3825, 4007122.966499999], [-9001677.8687, 4007122.0022], [-9001616.1604, 4007132.411799997], [-9001576.3306, 4007148.561999999], [-9001522.5416, 4007170.2859999985], [-9001494.0757, 4007209.7775000036], [-9001491.3171, 4007255.3068000004], [-9001507.059, 4007295.4657000005], [-9001507.7833, 4007355.766999997], [-9001518.275, 4007427.3298000023], [-9001501.1841, 4007460.7211000025], [-9001509.6942, 4007470.182099998], [-9001491.5701, 4007481.837899998]]]]}}, {"type": "Feature", "properties": {"OBJECTID": 206, "CreationDate": "2025-01-14T11:11:12Z", "Creator": "NPS_WASO_LANDS", "EditDate": "2025-01-14T11:11:12Z", "Editor": "NPS_WASO_LANDS", "GlobalID": "{62C2B7C8-1D78-401B-9134-621D7D4562FC}", "AreaID": 204, "UNIT_CODE": "FOSU", "GIS_Notes": "Lands - http://landsnet.nps.gov/tractsnet/documents/FOSU/Metadata/fosu_metadata.xml", "UNIT_NAME": "Fort Sumter and Fort Moultrie National Historical Park", "DATE_EDIT": "2021-03-31T00:00:00Z", "STATE": "SC", "REGION": "SE", "GNIS_ID": "1222505", "UNIT_TYPE": "National Historical Park", "CREATED_BY": "Lands", "METADATA": "https://irma.nps.gov/DataStore/Reference/Profile/1047964", "PARKNAME": "Fort Sumter and Fort Moultrie", "SHAPE_Length": 9870.232181004376, "SHAPE_Area": 1356888.1695460526}, "geometry": {"type": "MultiPolygon", "coordinates": [[[[-8889568.2448, 3863785.516099997], [-8889675.5516, 3863499.9496000037], [-8889746.2613, 3863507.2324], [-8889757.7537, 3863508.416100003], [-8889648.8338, 3863825.6423000023], [-8889634.4544, 3863818.4826999977], [-8889568.2448, 3863785.516099997]]], [[[-8888129.0764, 3863347.0847999975], [-8888088.86, 3863264.6675999984], [-8888045.7615, 3863176.360299997], [-8888039.4299, 3863163.3862000033], [-8887936.2947, 3862952.0604000017], [-8887955.0747, 3862946.5339], [-8888003.1389, 3862935.230700001], [-8888020.5089, 3862929.1938000023], [-8888114.6005, 3863126.9579000026], [-8888120.4187, 3863139.1859000027], [-8888165.2503, 3863233.4133], [-8888190.6086, 3863286.7456], [-8888190.6927, 3863286.7048000023], [-8888202.3933, 3863311.3073000014], [-8888202.3092, 3863311.348099999], [-8888202.3932, 3863311.5248000026], [-8888189.3577, 3863317.8479999974], [-8888129.0764, 3863347.0847999975]]], [[[-8897288.4604, 3867453.074500002], [-8897418.7313, 3867440.652099997], [-8897419.4078, 3867449.7179000005], [-8897428.3892, 3867570.108599998], [-8897334.8888, 3867618.706699997], [-8897235.5126, 3867670.3583000004], [-8897186.4059, 3867695.8813000023], [-8897103.2584, 3867534.376000002], [-8897167.5865, 3867500.9421999976], [-8897242.9919, 3867461.7503999993], [-8897250.8136, 3867456.664099999], [-8897288.4604, 3867453.074500002]]], [[[-8889085.2691, 3862487.431900002], [-8889114.7226, 3862483.9381000027], [-8889193.3981, 3862493.623300001], [-8889260.249, 3862510.8473000005], [-8889319.7184, 3862530.720899999], [-8889365.8425, 3862555.8347000033], [-8889449.4505, 3862610.4179000035], [-8889500.8947, 3862656.6939999983], [-8889597.0044, 3862752.329400003], [-8889619.1698, 3862775.2989000008], [-8889650.815, 3862808.091799997], [-8889689.8852, 3862852.0559], [-8889700.9614, 3862864.519199997], [-8889713.9635, 3862884.460199997], [-8889754.7022, 3862946.9393000007], [-8889774.825, 3862985.4065999985], [-8889782.9474, 3863011.2101000026], [-8889783.4215, 3863012.0524000004], [-8889788.4806, 3863017.4695999995], [-8889812.566, 3863042.081100002], [-8889847.3169, 3863061.850900002], [-8889894.4294, 3863099.411700003], [-8889902.761, 3863108.7370999977], [-8889864.6637, 3863274.429200001], [-8889823.195, 3863453.2942999974], [-8889813.8186, 3863493.7365999967], [-8889780.6859, 3863489.7382000014], [-8889635.0863, 3863470.712200001], [-8889635.0274, 3863461.5227999985], [-8889634.729, 3863414.9843999967], [-8889634.5595, 3863388.523199998], [-8889218.1252, 3863286.5697000027], [-8889093.4002, 3863255.8298000023], [-8889092.4586, 3863166.840099998], [-8889091.8598, 3863110.260499999], [-8889091.5293, 3863079.0354999974], [-8889085.2691, 3862487.431900002]]], [[[-8891327.6477, 3862632.0599000007], [-8891445.738, 3862189.274899997], [-8892148.2887, 3862378.407700002], [-8892197.4198, 3862391.6325000003], [-8892957.1876, 3862596.112999998], [-8892839.1509, 3863038.9289000034], [-8891327.6477, 3862632.0599000007]]]]}}, {"type": "Feature", "properties": {"OBJECTID": 211, "CreationDate": "2025-01-14T11:11:12Z", "Creator": "NPS_WASO_LANDS", "EditDate": "2025-01-14T11:11:12Z", "Editor": "NPS_WASO_LANDS", "GlobalID": "{74F8F4C5-A89B-4BE3-BB84-E3E8382F075C}", "AreaID": 209, "UNIT_CODE": "KIMO", "GIS_Notes": "Lands - http://landsnet.nps.gov/tractsnet/documents/KIMO/Metadata/kimo_metadata.xml", "UNIT_NAME": "Kings Mountain National Military Park", "DATE_EDIT": "2011-06-27T00:00:00Z", "STATE": "SC", "REGION": "SE", "GNIS_ID": "1223739", "UNIT_TYPE": "National Military Park", "CREATED_BY": "Lands", "METADATA": "https://irma.nps.gov/DataStore/Reference/Profile/2174271", "PARKNAME": "Kings Mountain", "SHAPE_Length": 22120.4402374412, "SHAPE_Area": 23836721.13368063}, "geometry": {"type": "MultiPolygon", "coordinates": [[[[-9062981.597, 4180005.966799997], [-9063004.8752, 4180026.0869000033], [-9063085.063, 4180131.414800003], [-9063151.2038, 4180208.2074000016], [-9063193.3535, 4180246.251500003], [-9063217.0874, 4180273.825099997], [-9063230.333, 4180304.0793000013], [-9063255.5609, 4180376.4496000037], [-9063263.6999, 4180442.2991999984], [-9063253.4809, 4180512.178199999], [-9063250.7912, 4180530.4108000025], [-9063225.519, 4180665.8649000004], [-9063175.9363, 4180770.3255999982], [-9063184.6341, 4180826.3853999972], [-9063223.2837, 4180982.0011000037], [-9063222.4893, 4181049.719800003], [-9063194.5832, 4181173.9398000017], [-9063142.5477, 4181371.348200001], [-9063155.4983, 4181512.2524000034], [-9063154.8575, 4181536.166199997], [-9063155.9029, 4181616.6481000036], [-9063177.2196, 4181669.6054999977], [-9063209.0167, 4181711.8106999993], [-9063244.0311, 4181747.0305999964], [-9063278.7715, 4181770.8363000005], [-9063332.8786, 4181797.661700003], [-9063404.8406, 4181827.252899997], [-9063464.0114, 4181852.708499998], [-9063507.0844, 4181873.7919000015], [-9063521.269, 4181890.4822999984], [-9063532.2839, 4181916.8505999967], [-9063551.1367, 4181977.329599999], [-9063560.3172, 4182026.251699999], [-9063571.3506, 4182057.1286000013], [-9063630.5743, 4182104.5573000014], [-9063717.938, 4182151.088200003], [-9063726.9349, 4182155.8800000027], [-9063734.2225, 4182174.1208999977], [-9063570.9728, 4182319.6160999984], [-9063658.5637, 4182447.625500001], [-9063655.5295, 4182499.220899999], [-9063630.9142, 4182547.3033000007], [-9063583.1758, 4182592.6410000026], [-9063562.0007, 4182624.0891999975], [-9063547.5039, 4182677.5094000027], [-9063554.9932, 4182688.853100002], [-9063560.8782, 4182700.7434], [-9063573.9731, 4182707.5442999974], [-9063583.5812, 4182730.096500002], [-9063594.0632, 4182742.471000001], [-9063599.518, 4182757.034199998], [-9063582.0949, 4182779.8511999995], [-9063567.5797, 4182809.3769999966], [-9063555.8345, 4182827.276900001], [-9063556.763, 4182837.7584000006], [-9063553.4768, 4182844.104699999], [-9063549.7109, 4182873.0073999986], [-9063555.8915, 4182893.2382000014], [-9063570.89, 4182930.5923999995], [-9063582.476, 4182936.373300001], [-9063598.1894, 4182952.8412000015], [-9063597.9475, 4182968.4892999977], [-9063611.0323, 4182987.224299997], [-9063621.3651, 4182996.6983999982], [-9063651.4709, 4183029.882299997], [-9063682.7279, 4183065.7339999974], [-9063656.3461, 4183092.672200002], [-9063624.5653, 4183107.475400001], [-9063627.9659, 4183155.4936000034], [-9063480.6465, 4183236.5464999974], [-9063451.7294, 4183286.391099997], [-9063414.9616, 4183300.391099997], [-9063385.6156, 4183344.3668000028], [-9063286.1481, 4183413.117700003], [-9063198.3565, 4183424.724100001], [-9063116.32, 4183464.985299997], [-9063092.2644, 4183496.0310999975], [-9063055.5363, 4183499.5813999996], [-9062970.7868, 4183557.465300001], [-9062966.5397, 4183557.874499999], [-9062881.0379, 4183563.3483000025], [-9062857.6335, 4183585.3386999965], [-9062826.002, 4183597.2842999995], [-9062782.4551, 4183584.8680000007], [-9062720.6636, 4183609.228600003], [-9062695.9428, 4183608.2760000005], [-9062662.6538, 4183621.5569999963], [-9062617.5979, 4183617.4070999995], [-9062565.615, 4183651.2021000013], [-9062510.3206, 4183663.5012999997], [-9062489.3406, 4183677.1231999993], [-9062462.0947, 4183674.783200003], [-9062312.0942, 4183538.524899997], [-9062295.4303, 4183532.582199998], [-9062261.8491, 4183523.8285000026], [-9062227.6362, 4183518.0468999967], [-9062193.0521, 4183515.2814000025], [-9062162.8416, 4183515.346900001], [-9062133.8042, 4183518.228], [-9062115.8837, 4183521.3039999977], [-9062087.5415, 4183528.272], [-9062082.3095, 4183529.8505999967], [-9062054.8364, 4183539.724399999], [-9062028.324, 4183551.9650000036], [-9062002.9742, 4183566.4793], [-9061978.9797, 4183583.1569000036], [-9061978.2724, 4183583.6974000037], [-9061937.5824, 4183622.2184000015], [-9061934.6882, 4183625.8566000015], [-9061931.671, 4183629.3927000016], [-9061928.5344, 4183632.822300002], [-9061925.2817, 4183636.1407999992], [-9061921.9174, 4183639.3451000005], [-9061918.445, 4183642.4309], [-9061914.8689, 4183645.3948], [-9061911.1931, 4183648.233099997], [-9061906.8316, 4183652.258100003], [-9061902.3394, 4183656.1357000023], [-9061897.722, 4183659.8614000008], [-9061892.9842, 4183663.4315000027], [-9061888.1312, 4183666.8418999985], [-9061883.1684, 4183670.0891999975], [-9061878.1012, 4183673.1691000015], [-9061872.9352, 4183676.078900002], [-9061867.676, 4183678.8150999993], [-9061862.3294, 4183681.3747999966], [-9061856.9014, 4183683.755099997], [-9061851.3977, 4183685.953400001], [-9061595.1262, 4183780.742899999], [-9061531.189, 4183809.5112000033], [-9061415.6786, 4183796.2766999975], [-9061415.6794, 4183796.441200003], [-9061414.4873, 4183881.4384000003], [-9061412.7389, 4183965.606899999], [-9060976.6724, 4184510.1045999974], [-9060801.7062, 4185010.171599999], [-9060681.3117, 4185287.9399000034], [-9060467.7956, 4185364.7678000033], [-9060412.2484, 4185318.4777000025], [-9060360.8159, 4185417.207699999], [-9060210.0965, 4185439.686300002], [-9060148.8103, 4185413.4787999988], [-9060125.6576, 4185282.3800000027], [-9060018.5316, 4185275.808600001], [-9059868.1086, 4185160.1499999985], [-9059734.6492, 4185057.5326000005], [-9059197.1606, 4185480.195100002], [-9059102.3243, 4185398.860600002], [-9058824.3165, 4185364.903099999], [-9058727.5652, 4185353.083800003], [-9058719.9811, 4185352.157300003], [-9058351.5299, 4185128.4626], [-9058138.3363, 4185048.902599998], [-9057827.729, 4185045.467100002], [-9057591.3838, 4185040.4694000036], [-9057499.5849, 4185389.0599000007], [-9057319.9801, 4185293.540100001], [-9057132.5685, 4185130.9252000004], [-9057032.511, 4185058.9098000005], [-9057089.9489, 4184272.420500003], [-9057020.4974, 4183866.494400002], [-9056954.0816, 4183478.2952999994], [-9056895.2907, 4183134.653999999], [-9056889.7702, 4183102.3844000027], [-9056797.522, 4182563.1569000036], [-9057610.9694, 4182148.3840000033], [-9057925.2167, 4181988.1313000023], [-9058529.4971, 4181679.9434999973], [-9059531.3805, 4181168.8869000003], [-9059777.1745, 4181043.4913000017], [-9059821.8139, 4181020.717100002], [-9060048.8751, 4180904.871600002], [-9060694.0008, 4180575.7003000006], [-9061072.995, 4180382.2995000035], [-9061092.6347, 4180372.277099997], [-9061365.4404, 4180273.5790000036], [-9061709.2701, 4180149.174900003], [-9061821.2942, 4180100.5327999964], [-9062081.2442, 4179987.654600002], [-9062095.6854, 4179981.3835999966], [-9062137.1943, 4179963.3584999964], [-9062733.2143, 4179704.518299997], [-9062730.5419, 4179731.818099998], [-9062757.7796, 4179776.479699999], [-9062981.597, 4180005.966799997]]]]}}, {"type": "Feature", "properties": {"OBJECTID": 212, "CreationDate": "2025-01-14T11:11:12Z", "Creator": "NPS_WASO_LANDS", "EditDate": "2025-01-14T11:11:12Z", "Editor": "NPS_WASO_LANDS", "GlobalID": "{3557C7A3-E0F3-4B85-98B8-0F18D6B41A58}", "AreaID": 210, "UNIT_CODE": "COWP", "GIS_Notes": "Lands - http://landsnet.nps.gov/tractsnet/documents/COWP/Metadata/cowp_metadata.xml", "UNIT_NAME": "Cowpens National Battlefield", "DATE_EDIT": "2014-09-17T00:00:00Z", "STATE": "SC", "REGION": "SE", "GNIS_ID": "1247412", "UNIT_TYPE": "National Battlefield", "CREATED_BY": "Lands", "METADATA": "https://irma.nps.gov/DataStore/Reference/Profile/2218478", "PARKNAME": "Cowpens", "SHAPE_Length": 13385.261112506118, "SHAPE_Area": 5131854.343997695}, "geometry": {"type": "MultiPolygon", "coordinates": [[[[-9107060.122, 4180737.808799997], [-9107062.2195, 4180741.1889000013], [-9107096.5283, 4180800.5989999995], [-9107199.7271, 4180983.170000002], [-9107304.4694, 4181171.342799999], [-9107311.4113, 4181180.8769999966], [-9107328.7982, 4181208.447999999], [-9107341.1678, 4181227.4394000024], [-9107351.1358, 4181235.8838], [-9107370.9687, 4181250.454400003], [-9107391.9902, 4181263.2336999997], [-9107414.0403, 4181274.124300003], [-9107603.5909, 4181362.0654999986], [-9107605.0641, 4181362.7496000007], [-9107771.8435, 4181440.1862000003], [-9107771.8479, 4181440.188000001], [-9107805.9657, 4181456.0288999975], [-9107952.4992, 4181168.1215000004], [-9107957.45, 4181127.957800001], [-9107963.79, 4181087.991700001], [-9107971.511, 4181048.2717000023], [-9107980.6041, 4181008.846000001], [-9107991.0582, 4180969.7624000013], [-9108002.8604, 4180931.068099998], [-9108028.6354, 4180939.6630000025], [-9108017.6852, 4180975.403099999], [-9108007.9416, 4181011.4940000027], [-9107999.4154, 4181047.8945999965], [-9107992.116, 4181084.5636000037], [-9107986.0521, 4181121.458800003], [-9107981.2307, 4181158.538800001], [-9107977.657, 4181195.7612000033], [-9107975.3352, 4181233.0835999995], [-9107974.2679, 4181270.463600002], [-9107974.4563, 4181307.8586999997], [-9107975.9005, 4181345.2260000035], [-9107978.5985, 4181382.523400001], [-9107982.5474, 4181419.7082], [-9107987.7426, 4181456.738300003], [-9107994.1785, 4181493.5711999983], [-9108048.8848, 4181670.7760000005], [-9108165.8802, 4181957.4152999967], [-9108189.4572, 4182015.1784000024], [-9108189.7616, 4182015.9060999975], [-9108250.9775, 4182162.3665999994], [-9108281.3231, 4182245.5694999993], [-9108308.8157, 4182329.7678999975], [-9108341.0971, 4182513.971900001], [-9108346.4202, 4182559.933799997], [-9108350.2734, 4182606.0437999964], [-9108352.6529, 4182652.2541000023], [-9108353.556, 4182698.5177000016], [-9108352.9821, 4182744.786700003], [-9108350.754, 4182793.909599997], [-9108346.8607, 4182842.9280999973], [-9108341.307, 4182891.7849999964], [-9108334.6017, 4182937.3686999977], [-9108326.4508, 4182982.7145000026], [-9108316.8628, 4183027.775700003], [-9108305.8473, 4183072.5068000033], [-9108296.7735, 4183104.855300002], [-9108286.7641, 4183136.9244000018], [-9108275.8281, 4183168.6865999997], [-9108263.9742, 4183200.115000002], [-9108252.4086, 4183228.2722000033], [-9108307.5664, 4183262.5779], [-9108367.5366, 4183293.2238000035], [-9108431.609, 4183319.2678999975], [-9108497.697, 4183339.604800001], [-9108565.2983, 4183354.0798999965], [-9108602.44, 4183359.4042000026], [-9108599.8252, 4183394.1602], [-9108547.0171, 4183401.8757999986], [-9108493.423, 4183414.0161999986], [-9108441.0855, 4183430.8007000014], [-9108390.4025, 4183452.1018999964], [-9108341.7593, 4183477.7575000003], [-9108295.5262, 4183507.5728999972], [-9108252.0544, 4183541.3210999966], [-9108211.6748, 4183578.7453000024], [-9108174.6943, 4183619.5613999963], [-9108141.3944, 4183663.458800003], [-9108126.34, 4183686.2446999997], [-9108099.331, 4183734.213200003], [-9108098.744, 4183735.373499997], [-9108067.0272, 4183723.981200002], [-9108078.1579, 4183685.3853999972], [-9108079.9627, 4183679.8769999966], [-9108097.2147, 4183617.3664999977], [-9108108.9791, 4183553.5842999965], [-9108115.1663, 4183489.0156000033], [-9108115.7295, 4183424.1516000032], [-9108110.6645, 4183359.4855000004], [-9108102.2605, 4183329.8002000004], [-9108083.9604, 4183327.040600002], [-9108052.7492, 4183320.843500003], [-9108044.1872, 4183319.1435000002], [-9108004.836, 4183310.1213999987], [-9107977.6346, 4183303.3479999974], [-9107950.5145, 4183296.1521999985], [-9107796.8198, 4183246.7211000025], [-9107785.5254, 4183253.469800003], [-9107735.1119, 4183283.591799997], [-9107691.9371, 4183309.3884000033], [-9107674.1417, 4183320.083300002], [-9107610.9812, 4183170.4521000013], [-9107576.6238, 4183155.5622999966], [-9107534.422, 4183136.5002000034], [-9107534.063, 4183136.3351000026], [-9107283.4215, 4183008.496100001], [-9107130.4961, 4182914.692400001], [-9107074.6218, 4182877.0046999976], [-9106999.9096, 4182822.704400003], [-9106613.8825, 4182527.841499999], [-9106433.311, 4182389.9218999967], [-9106398.8566, 4182363.605300002], [-9106118.6696, 4182149.5891000032], [-9105939.6117, 4182011.7915999964], [-9105715.9574, 4181852.494099997], [-9105635.1186, 4181803.270800002], [-9105548.3074, 4181754.813699998], [-9105384.152, 4181670.453400001], [-9105380.5775, 4181668.6164000034], [-9105243.0235, 4181600.8957], [-9105184.4577, 4181576.8559999987], [-9105177.816, 4181574.3039999977], [-9105181.686, 4181559.662799999], [-9105183.1972, 4181553.9461999983], [-9105191.2272, 4181556.488499999], [-9105380.0018, 4181616.2534999996], [-9105574.6057, 4181677.860299997], [-9105685.1515, 4181712.4856999964], [-9105687.7949, 4181705.340300001], [-9105690.1938, 4181698.108400002], [-9105692.3457, 4181690.7985000014], [-9105694.2479, 4181683.418899998], [-9105695.8981, 4181675.978600003], [-9105697.2945, 4181668.4860000014], [-9105698.4354, 4181660.9499000013], [-9105699.3196, 4181653.3790000007], [-9105699.946, 4181645.782200001], [-9105700.9641, 4181592.242700003], [-9105704.9076, 4181447.2666999996], [-9105709.5761, 4181275.6238999963], [-9105709.5915, 4181274.9510999992], [-9105715.242, 4181026.309100002], [-9105717.2466, 4180938.104000002], [-9105716.2099, 4180916.669399999], [-9105714.5576, 4180882.5069999993], [-9105714.993, 4180872.6115999967], [-9105714.5799, 4180842.213299997], [-9105711.5316, 4180811.966600001], [-9105709.9837, 4180802.246600002], [-9105703.4866, 4180772.5544999987], [-9105694.4386, 4180743.544200003], [-9105682.9086, 4180715.436300002], [-9105612.5002, 4180528.2036999986], [-9105602.6076, 4180501.897], [-9105544.7559, 4180319.474200003], [-9105627.0409, 4180319.4438999966], [-9105740.44, 4180316.1921000034], [-9105745.9186, 4180315.663900003], [-9105805.6911, 4180309.900700003], [-9105818.1016, 4180304.6027999967], [-9105819.9763, 4180303.8025999963], [-9105847.4106, 4180292.0908999965], [-9105911.6572, 4180265.6684999987], [-9105982.7614, 4180238.1234000027], [-9105996.3421, 4180234.5446000025], [-9106038.3837, 4180223.4651999995], [-9106050.0068, 4180220.6345999986], [-9106122.3067, 4180203.0270000026], [-9106128.2557, 4180201.5782999992], [-9106151.1864, 4180195.9936000034], [-9106155.3816, 4180194.971900001], [-9106178.9787, 4180189.2250000015], [-9106182.5077, 4180188.3654000014], [-9106347.9707, 4180148.0666000023], [-9106357.7558, 4180145.788999997], [-9106367.613, 4180143.8501999974], [-9106377.5307, 4180142.2525999993], [-9106387.4974, 4180140.9979000017], [-9106397.5007, 4180140.0878000036], [-9106407.5293, 4180139.523199998], [-9106417.5714, 4180139.304700002], [-9106427.6149, 4180139.4328000024], [-9106437.6483, 4180139.906999998], [-9106447.6593, 4180140.7272000015], [-9106457.6367, 4180141.892099999], [-9106467.5682, 4180143.400399998], [-9106477.4423, 4180145.2502000034], [-9106487.2476, 4180147.4397], [-9106496.9719, 4180149.9658999965], [-9106506.6043, 4180152.8260999992], [-9106516.1332, 4180156.0166999996], [-9106525.5475, 4180159.5341000035], [-9106534.836, 4180163.374300003], [-9106543.9879, 4180167.532300003], [-9106552.9922, 4180172.0036000013], [-9106561.8383, 4180176.7827999964], [-9106570.5159, 4180181.8642000034], [-9106575.5972, 4180185.079400003], [-9106579.0146, 4180187.241899997], [-9106587.3248, 4180192.909599997], [-9106595.7045, 4180200.815399997], [-9106603.7704, 4180207.9613000005], [-9106611.5816, 4180215.3874000013], [-9106619.1282, 4180223.0842999965], [-9106626.4011, 4180231.0429000035], [-9106633.3914, 4180239.2528000027], [-9106640.0903, 4180247.7048000023], [-9106646.4896, 4180256.387500003], [-9106652.5813, 4180265.2907000035], [-9106658.3582, 4180274.403099999], [-9106663.8127, 4180283.7141000032], [-9106665.7641, 4180287.329499997], [-9106668.9385, 4180293.2113000005], [-9106673.729, 4180302.8838], [-9106678.1786, 4180312.7192], [-9106732.0223, 4180441.449500002], [-9106680.9168, 4180450.325099997], [-9106677.5819, 4180525.5178000033], [-9106669.7158, 4180527.5601999983], [-9106662.6344, 4180749.1611], [-9106735.2403, 4180736.2633000016], [-9106753.6006, 4180733.0015999973], [-9106756.4524, 4180632.528099999], [-9106767.9087, 4180585.8545999974], [-9106774.4364, 4180570.753200002], [-9106774.7629, 4180569.883100003], [-9106775.1191, 4180569.0244000033], [-9106775.5047, 4180568.1787], [-9106775.919, 4180567.347000003], [-9106776.3617, 4180566.530000001], [-9106776.8321, 4180565.7289000005], [-9106777.3298, 4180564.9444999993], [-9106777.854, 4180564.1779000014], [-9106778.4044, 4180563.429899998], [-9106778.98, 4180562.7013000026], [-9106779.5803, 4180561.9931999967], [-9106780.2046, 4180561.3062999994], [-9106780.8521, 4180560.6413000003], [-9106781.522, 4180559.9992000014], [-9106782.2136, 4180559.3808000013], [-9106782.9259, 4180558.786700003], [-9106783.6583, 4180558.217500001], [-9106784.4096, 4180557.6740999967], [-9106785.1794, 4180557.1569000036], [-9106785.9664, 4180556.6668], [-9106786.7697, 4180556.2043000013], [-9106787.5883, 4180555.7698], [-9106788.4215, 4180555.3638999984], [-9106789.2682, 4180554.9871999994], [-9106790.1271, 4180554.6400000006], [-9106790.9976, 4180554.3228999972], [-9106791.8784, 4180554.0359999985], [-9106792.7685, 4180553.7797000036], [-9106793.6667, 4180553.554200001], [-9106794.5724, 4180553.3603999987], [-9106795.484, 4180553.1978999972], [-9106796.4008, 4180553.0671000034], [-9106797.3215, 4180552.968000002], [-9106798.245, 4180552.9010000005], [-9106799.1704, 4180552.8659000024], [-9106800.0963, 4180552.8628999963], [-9106801.0217, 4180552.891999997], [-9106801.9457, 4180552.9532999992], [-9106802.8669, 4180553.046400003], [-9106803.7844, 4180553.1711999997], [-9106804.697, 4180553.3280000016], [-9106805.604, 4180553.5163000003], [-9106806.5038, 4180553.7360000014], [-9106807.3954, 4180553.9864000008], [-9106808.2781, 4180554.2677000016], [-9106809.1504, 4180554.5793000013], [-9106810.0117, 4180554.9209999964], [-9106810.8606, 4180555.2924000025], [-9106811.6963, 4180555.6930000037], [-9106812.5177, 4180556.1221999973], [-9106813.3239, 4180556.5797000006], [-9106896.8185, 4180596.4924999997], [-9106922.977, 4180606.726800002], [-9106948.5197, 4180619.372299999], [-9106951.9466, 4180621.583800003], [-9106955.7325, 4180624.027099997], [-9106975.7181, 4180638.658399999], [-9106980.0804, 4180642.478600003], [-9106981.8705, 4180644.046400003], [-9106994.3589, 4180654.9831999987], [-9107011.5127, 4180672.8773000017], [-9107011.7431, 4180673.1435000002], [-9107014.0773, 4180675.838299997], [-9107029.3472, 4180695.3791999966], [-9107060.122, 4180737.808799997]]]]}}, {"type": "Feature", "properties": {"OBJECTID": 226, "CreationDate": "2025-01-14T11:11:12Z", "Creator": "NPS_WASO_LANDS", "EditDate": "2025-01-14T11:11:12Z", "Editor": "NPS_WASO_LANDS", "GlobalID": "{67B61922-10CF-4DC0-93F0-32973D88CCE6}", "AreaID": 227, "UNIT_CODE": "NISI", "GIS_Notes": "Lands - http://landsnet.nps.gov/tractsnet/documents/NISI/Metadata/nisi_metadata.xml", "UNIT_NAME": "Ninety Six National Historic Site", "DATE_EDIT": "2006-03-20T00:00:00Z", "STATE": "SC", "REGION": "SE", "GNIS_ID": "1227788", "UNIT_TYPE": "National Historic Site", "CREATED_BY": "Lands", "METADATA": "https://irma.nps.gov/DataStore/Reference/Profile/1048027", "PARKNAME": "Ninety Six", "SHAPE_Length": 11853.306552705837, "SHAPE_Area": 5700905.158057261}, "geometry": {"type": "MultiPolygon", "coordinates": [[[[-9130946.4048, 4048114.2414999977], [-9130916.3532, 4048341.291199997], [-9130913.9375, 4048359.175300002], [-9130905.7608, 4048419.9262000024], [-9130896.5876, 4048488.1950000003], [-9130892.17, 4048520.913999997], [-9130873.589, 4048661.250699997], [-9130871.7391, 4048685.0601999983], [-9130868.8502, 4048718.6067999974], [-9130869.0251, 4048753.255900003], [-9130869.7958, 4048769.191399999], [-9130870.5509, 4048784.5801], [-9130871.5276, 4048795.888700001], [-9130862.3626, 4048796.6875], [-9130864.1576, 4048817.472900003], [-9130876.2422, 4048931.681599997], [-9130885.1803, 4049016.153300002], [-9130892.9267, 4049089.3620999977], [-9130898.124, 4049138.478100002], [-9130901.1576, 4049167.1492], [-9130902.7445, 4049182.146899998], [-9130908.7814, 4049241.599100001], [-9130916.7165, 4049319.745099999], [-9130932.7377, 4049477.524599999], [-9130832.2588, 4049586.0209000036], [-9130824.0214, 4049582.7817], [-9129875.3948, 4049209.7202999964], [-9129245.102, 4049442.4651999995], [-9129209.7773, 4049455.508100003], [-9128954.0373, 4049818.2722000033], [-9128915.4939, 4049712.2399000004], [-9128899.4587, 4049673.1652000025], [-9128890.1104, 4049648.1037999988], [-9128887.9667, 4049642.3572999984], [-9128888.6448, 4049594.0581], [-9128881.8829, 4049297.1396000013], [-9128879.6572, 4049199.9274000004], [-9128876.7712, 4049101.5803000033], [-9128874.3431, 4048953.005400002], [-9128871.1059, 4048823.0867], [-9128867.6539, 4048722.9892999977], [-9128864.6996, 4048548.004900001], [-9128860.8364, 4048423.499499999], [-9128858.3206, 4048393.9846], [-9128854.0377, 4048363.1877999976], [-9128847.078, 4048328.343000002], [-9128837.2095, 4048291.6753999963], [-9128824.3392, 4048258.9240000024], [-9128810.0352, 4048227.3268000036], [-9128788.2613, 4048185.5856000036], [-9128753.2833, 4048122.034699999], [-9128763.913, 4048116.1301999986], [-9128765.4379, 4048078.766999997], [-9128765.7751, 4048075.3712000027], [-9128765.8637, 4048075.0], [-9128765.9853, 4048074.5952999964], [-9128766.2549, 4048073.851999998], [-9128766.9476, 4048072.6120000035], [-9128767.374, 4048072.0820999965], [-9128767.8601, 4048071.6479], [-9128768.41, 4048071.3018999994], [-9128769.0227, 4048070.9887000024], [-9128770.585, 4048070.4777999967], [-9128772.3618, 4048070.0612000003], [-9128796.8012, 4048064.9239000008], [-9128797.3831, 4048064.8554999977], [-9128797.9991, 4048064.8831999972], [-9128798.7076, 4048064.9689000025], [-9128799.4468, 4048065.1768999994], [-9128805.0576, 4048067.5019999966], [-9128805.83, 4048067.679899998], [-9128806.5972, 4048067.732000001], [-9128807.2412, 4048067.603600003], [-9128807.7615, 4048067.2580000013], [-9128808.2172, 4048066.7314999998], [-9128832.6677, 4048026.7454999983], [-9128845.4282, 4048008.2327999994], [-9128846.8575, 4048006.5194000006], [-9128848.5304, 4048004.8369999975], [-9128852.4982, 4048001.777400002], [-9128857.3864, 4047998.9538000003], [-9128863.536, 4047996.210900001], [-9128868.9871, 4047994.459399998], [-9128880.2402, 4047991.824000001], [-9128881.3435, 4047991.535599999], [-9128886.4881, 4047989.728], [-9128898.7865, 4047984.1493000016], [-9128902.9422, 4047981.858400002], [-9128906.4849, 4047979.4472000003], [-9128919.0779, 4047969.4843999967], [-9128946.1701, 4047949.1662999988], [-9128967.7762, 4047936.7405999973], [-9128989.7525, 4047924.4966999963], [-9128994.7686, 4047922.3495000005], [-9129005.3074, 4047919.042800002], [-9129006.8982, 4047918.4389000013], [-9129025.2888, 4047910.3027999997], [-9129026.7224, 4047909.4560000002], [-9129028.0665, 4047908.4877000004], [-9129030.35, 4047906.273500003], [-9129031.2311, 4047905.094899997], [-9129031.9239, 4047903.8847000003], [-9129032.4362, 4047902.6762999967], [-9129032.7307, 4047901.436300002], [-9129033.0173, 4047898.9668999985], [-9129032.9032, 4047896.619900003], [-9129032.452, 4047894.4944999963], [-9129032.1039, 4047893.542300001], [-9129031.668, 4047892.650200002], [-9129025.238, 4047881.9403000027], [-9129017.6371, 4047870.5933], [-9128976.9374, 4047812.2399000004], [-9128964.8462, 4047797.3242999986], [-9128958.9138, 4047790.128399998], [-9128956.5113, 4047786.291699998], [-9128956.3531, 4047785.952399999], [-9128956.1348, 4047785.4618000016], [-9128955.8497, 4047784.5683000013], [-9128955.587, 4047782.8743999973], [-9128955.5834, 4047782.474600002], [-9128955.6127, 4047782.0705000013], [-9128955.7567, 4047781.2989000008], [-9128955.9968, 4047780.5557999983], [-9128956.3588, 4047779.8412000015], [-9128958.0246, 4047777.418200001], [-9128960.1548, 4047774.961000003], [-9128969.2572, 4047766.2644999996], [-9128970.1405, 4047765.3303000033], [-9128982.9643, 4047750.0874999985], [-9128983.4769, 4047749.308600001], [-9128983.9004, 4047748.4712999985], [-9128984.2309, 4047747.542199999], [-9128984.465, 4047746.554899998], [-9128984.662, 4047744.3603999987], [-9128984.6178, 4047743.1865999997], [-9128984.4556, 4047741.984700002], [-9128983.8169, 4047739.524099998], [-9128982.843, 4047737.092600003], [-9128981.5614, 4047734.8823999986], [-9128980.8155, 4047733.9338999987], [-9128980.0406, 4047733.0781999975], [-9128977.1899, 4047730.6052], [-9128973.6365, 4047728.2903999984], [-9128959.0985, 4047720.990500003], [-9128958.6943, 4047720.7459999993], [-9128955.0775, 4047718.343000002], [-9128945.8787, 4047710.3742000014], [-9128945.6613, 4047710.0058000013], [-9128945.4106, 4047709.608400002], [-9128944.9759, 4047708.838299997], [-9128944.6925, 4047708.100100003], [-9128944.5013, 4047707.3611999974], [-9128944.4615, 4047706.654299997], [-9128944.5175, 4047705.942599997], [-9128944.6661, 4047705.263700001], [-9128944.966, 4047704.6125999987], [-9128971.5482, 4047656.1816999987], [-9128994.53, 4047616.6143999994], [-9129000.1306, 4047604.4324999973], [-9129000.9345, 4047601.6805000007], [-9129001.4917, 4047598.9900999963], [-9129001.9722, 4047593.982000001], [-9129000.4447, 4047568.9377000034], [-9129000.5424, 4047559.648199998], [-9129001.5303, 4047547.0133000016], [-9129001.7501, 4047544.481700003], [-9129001.9269, 4047543.6765], [-9129002.1049, 4047542.9970000014], [-9129002.5272, 4047542.0375000015], [-9129003.1013, 4047541.1357000023], [-9129003.8636, 4047540.2656999975], [-9129004.7443, 4047539.4241999984], [-9129059.8797, 4047502.2058999985], [-9129060.9189, 4047501.3628999963], [-9129061.8612, 4047500.4280999973], [-9129063.5296, 4047498.2827999964], [-9129064.9507, 4047495.7102999985], [-9129066.0917, 4047492.7365999967], [-9129067.5937, 4047485.8079999983], [-9129068.2174, 4047481.9355999976], [-9129068.8013, 4047473.7897000015], [-9129068.9808, 4047470.117700003], [-9129068.9094, 4047462.4629999995], [-9129068.9834, 4047460.5178999975], [-9129069.2948, 4047457.5522999987], [-9129069.9155, 4047454.9241999984], [-9129083.6862, 4047409.670400001], [-9129087.9388, 4047398.0566999987], [-9129062.2743, 4047380.0068000033], [-9129061.0776, 4047227.7258], [-9129469.9917, 4046815.514799997], [-9129495.8154, 4046789.1850000024], [-9129782.5127, 4047074.9685999975], [-9130190.6792, 4046786.575099997], [-9130096.8827, 4046694.110100001], [-9130172.138, 4046436.108400002], [-9130236.2792, 4046332.3035999984], [-9130825.9018, 4045769.2836000025], [-9130858.2151, 4045910.292800002], [-9130878.6169, 4045997.1947000027], [-9130887.9589, 4046040.8407000005], [-9130894.9304, 4046066.133299999], [-9130901.8934, 4046090.8505999967], [-9130909.9716, 4046114.9926000014], [-9130923.4812, 4046155.4563999996], [-9130933.9695, 4046183.6492], [-9130949.105, 4046222.306900002], [-9130957.647, 4046245.5051999986], [-9130964.3771, 4046264.5003999993], [-9130969.2552, 4046279.627700001], [-9130975.0875, 4046299.308600001], [-9130980.273, 4046318.230899997], [-9130983.9837, 4046333.2227], [-9130987.9898, 4046351.5276999995], [-9130990.843, 4046367.1262999997], [-9130993.9628, 4046386.172799997], [-9130996.6095, 4046403.383100003], [-9130999.3271, 4046425.7760000005], [-9131002.6019, 4046463.8830000013], [-9131004.3193, 4046501.9878999963], [-9131004.5784, 4046529.2629000023], [-9131004.6697, 4046538.860799998], [-9131004.5439, 4046566.333800003], [-9131004.4595, 4046586.6965000033], [-9131004.3719, 4046610.7613999993], [-9131004.303, 4046632.9755999967], [-9131004.2408, 4046657.0408999994], [-9131004.195, 4046679.254900001], [-9131004.1583, 4046703.3203999996], [-9131004.1359, 4046725.534699999], [-9131004.1249, 4046747.748999998], [-9131004.1256, 4046771.8144999966], [-9131004.1395, 4046795.8803000003], [-9131004.1641, 4046818.094700001], [-9131004.2034, 4046842.1604999974], [-9131004.2513, 4046864.3748999983], [-9131004.3158, 4046888.4406000003], [-9131004.3936, 4046912.5063000023], [-9131004.5231, 4046945.8281000033], [-9131004.6719, 4046977.9650000036], [-9131006.9469, 4047389.352300003], [-9131008.2193, 4047619.441200003], [-9131006.1989, 4047662.391099997], [-9131004.3583, 4047680.550999999], [-9131002.9044, 4047693.6396000013], [-9130987.5242, 4047808.0725999996], [-9130949.1468, 4048093.824699998], [-9130946.4048, 4048114.2414999977]]]]}}, {"type": "Feature", "properties": {"OBJECTID": 230, "CreationDate": "2025-01-14T11:11:12Z", "Creator": "NPS_WASO_LANDS", "EditDate": "2025-01-14T11:11:12Z", "Editor": "NPS_WASO_LANDS", "GlobalID": "{7E82A2CA-B317-417A-8B3D-3F2EA9A10CCF}", "AreaID": 231, "UNIT_CODE": "CHPI", "GIS_Notes": "Lands - http://landsnet.nps.gov/tractsnet/documents/CHPI/Metadata/chpi_metadata.xml", "UNIT_NAME": "Charles Pinckney National Historic Site", "DATE_EDIT": "2020-04-29T00:00:00Z", "STATE": "SC", "REGION": "SE", "GNIS_ID": "1252725", "UNIT_TYPE": "National Historic Site", "CREATED_BY": "Lands", "METADATA": "https://irma.nps.gov/DataStore/Reference/Profile/1047935", "PARKNAME": "Charles Pinckney", "SHAPE_Length": 1655.6024201718544, "SHAPE_Area": 162342.82867848015}, "geometry": {"type": "MultiPolygon", "coordinates": [[[[-8885847.2509, 3875018.4417999983], [-8885839.2277, 3874711.3148000017], [-8886295.6927, 3874612.150799997], [-8886261.052, 3874834.8518999964], [-8886313.089, 3875013.675800003], [-8886309.2721, 3875014.7930999994], [-8886305.4242, 3875015.7973999977], [-8886301.5488, 3875016.688000001], [-8886297.649, 3875017.464400001], [-8886123.591, 3875042.8486], [-8886117.5715, 3875043.6169999987], [-8886111.5297, 3875044.179899998], [-8886105.4722, 3875044.5363000035], [-8886099.4063, 3875044.6862000003], [-8886093.3387, 3875044.6291999966], [-8886087.2766, 3875044.3654000014], [-8886081.2268, 3875043.8950000033], [-8885847.2509, 3875018.4417999983]]]]}}]}