{"type": "FeatureCollection", "name": "South_Dakota_park", "crs": {"type": "name", "properties": {"name": "urn:ogc:def:crs:EPSG::3857"}}, "features": [{"type": "Feature", "properties": {"OBJECTID": 68, "CreationDate": "2025-01-14T11:11:11Z", "Creator": "NPS_WASO_LANDS", "EditDate": "2025-01-14T11:11:11Z", "Editor": "NPS_WASO_LANDS", "GlobalID": "{67A01E8B-F206-40C4-94D6-400A212F74AF}", "AreaID": 49, "UNIT_CODE": "BADL", "GIS_Notes": "Lands - http://landsnet.nps.gov/tractsnet/documents/BADL/Metadata/badl_metadata.xml", "UNIT_NAME": "Badlands National Park", "DATE_EDIT": "2024-03-18T00:00:00Z", "STATE": "SD", "REGION": "MW", "GNIS_ID": "1265096", "UNIT_TYPE": "National Park", "CREATED_BY": "Lands", "METADATA": "https://irma.nps.gov/DataStore/Reference/Profile/2224522", "PARKNAME": "Badlands", "SHAPE_Length": 553343.3545588056, "SHAPE_Area": 1879789861.8737016}, "geometry": {"type": "MultiPolygon", "coordinates": [[[[-11388238.5117, 5400360.111500002], [-11387682.6947, 5400359.7042], [-11387129.0741, 5400359.756999999], [-11386575.4393, 5400359.8046], [-11386021.8185, 5400359.8598000035], [-11385468.1974, 5400359.9092999995], [-11385470.182, 5399804.353100002], [-11385472.1541, 5399248.8303999975], [-11385474.1417, 5398693.354000002], [-11385476.13, 5398137.8967999965], [-11385477.1473, 5397582.635700002], [-11385478.1655, 5397027.393700004], [-11385478.6821, 5396749.784900002], [-11385479.1987, 5396472.1844], [-11385480.22, 5395917.022200003], [-11385481.0527, 5395361.969899997], [-11385481.9011, 5394806.963600002], [-11385482.7509, 5394251.990400001], [-11385483.5876, 5393697.036899999], [-11385484.2525, 5393141.915899999], [-11385484.9183, 5392586.814000003], [-11386037.5768, 5392584.257600002], [-11386590.2475, 5392581.667599998], [-11386590.8727, 5392026.5176], [-11386591.5131, 5391471.3999999985], [-11386592.2788, 5390915.964900002], [-11386593.0326, 5390360.577200003], [-11386593.7989, 5389805.152900003], [-11386594.5522, 5389249.748499997], [-11386595.73, 5388694.982000001], [-11386596.8951, 5388140.259900004], [-11386598.0713, 5387585.497599997], [-11386599.2489, 5387030.768299997], [-11386601.1929, 5386475.226300001], [-11386603.1519, 5385919.716799997], [-11387156.5417, 5385915.4366], [-11387709.9162, 5385911.1373], [-11388263.1289, 5385914.243100002], [-11388816.3406, 5385917.315700002], [-11388817.6293, 5385362.142700002], [-11388818.8799, 5384824.766500004], [-11389372.0689, 5384823.359099999], [-11389854.6863, 5384822.133000001], [-11389925.2683, 5384821.876500003], [-11390477.9521, 5384820.588500001], [-11390961.4544, 5384819.476099998], [-11391030.6457, 5384819.211599998], [-11391584.1848, 5384817.643399999], [-11392068.5301, 5384816.2870000005], [-11392137.7217, 5384816.027999997], [-11392157.0891, 5384816.090400003], [-11392621.6946, 5384818.0967999995], [-11392688.8436, 5384818.385600001], [-11393115.3328, 5384820.247000001], [-11393239.9755, 5384819.273500003], [-11393796.9787, 5384828.247100003], [-11394221.149, 5384835.0682], [-11394353.9803, 5384834.079400003], [-11394357.846, 5384834.033200003], [-11394907.3292, 5384838.396300003], [-11395319.7972, 5384841.691299997], [-11395460.6787, 5384841.3539], [-11396014.2244, 5384853.248199999], [-11396423.5986, 5384858.636299998], [-11396568.8997, 5384858.336599998], [-11396567.9895, 5385388.572300002], [-11396567.9441, 5385407.180399999], [-11396567.0214, 5385937.4476], [-11396566.9767, 5385956.070600003], [-11397120.904, 5385962.800399996], [-11397674.8305, 5385969.496799998], [-11398228.0126, 5385976.149099998], [-11398781.1946, 5385982.781800002], [-11399331.8182, 5385984.043799996], [-11399882.4411, 5385985.286499999], [-11400432.6772, 5385986.498499997], [-11400982.9114, 5385987.663800001], [-11401533.4265, 5385989.9727], [-11402083.9541, 5385992.247900002], [-11402083.1134, 5386547.9771], [-11402082.2741, 5387103.739200003], [-11402082.1068, 5387656.757299997], [-11402081.9548, 5388209.807300001], [-11402632.1943, 5388212.572899997], [-11403182.4457, 5388215.2914], [-11403734.1136, 5388217.2962], [-11404285.7802, 5388219.268100001], [-11404286.7091, 5388773.037600003], [-11404287.6376, 5389326.825999998], [-11404287.7933, 5389880.9004999995], [-11404287.9507, 5390435.007799998], [-11404288.0933, 5390989.0933], [-11404288.2515, 5391543.211099997], [-11404289.1382, 5392096.626500003], [-11404290.0271, 5392650.088500001], [-11403738.0588, 5392647.865900002], [-11403186.0892, 5392645.609999999], [-11402634.1997, 5392641.617399998], [-11402082.323, 5392637.5911], [-11401530.4458, 5392633.545500003], [-11400978.567, 5392629.453100003], [-11400420.161, 5392627.421300001], [-11399861.7536, 5392625.355700001], [-11399303.3582, 5392623.241700001], [-11398744.9483, 5392621.108400002], [-11398745.6732, 5393171.567199998], [-11398746.4002, 5393722.0722], [-11398192.6865, 5393718.481700003], [-11397638.9735, 5393714.8994999975], [-11397085.2605, 5393711.311499998], [-11396531.5482, 5393707.731600001], [-11396004.5089, 5393706.916599996], [-11395452.7264, 5393706.082699999], [-11395453.8101, 5394261.734399997], [-11395454.8685, 5394817.433899999], [-11395455.9498, 5395373.013599999], [-11395457.0196, 5395928.640699998], [-11395458.6958, 5396485.285700001], [-11395460.3737, 5397041.9639], [-11395462.0543, 5397600.750100002], [-11395463.7236, 5398159.583800003], [-11394908.452, 5398154.349299997], [-11394353.1674, 5398149.123300001], [-11394351.6219, 5398703.7217999995], [-11394350.0773, 5399258.339400001], [-11393794.5953, 5399257.389200002], [-11393239.1257, 5399256.404799998], [-11392683.6411, 5399255.387599997], [-11392128.1689, 5399254.336099997], [-11391573.5403, 5399253.355599999], [-11391018.9242, 5399252.340999998], [-11390464.2923, 5399251.279700004], [-11389909.6735, 5399250.198200002], [-11389907.817, 5399805.745300002], [-11389905.9623, 5400361.339299999], [-11389350.1452, 5400360.922200002], [-11388794.3283, 5400360.512900002], [-11388238.5117, 5400360.111500002]]], [[[-11392814.8421, 5453428.900700003], [-11392258.0967, 5453428.221600004], [-11392259.5294, 5452868.296499997], [-11392260.9608, 5452308.405199997], [-11391703.7471, 5452306.286200002], [-11391146.5486, 5452304.1338], [-11390589.1299, 5452301.940099999], [-11390031.7399, 5452299.727300003], [-11390033.3164, 5451740.376500003], [-11389475.0059, 5451738.531199999], [-11388916.683, 5451736.6514], [-11388358.4223, 5451734.572700001], [-11387800.1907, 5451732.460699998], [-11387243.1067, 5451730.0326000005], [-11387243.755, 5451171.576700002], [-11386687.5349, 5451168.781400003], [-11386131.5744, 5451166.114200003], [-11385575.6141, 5451163.454800002], [-11385574.6275, 5450608.039300002], [-11385573.6395, 5450048.442400001], [-11385014.5109, 5450045.129799999], [-11384455.3704, 5450041.7689], [-11384455.104, 5449480.421999998], [-11384454.8363, 5448919.108999997], [-11383896.5709, 5448917.759999998], [-11383338.3055, 5448916.4186], [-11383338.8445, 5448357.906400003], [-11383339.3959, 5447799.428300001], [-11382829.647, 5447800.103699997], [-11382273.2538, 5447800.818899997], [-11381716.976, 5447801.491599999], [-11381170.9718, 5447802.119000003], [-11381160.6994, 5447802.130599998], [-11381154.0813, 5447802.128200002], [-11380603.3845, 5447801.908299997], [-11380046.0709, 5447801.651900001], [-11379488.7591, 5447801.3477], [-11378931.4342, 5447801.023100004], [-11378930.546, 5447241.7798999995], [-11378929.671, 5446682.556999996], [-11378372.4557, 5446681.813000001], [-11377815.2411, 5446681.048900001], [-11377258.04, 5446680.306999996], [-11376700.8253, 5446679.558499999], [-11376699.9053, 5446120.3401999995], [-11376698.9975, 5445561.1701000035], [-11376698.0751, 5445002.019199997], [-11376697.1512, 5444442.916000001], [-11376150.0044, 5444442.157300003], [-11375602.8576, 5444441.407799996], [-11375039.2746, 5444440.466300003], [-11374475.6916, 5444439.531800002], [-11374475.2378, 5443879.9366], [-11374474.7961, 5443320.389399998], [-11373915.6622, 5443319.753899999], [-11373356.5158, 5443319.083800003], [-11372799.3233, 5443318.3913], [-11372242.1465, 5443317.6514], [-11372242.2944, 5442758.589599997], [-11372242.4554, 5442199.548100002], [-11372242.3749, 5441991.094800003], [-11372242.368, 5441973.363899998], [-11372242.2393, 5441640.193800002], [-11372242.008, 5441080.872599997], [-11372241.3083, 5440522.291599996], [-11372240.594, 5439963.729599997], [-11372240.9869, 5439401.543799996], [-11372241.3646, 5438839.3917], [-11372242.3977, 5438283.561099999], [-11372243.4294, 5437727.763999999], [-11371685.4131, 5437727.449000001], [-11371127.3965, 5437727.1417], [-11370570.083, 5437728.130599998], [-11370012.7692, 5437729.126999997], [-11370013.006, 5437239.980800003], [-11370013.0237, 5437211.784500003], [-11370013.2734, 5436661.2751], [-11369528.4943, 5436653.4551], [-11368969.6822, 5436644.432999998], [-11368972.6112, 5436075.884800002], [-11368975.5248, 5435507.370899998], [-11368422.1937, 5435518.311399996], [-11367868.8622, 5435529.232500002], [-11367368.598, 5435529.132200003], [-11366761.9417, 5435528.967200004], [-11366399.2747, 5435528.541299999], [-11366342.3444, 5435528.4733000025], [-11366208.0569, 5435528.311099999], [-11365654.1726, 5435527.649400003], [-11365087.4723, 5435530.973999999], [-11364520.772, 5435534.2914], [-11363964.0114, 5435535.536799997], [-11363407.2509, 5435536.776000001], [-11362851.9669, 5435535.784100004], [-11362296.6967, 5435534.8006], [-11361741.4483, 5435530.076300003], [-11361186.2003, 5435525.359999999], [-11360628.5009, 5435526.952299997], [-11360070.7873, 5435528.551700003], [-11359513.0868, 5435529.006800003], [-11358955.386, 5435529.469499998], [-11358402.9208, 5435529.420000002], [-11357850.4413, 5435529.392300002], [-11357481.7039, 5434969.936499998], [-11356962.3241, 5434181.8401999995], [-11356738.0228, 5434075.4868], [-11356269.3309, 5433851.5625], [-11355651.9662, 5433854.337099999], [-11355097.0177, 5433856.309799999], [-11355051.8457, 5434026.2897000015], [-11354827.0836, 5434228.075900003], [-11354545.0758, 5434415.734200001], [-11354454.9975, 5434488.753899999], [-11354338.7509, 5434417.0254999995], [-11353608.3393, 5434421.643100001], [-11353603.1014, 5434519.499300003], [-11353544.6956, 5434649.965899996], [-11353609.6362, 5434807.230999999], [-11353616.1017, 5434896.463799998], [-11353438.805, 5434957.523199998], [-11353293.3193, 5434963.447899997], [-11353000.423, 5434799.442500003], [-11352741.3794, 5434623.578599997], [-11352499.5968, 5434427.584200002], [-11352424.0018, 5434371.248599999], [-11352323.4146, 5434254.724200003], [-11352325.0159, 5433877.118299998], [-11352327.3869, 5433318.002700001], [-11351768.7522, 5433317.9256], [-11351210.1508, 5433317.8486], [-11351207.9019, 5432196.062799998], [-11350091.9127, 5432195.895199999], [-11348981.7402, 5432198.814800002], [-11348426.6537, 5432200.224399999], [-11347871.567, 5432201.600599997], [-11347313.8146, 5432201.184799999], [-11346756.0621, 5432201.7839], [-11345640.5569, 5432205.949100003], [-11344531.3358, 5432204.539300002], [-11344531.3248, 5433328.860100001], [-11344534.1301, 5433884.907399997], [-11344536.9186, 5434440.957400002], [-11344539.7072, 5434997.0101], [-11343925.5977, 5435003.2141999975], [-11343937.8359, 5434966.143200003], [-11343961.469, 5434893.368500002], [-11343990.5116, 5434804.252400003], [-11344017.7205, 5434722.032799996], [-11344042.309, 5434649.860799998], [-11344059.6659, 5434600.299099997], [-11344079.0875, 5434542.127599999], [-11344096.45, 5434480.185099997], [-11344106.0678, 5434444.395900004], [-11344114.6585, 5434412.428000003], [-11344115.7526, 5434407.3609], [-11344159.9942, 5434394.569600001], [-11344167.5038, 5434343.6928], [-11344130.2658, 5434336.999700002], [-11344136.1032, 5434305.201399997], [-11344145.7155, 5434251.772699997], [-11344151.1674, 5434219.103100002], [-11344154.5255, 5434187.286399998], [-11344161.1321, 5434125.838299997], [-11344164.1981, 5434079.3006], [-11344167.8694, 5433963.875200003], [-11344165.969, 5433914.929899998], [-11344165.1197, 5433869.936300002], [-11344160.0485, 5433808.318000004], [-11344156.2403, 5433762.240000002], [-11344150.5791, 5433721.1888], [-11344145.9856, 5433685.008000001], [-11344140.5043, 5433655.397699997], [-11344167.5709, 5433662.270300001], [-11344155.746, 5433615.6241], [-11344132.0311, 5433609.602499999], [-11344127.5007, 5433586.307800002], [-11344109.6013, 5433520.558700003], [-11344185.9095, 5433520.270900004], [-11344183.4968, 5433330.179399997], [-11344028.0376, 5433330.765000001], [-11344010.4399, 5433330.831], [-11343976.7643, 5433330.957500003], [-11343422.2039, 5433333.0239999965], [-11342920.921, 5433336.755999997], [-11342364.7575, 5433340.596000001], [-11342359.5364, 5431083.375799999], [-11342338.6304, 5428898.721600004], [-11342319.5945, 5426644.437700003], [-11342875.424, 5426640.276900001], [-11343413.6761, 5426636.100699998], [-11343415.9024, 5426077.840000004], [-11343418.0063, 5425519.428300001], [-11345650.8087, 5425512.941100001], [-11345650.753, 5424955.256899998], [-11345650.6973, 5424397.637100004], [-11346204.0554, 5424394.309299998], [-11346757.4025, 5424390.9969], [-11346756.6296, 5424112.932700001], [-11347309.7928, 5424109.759599999], [-11347862.9556, 5424106.553499997], [-11347864.1189, 5424384.356600001], [-11348420.4716, 5424384.834200002], [-11348425.8201, 5425501.555699997], [-11348978.3664, 5425500.642999999], [-11349534.9835, 5425499.689999998], [-11349963.2358, 5425498.934], [-11349991.7031, 5425498.883000001], [-11350091.6003, 5425498.703500003], [-11351210.1729, 5425493.332199998], [-11351769.4586, 5425490.5956000015], [-11352328.7442, 5425487.825000003], [-11352877.9534, 5425485.2739999965], [-11353427.1624, 5425482.690099999], [-11353976.3709, 5425480.073600002], [-11354525.5792, 5425477.4243], [-11354525.5792, 5425480.6445999965], [-11354533.1601, 5425922.068800002], [-11354534.8188, 5426298.054099999], [-11354538.0694, 5426592.381099999], [-11356205.3463, 5426593.9065999985], [-11356729.2495, 5426594.211599998], [-11356729.1815, 5427144.701899998], [-11356729.1803, 5427156.0823], [-11356729.1218, 5427702.588500001], [-11356729.1201, 5427717.813600004], [-11356729.0608, 5428260.508400001], [-11356728.9988, 5428818.447899997], [-11357283.5069, 5428819.350699998], [-11357838.0158, 5428820.2337], [-11358392.5248, 5428821.124700002], [-11358947.0337, 5428822.023800001], [-11359497.2086, 5428823.081], [-11360047.3701, 5428824.1325], [-11360597.5455, 5428825.193000004], [-11361147.7211, 5428826.248400003], [-11361704.7326, 5428829.928599998], [-11362261.7591, 5428833.589500003], [-11362267.0912, 5428276.320799999], [-11362272.4069, 5427719.098899998], [-11362828.8771, 5427722.135899998], [-11363385.349, 5427725.1391], [-11363941.9244, 5427725.6008], [-11364498.5012, 5427726.028700002], [-11365055.0655, 5427726.422499999], [-11365611.6312, 5427726.782399997], [-11365609.5191, 5428284.3561], [-11365607.4051, 5428841.976999998], [-11366161.0613, 5428841.646499999], [-11366714.7178, 5428841.310099997], [-11367268.3597, 5428840.995499998], [-11367822.0024, 5428840.6611], [-11368377.837, 5428848.113600001], [-11368933.6585, 5428855.5735], [-11369489.5722, 5428863.197099999], [-11370019.0993, 5428870.4684000015], [-11370018.3013, 5429429.324100003], [-11370017.5023, 5429988.199199997], [-11370016.7015, 5430547.122000001], [-11370015.9132, 5431106.078900002], [-11370573.9365, 5431092.9463], [-11371131.9723, 5431079.807999998], [-11371687.3824, 5431081.4811], [-11372242.8059, 5431083.176299997], [-11372242.1495, 5431642.212200001], [-11372241.4917, 5432201.2815999985], [-11372241.3181, 5432759.138099998], [-11372241.1568, 5433317.028399996], [-11372797.7011, 5433316.993900001], [-11373354.259, 5433316.967799999], [-11373357.0099, 5433875.019699998], [-11373359.7464, 5434433.090800002], [-11373916.5945, 5434433.0266999975], [-11374473.4294, 5434432.942400001], [-11374476.4584, 5434991.320699997], [-11374479.4997, 5435549.746799998], [-11375036.8074, 5435545.880999997], [-11375594.101, 5435542.008699998], [-11375594.2515, 5436099.522], [-11375594.4148, 5436657.0691], [-11376152.3328, 5436654.308799997], [-11376710.2519, 5436651.514700003], [-11376711.027, 5437208.921599999], [-11376711.7415, 5437727.548600003], [-11377268.2294, 5437728.477600001], [-11377824.7034, 5437729.414099999], [-11378381.1775, 5437730.358599998], [-11378937.6381, 5437731.296400003], [-11379494.1941, 5437732.2870000005], [-11380050.7642, 5437733.272100002], [-11380051.9668, 5438292.620099999], [-11380053.1817, 5438852.016099997], [-11380608.1935, 5438854.026600003], [-11381163.2065, 5438856.0035], [-11381714.6745, 5438855.521899998], [-11382266.1436, 5438855.007200003], [-11382829.1989, 5438854.6669000015], [-11383348.2719, 5438854.371399999], [-11383348.9363, 5438296.996299997], [-11383349.586, 5437739.6404], [-11383908.6618, 5437749.270400003], [-11384467.7395, 5437758.880500004], [-11385021.0512, 5437760.3336], [-11385574.3634, 5437761.781300001], [-11386127.3378, 5437763.4065999985], [-11386680.3261, 5437765.040600002], [-11387233.2871, 5437766.668099999], [-11387786.2625, 5437768.290600002], [-11387792.5111, 5437185.5217999965], [-11387798.4792, 5436630.461800002], [-11387801.5467, 5436078.173199996], [-11387804.627, 5435525.903999999], [-11387806.861, 5434952.434500001], [-11387809.0931, 5434379.014399998], [-11387254.0682, 5434381.520499997], [-11387255.427, 5433827.004600003], [-11386699.172, 5433822.438699998], [-11386699.2533, 5433284.7421], [-11386700.2157, 5432719.227499999], [-11387256.5836, 5432717.451800004], [-11387256.5914, 5432150.468800001], [-11387812.0336, 5432147.1853], [-11387812.1728, 5431589.1395], [-11387812.3247, 5431031.127599999], [-11388369.0531, 5431030.462399997], [-11388925.7818, 5431029.791100003], [-11389482.6536, 5431030.2566], [-11390039.5251, 5431030.729999997], [-11390596.5685, 5431029.315099999], [-11391153.612, 5431027.894000001], [-11391710.9355, 5431026.795299999], [-11392268.2449, 5431025.703699999], [-11392267.5557, 5430469.155500002], [-11392266.8797, 5429912.626999997], [-11392266.1869, 5429354.465899996], [-11392265.4929, 5428796.338299997], [-11392820.5244, 5428794.3904], [-11393375.5413, 5428792.464000002], [-11393933.8063, 5428802.737099998], [-11394492.0589, 5428813.003700003], [-11395048.8525, 5428812.2124999985], [-11395605.6457, 5428811.429099999], [-11396162.2246, 5428810.868600003], [-11396632.9056, 5428810.429799996], [-11396632.7001, 5428250.837800004], [-11396632.5595, 5427845.056299999], [-11396632.5207, 5427691.294100001], [-11396632.3767, 5427286.508199997], [-11396632.3216, 5427131.936099999], [-11396632.1901, 5426727.9912], [-11397185.0053, 5426725.750500001], [-11397737.8346, 5426723.490599997], [-11398290.6498, 5426721.238799997], [-11398843.4788, 5426718.981799997], [-11399397.9837, 5426717.507299997], [-11399952.4882, 5426716.040899999], [-11400506.993, 5426714.568700001], [-11401061.4974, 5426713.104699999], [-11401617.507, 5426714.817599997], [-11401619.7162, 5427275.312799998], [-11401621.9374, 5427835.797600001], [-11401621.2891, 5428393.8396999985], [-11401620.6405, 5428951.887599997], [-11401621.4967, 5429510.015799999], [-11401622.339, 5430068.1494999975], [-11402178.4837, 5430067.987499997], [-11402734.5646, 5430067.651100002], [-11403290.6467, 5430067.281099997], [-11403845.522, 5430064.785499997], [-11404367.1105, 5430062.408200003], [-11404386.5335, 5430062.319700003], [-11404400.3841, 5430062.256200001], [-11404955.51, 5430059.687399998], [-11405510.6502, 5430057.099299997], [-11405509.8989, 5429500.0933], [-11405509.1603, 5428943.121100001], [-11405509.971, 5428385.230899997], [-11405510.781, 5427827.360200003], [-11405511.5892, 5427269.536700003], [-11405512.4082, 5426711.7299000025], [-11406068.5513, 5426713.191100001], [-11406624.695, 5426714.646200001], [-11407180.8392, 5426716.095299996], [-11407736.9832, 5426717.5524], [-11407735.5193, 5426159.626500003], [-11407734.0688, 5425601.720399998], [-11408289.7953, 5425601.521200001], [-11408845.5372, 5425601.274899997], [-11409401.4044, 5425600.998800002], [-11409918.6725, 5425600.752800003], [-11409918.6141, 5425500.943099998], [-11409918.3465, 5425043.357500002], [-11409918.0194, 5424485.995700002], [-11410477.4203, 5424478.960699998], [-11411036.8285, 5424471.9130000025], [-11411591.8407, 5424472.702500001], [-11412146.8528, 5424473.500200003], [-11412702.0612, 5424474.2146999985], [-11413257.2837, 5424474.923600003], [-11413255.9279, 5423917.051600002], [-11413254.5569, 5423359.226400003], [-11413253.1987, 5422801.435099997], [-11413251.8401, 5422243.6633], [-11413249.7028, 5421686.983199999], [-11413247.5509, 5421130.335900001], [-11413245.412, 5420573.722499996], [-11413243.2583, 5420017.1417], [-11413800.2998, 5420015.084899999], [-11414357.3412, 5420013.022100002], [-11414356.6469, 5419455.298600003], [-11414355.9381, 5418897.5940999985], [-11414354.9161, 5418340.2048999965], [-11414353.8932, 5417782.848999999], [-11414352.944, 5417206.677900001], [-11414204.4535, 5417206.768100001], [-11414204.4332, 5417131.259000003], [-11414204.9787, 5416574.381899998], [-11414205.54, 5416017.551399998], [-11414206.9419, 5415462.298], [-11414208.3594, 5414907.090999998], [-11414764.8312, 5414907.146700002], [-11414765.6264, 5414352.373599999], [-11414766.4356, 5413797.605499998], [-11415321.7004, 5413798.441600002], [-11415876.9648, 5413799.2717999965], [-11416432.2296, 5413800.109999999], [-11416431.5575, 5413245.314300001], [-11416430.9008, 5412690.551100001], [-11416430.2319, 5412135.821500003], [-11416429.5646, 5411581.125], [-11416429.1003, 5411024.388999999], [-11416428.8759, 5410746.0331000015], [-11416151.4299, 5410744.771600001], [-11416151.1945, 5410466.459100001], [-11416428.6514, 5410467.685500003], [-11416428.0656, 5409911.325900003], [-11416427.4814, 5409354.999600001], [-11416426.8495, 5408798.196400002], [-11416426.2335, 5408241.439400002], [-11416980.4711, 5408243.7858000025], [-11417534.7079, 5408246.112499997], [-11417535.2506, 5408802.830799997], [-11417535.7946, 5409359.568400003], [-11417536.2826, 5409916.286399998], [-11417536.7723, 5410473.037699997], [-11417537.2534, 5411029.905699998], [-11417537.7446, 5411585.393700004], [-11418091.8278, 5411587.5266999975], [-11418645.9115, 5411589.6677], [-11419200.612, 5411592.025600001], [-11419755.2991, 5411594.391999997], [-11420309.9868, 5411596.766400002], [-11420864.6737, 5411599.121100001], [-11420865.4129, 5412154.4507], [-11420866.1394, 5412709.800300002], [-11420866.8682, 5413265.196699999], [-11420867.6118, 5413820.611900002], [-11421422.1754, 5413823.422700003], [-11421976.7397, 5413826.241700001], [-11422531.6058, 5413828.695200004], [-11423050.4304, 5413830.975199997], [-11423049.5556, 5413275.552500002], [-11423048.6832, 5412720.176600002], [-11423047.8117, 5412164.82], [-11423046.9427, 5411609.510300003], [-11423602.0289, 5411609.604199998], [-11424157.1291, 5411609.7053999975], [-11424156.9785, 5411053.400700003], [-11424156.827, 5410496.4366], [-11424711.8741, 5410496.853299998], [-11425266.9198, 5410497.236400001], [-11425822.3606, 5410498.136399999], [-11425822.1167, 5409941.030500002], [-11425821.8739, 5409383.943999998], [-11425266.4441, 5409383.3477], [-11425266.1781, 5408826.226199999], [-11425265.9269, 5408269.123499997], [-11424710.7067, 5408268.954800002], [-11424710.3283, 5407711.960000001], [-11424709.9377, 5407154.999200001], [-11424709.5403, 5406598.196500003], [-11424709.1441, 5406041.413099997], [-11424708.7615, 5405484.621100001], [-11424708.3662, 5404927.849100001], [-11424153.5934, 5404927.348899998], [-11423599.2227, 5403812.598200001], [-11423045.2128, 5402698.000100002], [-11422520.068, 5402696.838399999], [-11421965.5474, 5402695.585199997], [-11421411.0702, 5402694.061499998], [-11420856.5928, 5402692.531999998], [-11420856.4315, 5402135.804300003], [-11420856.2718, 5401579.109700002], [-11420856.1136, 5401022.4485], [-11420855.9434, 5400465.820900001], [-11420855.293, 5399909.883900002], [-11420854.6444, 5399353.980099998], [-11420853.9835, 5398798.109999999], [-11420853.3376, 5398242.258400001], [-11420855.7116, 5397675.2579], [-11420858.0143, 5397119.386799999], [-11420860.7059, 5396563.905199997], [-11420863.398, 5396008.443000004], [-11420309.6644, 5396009.1559000015], [-11419755.9309, 5396009.876699999], [-11419202.197, 5396010.5918999985], [-11418648.4495, 5396011.315899998], [-11418091.1461, 5396013.639399998], [-11417533.8277, 5396015.943700001], [-11416976.5236, 5396018.269000001], [-11416419.205, 5396020.588600002], [-11415865.3513, 5396020.1536], [-11415311.4973, 5396019.712899998], [-11415312.1983, 5395463.731700003], [-11415312.9001, 5394907.769699998], [-11415313.5873, 5394351.7863000035], [-11415314.2898, 5393795.8354], [-11414759.753, 5393795.334600002], [-11414205.2027, 5393794.842299998], [-11414205.5782, 5393240.3345], [-11414205.9414, 5392685.860100001], [-11414206.3062, 5392131.418499999], [-11414206.6725, 5391577.009999998], [-11413653.2327, 5391575.551600002], [-11413099.7802, 5391574.115900002], [-11412546.3412, 5391572.673799999], [-11411992.902, 5391571.2260000035], [-11411440.2516, 5391572.157899998], [-11411163.9193, 5391572.625699997], [-11410887.587, 5391573.085100003], [-11410334.9224, 5391574.020199999], [-11409782.2694, 5391574.9538], [-11409780.104, 5392127.905199997], [-11409777.9532, 5392680.875200003], [-11409265.2433, 5392678.694799997], [-11408711.7376, 5392676.3103], [-11408158.8093, 5392673.8957], [-11407605.8797, 5392671.447899997], [-11407604.9076, 5392330.573600002], [-11407604.6464, 5392247.313699998], [-11407604.2739, 5392117.766099997], [-11407602.6983, 5391564.143600002], [-11407601.2963, 5391010.049099997], [-11407599.896, 5390455.987300001], [-11407598.4974, 5389901.958400004], [-11408150.1928, 5389905.5217999965], [-11408701.8733, 5389909.052599996], [-11409254.6943, 5389912.516199999], [-11409780.929, 5389915.769900002], [-11409780.2371, 5389356.409400001], [-11409982.3653, 5389356.718199998], [-11410300.9385, 5389356.8543], [-11410337.4857, 5389356.898800001], [-11410890.816, 5389356.268100001], [-11411443.699, 5389354.171899997], [-11411996.5819, 5389352.084100001], [-11412549.3904, 5389352.812700003], [-11413102.1986, 5389353.535899997], [-11413655.0066, 5389354.2535], [-11414207.8149, 5389354.9793], [-11414762.2016, 5389354.2914], [-11415316.5885, 5389353.6118], [-11415870.9612, 5389352.926899999], [-11416425.3472, 5389352.2355], [-11416978.6036, 5389351.863399997], [-11417531.8595, 5389351.485799998], [-11418085.1151, 5389351.102399997], [-11418638.3708, 5389350.7272000015], [-11419191.608, 5389350.886], [-11419744.8309, 5389351.039899997], [-11420298.0541, 5389351.201899998], [-11420851.2769, 5389351.358199999], [-11420850.1377, 5388796.118799999], [-11420848.9845, 5388240.9125000015], [-11421401.8079, 5388242.6010000035], [-11421954.6299, 5388244.256300002], [-11422507.8914, 5388245.887000002], [-11423050.3557, 5388247.444200002], [-11423049.731, 5388802.755000003], [-11423049.1197, 5389358.0977], [-11423601.833, 5389357.944899999], [-11424154.5597, 5389357.785999998], [-11425259.6449, 5390468.431500003], [-11425259.4629, 5391023.950400002], [-11425259.2968, 5391579.515600003], [-11425259.2154, 5392134.806000002], [-11425259.1217, 5392690.130000003], [-11425259.0435, 5393245.486500002], [-11425258.9531, 5393800.876599997], [-11425258.9533, 5394356.129900001], [-11425813.1577, 5394356.509099998], [-11426367.3469, 5394356.855700001], [-11426921.55, 5394357.209700003], [-11427475.751, 5394357.516500004], [-11428029.9645, 5394358.425399996], [-11428584.1765, 5394359.300800003], [-11429138.3744, 5394360.171099998], [-11429692.585, 5394361.021200001], [-11430248.2455, 5394360.695100002], [-11430803.9038, 5394360.321599998], [-11431359.5621, 5394359.955899999], [-11431360.1057, 5394916.128200002], [-11431360.6224, 5395472.307400003], [-11431361.1671, 5396028.490599997], [-11430805.1245, 5396028.9711000025], [-11430249.0815, 5396029.445600003], [-11430251.2247, 5396585.2597], [-11430253.3684, 5397141.079400003], [-11430255.5209, 5397697.083999999], [-11430809.986, 5397696.692500003], [-11431364.4369, 5397696.2958], [-11431918.8723, 5397695.8662], [-11432472.8067, 5397698.745099999], [-11433026.7536, 5397701.590000004], [-11434130.6958, 5396036.572800003], [-11434129.6864, 5395480.175999999], [-11435788.7395, 5393804.061899997], [-11436325.6085, 5393801.740400001], [-11436880.6303, 5393804.249600001], [-11437435.6522, 5393806.752899997], [-11437990.6882, 5393809.263499998], [-11438545.7125, 5393811.767700002], [-11439099.9491, 5393812.365900002], [-11439654.1724, 5393812.9728000015], [-11440208.409, 5393813.5735], [-11440762.6458, 5393814.181999996], [-11441869.8811, 5394926.506899998], [-11442423.0504, 5394926.732199997], [-11442976.2042, 5394926.924800001], [-11443531.9443, 5394928.845799997], [-11444087.6966, 5394930.732699998], [-11444086.8924, 5394374.963200003], [-11444086.0899, 5393819.2267], [-11444085.1974, 5393263.624300003], [-11444084.2929, 5392708.055399999], [-11444083.4008, 5392152.450199999], [-11444082.4967, 5391596.878600001], [-11443527.7933, 5391595.814199999], [-11442973.0764, 5391594.758500002], [-11442972.4094, 5391039.305699997], [-11442971.7292, 5390483.858999997], [-11442971.218, 5390064.9472], [-11443666.4693, 5389374.340499997], [-11443994.2685, 5389048.694899999], [-11444077.1063, 5388965.646899998], [-11444622.8053, 5388418.524800003], [-11444679.0371, 5388362.791100003], [-11444720.2559, 5388318.3411], [-11444746.9864, 5388277.503700003], [-11444753.3317, 5388266.390299998], [-11445181.3514, 5388267.4164], [-11445178.8518, 5387712.626500003], [-11445176.341, 5387157.884099998], [-11445173.8004, 5386879.1570999995], [-11445205.9176, 5386842.748800002], [-11445257.4324, 5386781.006999999], [-11445356.5585, 5386694.426299997], [-11445468.8591, 5386602.434199996], [-11445543.7913, 5386543.333499998], [-11445664.2666, 5386446.078400001], [-11445740.7625, 5386383.586099997], [-11445825.3375, 5386312.4903], [-11445890.6689, 5386267.053000003], [-11445959.333, 5386221.515299998], [-11446033.1917, 5386182.5097], [-11446102.252, 5386150.336199999], [-11446187.9185, 5386115.990000002], [-11446291.28, 5386085.097900003], [-11446293.6739, 5386084.382399999], [-11446399.5722, 5386046.923900001], [-11446497.656, 5386012.2282000035], [-11446656.0581, 5385957.2949], [-11446845.8118, 5385896.237800002], [-11446862.4624, 5385890.879799999], [-11447298.0315, 5385738.956799999], [-11447431.6143, 5385718.0854], [-11447488.1442, 5385713.031900004], [-11447955.2148, 5385722.307800002], [-11448503.8992, 5385729.084100001], [-11449058.4191, 5385734.039499998], [-11449126.6976, 5385734.808399998], [-11449160.1547, 5385736.102499999], [-11449184.6104, 5385744.604500003], [-11449219.6019, 5385758.563699998], [-11449262.8962, 5385780.360600002], [-11449299.1084, 5385796.593999997], [-11449340.0667, 5385817.306299999], [-11449545.2387, 5385952.126699999], [-11449588.5346, 5385973.922499999], [-11449609.5373, 5385977.313199997], [-11449618.6435, 5385978.783299997], [-11449635.878, 5385977.102799997], [-11449664.4854, 5385970.452500001], [-11449698.4305, 5385949.770800002], [-11449726.4785, 5385924.646300003], [-11449754.7013, 5385905.295299999], [-11449817.0098, 5385869.8807], [-11449973.6824, 5385792.294699997], [-11450163.7789, 5385699.139899999], [-11450277.9876, 5385643.170599997], [-11450309.802, 5385628.330200002], [-11450341.6865, 5385615.799999997], [-11450364.712, 5385615.096699998], [-11450406.2972, 5385618.448899999], [-11450449.0681, 5385622.920900002], [-11450500.3544, 5385642.1559000015], [-11450535.5927, 5385664.192699999], [-11450585.3824, 5385710.053800002], [-11450717.2602, 5385898.8618], [-11450824.9741, 5386053.070100002], [-11451601.7482, 5387165.023599997], [-11451668.7156, 5387260.878200002], [-11451825.6297, 5387484.3671], [-11452284.9929, 5388138.580300003], [-11452381.1427, 5388276.323899999], [-11452430.2231, 5388346.634900004], [-11452591.0432, 5388536.5392], [-11452790.4978, 5388772.9331], [-11452932.1692, 5388932.618900001], [-11453088.6106, 5389108.946900003], [-11453324.1452, 5389387.746299997], [-11453414.6318, 5389494.850299999], [-11453753.3406, 5389877.0923999995], [-11454039.2467, 5390219.523000002], [-11454040.0301, 5390220.461199999], [-11454086.2414, 5390275.806500003], [-11454342.0019, 5390572.0374], [-11454522.907, 5390784.070699997], [-11454542.2381, 5390810.7707], [-11454552.664, 5390830.160400003], [-11454556.0902, 5390842.299800001], [-11454562.7778, 5390861.2258], [-11454563.4132, 5390881.870200001], [-11454566.2884, 5390900.914999999], [-11454563.9213, 5390923.182999998], [-11454531.2046, 5391000.731899999], [-11454494.3389, 5391093.4036], [-11454485.4158, 5391125.825300001], [-11454478.6147, 5391152.823700003], [-11454474.8875, 5391180.492200002], [-11454460.6864, 5391340.443400003], [-11454455.3632, 5391365.865999997], [-11454444.7268, 5391392.2184000015], [-11454424.0612, 5391415.055], [-11454333.6912, 5391528.836099997], [-11454312.0502, 5391544.814000003], [-11454296.345, 5391555.250399999], [-11454084.6248, 5391651.674999997], [-11454040.8221, 5391670.689800002], [-11454005.3589, 5391686.084200002], [-11453980.7089, 5391704.8222], [-11453960.4059, 5391735.409699999], [-11453912.7805, 5391827.4274], [-11453883.9681, 5391883.577200003], [-11453833.4226, 5391966.943599999], [-11453801.2549, 5391952.735399999], [-11453781.5537, 5391985.535400003], [-11453746.782, 5392033.3389], [-11453698.0054, 5392097.151900001], [-11453660.9089, 5392136.719899997], [-11453623.4453, 5392170.391800001], [-11453567.9831, 5392218.8347999975], [-11453493.2159, 5392279.296899997], [-11453411.3018, 5392343.094700001], [-11453297.0559, 5392442.679399997], [-11453245.9192, 5392497.219400004], [-11453212.018, 5392539.803800002], [-11453175.1726, 5392587.6721], [-11453141.2708, 5392630.256800003], [-11453107.75, 5392685.292300001], [-11453073.5122, 5392750.734499998], [-11453030.6013, 5392840.975199997], [-11453004.6384, 5392906.163199998], [-11452984.8503, 5392970.1228], [-11452964.5362, 5393050.7151999995], [-11452950.9872, 5393115.521700002], [-11452941.9251, 5393191.614500001], [-11452935.0754, 5393277.063500002], [-11452381.7007, 5393277.066200003], [-11451828.3112, 5393277.049800001], [-11451828.6196, 5393832.678599998], [-11451829.0769, 5394388.540899999], [-11452382.4132, 5394388.656099997], [-11452382.7984, 5394944.623899996], [-11452936.0729, 5394944.777900003], [-11452936.3829, 5395500.782300003], [-11452936.7221, 5396056.818599999], [-11452935.5409, 5396612.751999997], [-11452934.3757, 5397168.731700003], [-11454041.3308, 5398281.533299997], [-11454040.8112, 5398836.046800002], [-11454040.4218, 5399264.478600003], [-11454040.3071, 5399390.592600003], [-11454039.791, 5399945.1721], [-11454039.2764, 5400499.784500003], [-11453485.2347, 5400499.415799998], [-11453485.5798, 5401055.722599998], [-11453485.9122, 5401612.049599998], [-11453486.2445, 5402168.368199997], [-11453486.5916, 5402724.705700003], [-11453486.8755, 5403281.162199996], [-11453487.1744, 5403837.637599997], [-11453487.4737, 5404394.118699998], [-11453487.7603, 5404950.619800001], [-11453488.8322, 5407174.094499998], [-11453488.9589, 5407730.104800001], [-11453489.0874, 5408286.1483], [-11453489.2151, 5408842.169699997], [-11453489.3583, 5409398.2236], [-11453489.5869, 5409955.511799999], [-11453489.8297, 5410512.804899998], [-11453490.039, 5411069.966700003], [-11453490.2493, 5411629.881399997], [-11451822.4423, 5411630.349699996], [-11442987.2242, 5411627.7946000025], [-11442987.6859, 5412184.611599997], [-11442988.1355, 5412741.4624999985], [-11442988.5863, 5413298.332800001], [-11442989.0393, 5413855.250200003], [-11442989.2478, 5414411.339299999], [-11442989.4586, 5414967.475299999], [-11442989.6705, 5415523.630999997], [-11442989.8841, 5416079.819700003], [-11442989.9116, 5416637.075800002], [-11442989.941, 5417194.3653], [-11442989.9525, 5417219.437399998], [-11442680.278, 5417219.668300003], [-11442436.0498, 5417219.504100002], [-11441882.1428, 5417219.177199997], [-11441579.8261, 5417219.033399999], [-11441328.2361, 5417218.8583], [-11440774.3428, 5417218.532899998], [-11440479.7889, 5417218.413800001], [-11440218.5089, 5417218.3598000035], [-11439855.5374, 5417218.295299999], [-11439662.6934, 5417218.2907000035], [-11439107.6067, 5417218.1545], [-11438764.7709, 5417218.072300002], [-11438552.5215, 5417218.054200001], [-11438264.2711, 5417218.062200002], [-11437997.1085, 5417218.047200002], [-11436887.4251, 5417218.041599996], [-11436547.7953, 5417218.039499998], [-11436333.157, 5417218.0524], [-11436051.5749, 5417217.7337], [-11436007.9852, 5417217.695], [-11435812.217, 5417217.493799999], [-11435453.7581, 5417217.082500003], [-11435257.99, 5417216.883500002], [-11434835.4427, 5417216.374200001], [-11434704.285, 5417216.2161], [-11434346.1141, 5417215.7623], [-11434150.5753, 5417215.7509], [-11433708.5601, 5417214.444300003], [-11433595.8773, 5417214.188000001], [-11433235.5224, 5417213.387000002], [-11433041.1773, 5417213.201399997], [-11432597.4943, 5417212.2764], [-11432486.5244, 5417212.0266999975], [-11432124.3043, 5417211.210100003], [-11431931.8702, 5417211.137100004], [-11431483.1588, 5417210.813000001], [-11431377.4476, 5417210.799800001], [-11431012.4155, 5417210.7302], [-11430823.0256, 5417210.788999997], [-11430450.4974, 5417210.796300001], [-11430268.5463, 5417210.733499996], [-11429900.308, 5417210.6241], [-11429714.0678, 5417210.699900001], [-11429364.024, 5417210.396300003], [-11429158.5169, 5417210.1536], [-11428787.3905, 5417209.698299997], [-11428602.9454, 5417209.768600002], [-11428290.9774, 5417209.743000001], [-11428047.3609, 5417209.406000003], [-11427674.5741, 5417208.882200003], [-11427491.7593, 5417208.968900003], [-11427154.7309, 5417209.418300003], [-11426935.7567, 5417209.153300002], [-11426562.3925, 5417208.692900002], [-11426379.7564, 5417208.444700003], [-11426043.6964, 5417207.992600001], [-11425823.7694, 5417207.7293], [-11425450.2533, 5417207.272], [-11425267.7869, 5417207.118699998], [-11424930.4884, 5417205.821099997], [-11424714.4006, 5417204.918799996], [-11424338.3217, 5417203.3367], [-11424161.0178, 5417203.114699997], [-11423816.3368, 5417202.280599996], [-11423607.6947, 5417201.413400002], [-11423226.2566, 5417199.812899999], [-11423054.3771, 5417199.830899999], [-11422701.7645, 5417199.8565], [-11422667.7471, 5417199.848200001], [-11422537.9361, 5417199.858999997], [-11422112.3159, 5417199.881200001], [-11422118.2613, 5417799.119499996], [-11422118.5504, 5418354.9714], [-11422118.8386, 5418910.856299996], [-11422119.1257, 5419466.774400003], [-11422119.4119, 5420022.725599997], [-11422120.69, 5420578.2951000035], [-11422121.9537, 5421133.883599997], [-11422123.2304, 5421689.505400002], [-11422124.5062, 5422245.160400003], [-11422124.4457, 5422801.628200002], [-11422124.398, 5423358.129600003], [-11422124.3354, 5423914.663699999], [-11422124.2855, 5424471.231600001], [-11421570.8239, 5424472.663800001], [-11421017.3615, 5424474.118299998], [-11420464.1794, 5424475.436300002], [-11419910.9966, 5424476.776600003], [-11419357.8002, 5424478.1109], [-11418804.6037, 5424479.439599998], [-11418248.0038, 5424479.455700003], [-11417691.3765, 5424479.465000004], [-11417137.5372, 5424479.148400001], [-11416583.6982, 5424478.825999998], [-11416582.7328, 5425036.8847], [-11416581.7805, 5425594.963299997], [-11416027.9658, 5425594.372299999], [-11415474.1523, 5425593.747699998], [-11414920.3384, 5425593.145300001], [-11414366.5251, 5425592.5233], [-11414366.9939, 5426150.857699998], [-11414367.4616, 5426709.225599997], [-11413811.593, 5426709.465999998], [-11413255.7241, 5426709.714500003], [-11412699.8555, 5426709.957000002], [-11412143.9872, 5426710.193400003], [-11411587.5664, 5426711.7949], [-11411587.8453, 5426930.322899997], [-11411588.2779, 5427269.0392], [-11411588.9869, 5427826.271399997], [-11411589.6885, 5428383.2870000005], [-11411590.39, 5428940.3081], [-11411590.6516, 5429497.238399997], [-11411033.1851, 5429497.2337], [-11410475.7167, 5429497.292300001], [-11410475.7577, 5430053.346699998], [-11410475.8718, 5430609.728100002], [-11410475.9878, 5431166.045699999], [-11409918.3452, 5431165.127599999], [-11409918.5075, 5431721.0911], [-11409918.6553, 5432277.0735], [-11409413.9954, 5432276.7163999975], [-11408856.475, 5432276.317400001], [-11408858.9384, 5432833.680699997], [-11408301.0802, 5432834.195500001], [-11407743.224, 5432834.648500003], [-11407185.6391, 5432838.005400002], [-11406628.0549, 5432841.328400001], [-11406629.1558, 5433400.405699998], [-11406073.861, 5433403.765500002], [-11405518.5514, 5433407.146700002], [-11404961.6449, 5433408.0013], [-11404404.752, 5433408.864], [-11403850.4939, 5433411.329800002], [-11403296.2348, 5433413.817699999], [-11402745.9868, 5433415.897], [-11402195.7243, 5433417.998199999], [-11401645.4759, 5433420.080899999], [-11401095.2271, 5433422.172200002], [-11401093.5854, 5433980.3935], [-11401091.9558, 5434538.662600003], [-11401090.311, 5435096.9648], [-11401088.6786, 5435655.300800003], [-11401087.8546, 5436212.112499997], [-11401087.0433, 5436768.957800001], [-11401086.1486, 5437325.806199998], [-11401085.3541, 5437817.638800003], [-11401083.0848, 5438376.382299997], [-11401080.8275, 5438935.173900001], [-11401078.5688, 5439493.998800002], [-11401076.3088, 5440052.8574], [-11401631.5007, 5440054.9782000035], [-11402186.6923, 5440057.120999999], [-11402741.8983, 5440059.258199997], [-11403297.091, 5440061.389200002], [-11403853.5505, 5440062.858999997], [-11404410.0097, 5440064.350599997], [-11404408.6322, 5440623.105099998], [-11404407.2673, 5441181.893799998], [-11404405.9031, 5441740.646499999], [-11404404.5373, 5442299.446900003], [-11404405.4323, 5442859.9353], [-11404406.3396, 5443420.4717999995], [-11404407.2312, 5443977.469300002], [-11404408.1222, 5444534.486400001], [-11404408.7597, 5445095.240699999], [-11404409.3956, 5445656.042800002], [-11404410.0263, 5446213.416599996], [-11404410.6694, 5446770.838299997], [-11403862.3765, 5446768.681299999], [-11403314.0843, 5446766.519199997], [-11403309.5178, 5447326.259099998], [-11403304.9497, 5447886.032899998], [-11403301.0207, 5448445.735100001], [-11403297.1598, 5448997.427199997], [-11403297.1034, 5449005.485200003], [-11403297.0728, 5449014.379000001], [-11403295.1949, 5449560.324699998], [-11403293.2854, 5450115.183200002], [-11403289.9887, 5450671.854199998], [-11403286.7412, 5451219.309100002], [-11403292.8098, 5451777.506499998], [-11403298.8646, 5452335.7233000025], [-11403305.0263, 5452896.328400001], [-11402749.1084, 5452893.169500001], [-11402193.2059, 5452889.977399997], [-11401637.1335, 5452886.9130000025], [-11401081.0765, 5452883.815300003], [-11400525.1653, 5452883.165100001], [-11399969.2558, 5452882.467200004], [-11399413.3292, 5452881.873999998], [-11398857.4181, 5452881.2337], [-11398299.4552, 5452878.393600002], [-11397741.4798, 5452875.519000001], [-11397183.4922, 5452872.609999999], [-11396625.506, 5452869.6668], [-11396626.4918, 5453429.0022], [-11396151.335, 5453428.726599999], [-11395592.4845, 5453428.378300004], [-11395038.214, 5453429.645199999], [-11394483.9574, 5453430.906999998], [-11393927.7654, 5453430.250100002], [-11393371.588, 5453429.5735], [-11392814.8421, 5453428.900700003]]]]}}, {"type": "Feature", "properties": {"OBJECTID": 93, "CreationDate": "2025-01-14T11:11:11Z", "Creator": "NPS_WASO_LANDS", "EditDate": "2025-01-14T11:11:11Z", "Editor": "NPS_WASO_LANDS", "GlobalID": "{A89C6CA3-073D-4715-8181-A25C25E6EA9B}", "AreaID": 75, "UNIT_CODE": "MORU", "GIS_Notes": "Lands - http://landsnet.nps.gov/tractsnet/documents/MORU/Metadata/moru_metadata.xml", "UNIT_NAME": "Mount Rushmore National Memorial", "DATE_EDIT": "2010-12-13T00:00:00Z", "STATE": "SD", "REGION": "MW", "GNIS_ID": "1262098", "UNIT_TYPE": "National Memorial", "CREATED_BY": "Lands", "METADATA": "https://irma.nps.gov/DataStore/Reference/Profile/2167739", "PARKNAME": "Mount Rushmore", "SHAPE_Length": 17217.214232034996, "SHAPE_Area": 9923432.107611643}, "geometry": {"type": "MultiPolygon", "coordinates": [[[[-11515354.1057, 5445605.397100002], [-11515354.2326, 5445043.025200002], [-11515911.127, 5445042.802699998], [-11516467.3475, 5445043.061999999], [-11516963.0286, 5445043.267499998], [-11516963.0107, 5445087.435599998], [-11517516.8512, 5445086.947099999], [-11517517.2637, 5445646.816], [-11517517.6901, 5446206.691200003], [-11518070.24, 5446205.4782000035], [-11518069.5309, 5446764.142499998], [-11518068.8348, 5447322.840599999], [-11518068.7988, 5447602.173500001], [-11518068.7628, 5447881.514300004], [-11517515.3526, 5447881.8068], [-11517515.9236, 5448440.5955], [-11517515.8951, 5448720.1010000035], [-11516963.1079, 5448720.691], [-11516963.1307, 5448691.901799999], [-11516462.8714, 5448692.512599997], [-11516462.2805, 5448411.522600003], [-11516186.2859, 5448411.359499998], [-11516184.7703, 5447849.621100001], [-11515909.0191, 5447848.467], [-11515631.3796, 5447848.979500003], [-11515631.5075, 5447932.325300001], [-11515570.2128, 5447932.365500003], [-11515570.315, 5447989.7053999975], [-11515354.0279, 5447989.864600003], [-11515354.3094, 5448410.953699999], [-11514798.098, 5448410.388999999], [-11514249.1067, 5448411.2907000035], [-11513700.169, 5448412.313600004], [-11513698.6893, 5447851.619599998], [-11514248.7634, 5447851.021600001], [-11514248.4603, 5447290.814599998], [-11514524.0519, 5447290.7080999985], [-11514799.5468, 5447290.591799997], [-11514799.2105, 5446728.874300003], [-11515353.6476, 5446727.722000003], [-11515353.9713, 5446167.427199997], [-11515354.1057, 5445605.397100002]]]]}}, {"type": "Feature", "properties": {"OBJECTID": 105, "CreationDate": "2025-01-14T11:11:11Z", "Creator": "NPS_WASO_LANDS", "EditDate": "2025-01-14T11:11:11Z", "Editor": "NPS_WASO_LANDS", "GlobalID": "{76956330-7D5D-46C7-8602-220307690B53}", "AreaID": 87, "UNIT_CODE": "WICA", "GIS_Notes": "Lands - http://landsnet.nps.gov/tractsnet/documents/WICA/Metadata/wica_metadata.xml", "UNIT_NAME": "Wind Cave National Park", "DATE_EDIT": "2016-04-19T00:00:00Z", "STATE": "SD", "REGION": "MW", "GNIS_ID": "1263056", "UNIT_TYPE": "National Park", "CREATED_BY": "Lands", "METADATA": "https://irma.nps.gov/DataStore/Reference/Profile/2239942", "PARKNAME": "Wind Cave", "SHAPE_Length": 90671.80546474781, "SHAPE_Area": 261727427.1591056}, "geometry": {"type": "MultiPolygon", "coordinates": [[[[-11526373.3022, 5400451.345799997], [-11526373.0206, 5399892.778099999], [-11526264.6701, 5399893.001800001], [-11526260.3422, 5399893.010799997], [-11526095.8137, 5399893.348099999], [-11526095.2737, 5399335.141199999], [-11526650.1891, 5399333.351599999], [-11527205.1051, 5399331.514799997], [-11527204.6415, 5399891.031999998], [-11526650.2273, 5399892.199699998], [-11526650.2514, 5400451.081200004], [-11526373.3022, 5400451.345799997]]], [[[-11517206.5785, 5409975.513099998], [-11517206.6073, 5409953.795999996], [-11516674.9622, 5409958.578900002], [-11516125.69, 5409593.405699998], [-11515847.4437, 5409408.438600004], [-11515569.253, 5409039.949900001], [-11515431.1822, 5408857.070200004], [-11515015.5213, 5408306.502899997], [-11514460.8147, 5408299.616800003], [-11513906.1099, 5408292.696999997], [-11513351.4054, 5408285.799599998], [-11512796.702, 5408278.882600002], [-11512240.0775, 5408279.442500003], [-11511683.4398, 5408279.968500003], [-11511126.8152, 5408280.5304000005], [-11510570.1914, 5408281.0446000025], [-11510016.2304, 5408280.1504999995], [-11509462.2567, 5408279.209200002], [-11508908.2959, 5408278.317500003], [-11508354.3361, 5408277.378799997], [-11507799.0581, 5408269.761600003], [-11507243.782, 5408262.0967999995], [-11506688.5059, 5408254.481899999], [-11506133.2313, 5408246.833400004], [-11505570.6508, 5408250.0572], [-11505008.0704, 5408253.260300003], [-11505009.3438, 5407697.802000001], [-11504445.4225, 5407700.043899998], [-11503881.5428, 5407702.265699998], [-11503406.0113, 5407705.037299998], [-11503407.8236, 5407148.1272], [-11503406.3241, 5406591.267099999], [-11503404.8376, 5406034.440300003], [-11503403.4417, 5405481.372599997], [-11503402.0325, 5404928.281999998], [-11503883.4558, 5404925.172600001], [-11503885.0317, 5404371.0396], [-11503886.5926, 5403816.953199998], [-11503889.6064, 5403262.624200001], [-11503892.6186, 5402708.327799998], [-11504454.7597, 5402710.957000002], [-11505016.9011, 5402713.606899999], [-11505577.8051, 5402716.0735], [-11506138.7095, 5402718.547600001], [-11506138.6439, 5402163.142499998], [-11506138.5781, 5401607.7566], [-11506138.0367, 5401051.301100001], [-11506137.4948, 5400494.878799997], [-11506136.5268, 5399939.076099999], [-11506135.5447, 5399383.306199998], [-11506148.5631, 5398828.454999998], [-11506707.0451, 5398829.973499998], [-11507265.5284, 5398831.444499999], [-11507820.497, 5398832.909699999], [-11508375.4666, 5398834.3413999975], [-11508370.212, 5398284.715099998], [-11508925.1085, 5398285.115999997], [-11509480.0051, 5398285.516900003], [-11510034.5995, 5398286.439400002], [-11510589.1942, 5398287.361900002], [-11511142.5988, 5398287.472900003], [-11511696.0034, 5398287.5836], [-11511697.5122, 5398013.649700001], [-11511699.1284, 5397731.241700001], [-11511702.1391, 5397175.184900001], [-11511705.2025, 5396619.707199998], [-11511152.7832, 5396620.4252], [-11510594.2697, 5396620.866899997], [-11510595.5166, 5396065.679700002], [-11511151.8915, 5396064.971299998], [-11511153.7502, 5395506.4657000005], [-11511155.4422, 5394955.3094], [-11510599.9845, 5394953.5942], [-11510602.218, 5394397.599600002], [-11511157.219, 5394399.580200002], [-11511712.2202, 5394401.527500004], [-11512266.5228, 5394403.4673999995], [-11512820.8258, 5394405.3737], [-11512822.0239, 5393850.335500002], [-11512826.6924, 5393284.484899998], [-11512830.5368, 5392735.523599997], [-11512833.234, 5392453.251000002], [-11512834.5489, 5392312.8653], [-11512836.3417, 5392171.900600001], [-11512838.1346, 5391934.057800002], [-11512841.1035, 5391620.856299996], [-11513396.4843, 5391622.284999996], [-11513951.8654, 5391623.68], [-11514223.0463, 5391624.3838], [-11515062.6277, 5391626.503700003], [-11515064.6764, 5391070.600100003], [-11515066.7246, 5390514.729699999], [-11515068.7728, 5389958.892300002], [-11514556.7263, 5389956.637199998], [-11514689.0484, 5389839.224200003], [-11514807.9868, 5389733.686099999], [-11514826.4574, 5389717.331299998], [-11514842.9117, 5389704.163400002], [-11514879.5642, 5389674.796400003], [-11514912.01, 5389648.813000001], [-11515003.1864, 5389588.037799999], [-11515070.2883, 5389547.549199998], [-11515193.3569, 5389486.593800001], [-11515340.5644, 5389396.968199998], [-11515385.2742, 5389363.338100001], [-11515428.801, 5389328.180299997], [-11515471.0932, 5389291.536600001], [-11515512.1, 5389253.450499997], [-11515551.7731, 5389213.967600003], [-11515590.0651, 5389173.134599999], [-11515626.93, 5389131.000200003], [-11515662.3245, 5389087.6149], [-11515696.2062, 5389043.030100003], [-11515728.5349, 5388997.299199998], [-11515830.258, 5388848.010700002], [-11516036.5121, 5388545.302000001], [-11516049.8069, 5388526.498099998], [-11516063.7455, 5388508.170000002], [-11516078.311, 5388490.339500003], [-11516093.4857, 5388473.028300002], [-11516109.2515, 5388456.2575], [-11516125.5888, 5388440.047200002], [-11516142.4786, 5388424.4174000025], [-11516159.8997, 5388409.386500001], [-11516177.8314, 5388394.973099999], [-11516194.6304, 5388382.2820999995], [-11516211.8413, 5388370.159500003], [-11516229.4447, 5388358.618799999], [-11516247.421, 5388347.672499999], [-11516265.7509, 5388337.332999997], [-11516284.4134, 5388327.611699998], [-11516370.8811, 5388283.910499997], [-11516686.4473, 5388124.4133], [-11516707.5781, 5388113.995300002], [-11516728.9316, 5388104.0446000025], [-11516760.19, 5388090.170400001], [-11516791.8878, 5388077.3396999985], [-11516823.9904, 5388065.566399999], [-11516856.4629, 5388054.863200001], [-11516889.2698, 5388045.2421], [-11516922.3756, 5388036.713299997], [-11517230.337, 5387960.125399999], [-11517225.8774, 5388180.2302], [-11517214.706, 5388223.3935], [-11517221.9922, 5388269.884000003], [-11517224.9105, 5388288.446599998], [-11517223.3285, 5388462.108000003], [-11517187.0026, 5388838.5462], [-11517197.8691, 5388838.541299999], [-11517185.3576, 5388960.1514], [-11517184.1638, 5388974.182700001], [-11517183.4387, 5388988.246299997], [-11517183.1825, 5389002.326399997], [-11517183.3959, 5389016.407200001], [-11517184.0789, 5389030.473200001], [-11517185.2301, 5389044.508100003], [-11517186.8487, 5389058.4965], [-11517188.9326, 5389072.423199996], [-11517191.4797, 5389086.2717999965], [-11517194.4871, 5389100.027000003], [-11517197.9513, 5389113.673900001], [-11517201.8684, 5389127.196699999], [-11517206.2344, 5389140.580499999], [-11517211.0439, 5389153.810199998], [-11517216.2919, 5389166.871100001], [-11517221.9723, 5389179.748499997], [-11517228.0787, 5389192.427900001], [-11517227.4012, 5389396.4793], [-11517227.1739, 5389428.362400003], [-11517393.5216, 5389598.267700002], [-11517536.2712, 5389858.565200001], [-11517595.5868, 5389922.7053999975], [-11517772.6824, 5390245.612499997], [-11517846.6164, 5390380.9617], [-11517699.1986, 5390381.1373], [-11517770.4816, 5390510.633599997], [-11517917.9013, 5390510.456900001], [-11517935.5264, 5390510.375699997], [-11518058.0883, 5390735.945100002], [-11518067.8059, 5390775.985399999], [-11518228.1511, 5391071.061499998], [-11518254.9958, 5391120.461099997], [-11518264.2765, 5391115.381899998], [-11518314.0489, 5391206.9723000005], [-11518314.5068, 5391167.073799998], [-11518396.8506, 5391303.5798999965], [-11518343.5908, 5391211.628899999], [-11518314.5847, 5391160.290299997], [-11518315.5159, 5391079.136100002], [-11518315.6125, 5391070.713500001], [-11518593.6251, 5391069.8411], [-11518871.6377, 5391068.9604], [-11519427.677, 5391067.187899999], [-11519987.3627, 5391062.545699999], [-11519987.3833, 5391059.2984], [-11519990.8929, 5390504.4695999995], [-11520549.26, 5390500.0320999995], [-11520547.0683, 5391056.428000003], [-11520547.0628, 5391057.855800003], [-11521108.5952, 5391052.3358], [-11521670.128, 5391046.795500003], [-11521671.8091, 5391602.551799998], [-11522222.3562, 5391595.753600001], [-11522772.8889, 5391588.950000003], [-11523325.2994, 5391590.372100003], [-11523877.6964, 5391591.788400002], [-11523876.7974, 5392149.825499997], [-11523875.8979, 5392707.882399999], [-11523873.8619, 5393267.099799998], [-11523871.8253, 5393826.3364999965], [-11523871.2289, 5394389.020199999], [-11523870.6316, 5394951.737899996], [-11523318.2015, 5395509.2097999975], [-11522764.8487, 5396067.550499998], [-11522206.0544, 5396628.199900001], [-11521647.3327, 5397188.697999999], [-11521647.6651, 5397724.364600003], [-11521648.0057, 5398248.068700001], [-11521647.7301, 5398806.804799996], [-11521647.4675, 5399365.574600004], [-11521648.3258, 5399924.107500002], [-11521649.1838, 5400482.660099998], [-11521649.2071, 5400515.087399997], [-11521649.2101, 5400519.375600003], [-11521649.5781, 5401032.492399998], [-11521649.9721, 5401582.356799997], [-11521648.2514, 5402139.370300002], [-11521646.544, 5402696.417300001], [-11521647.7389, 5403253.8544000015], [-11521648.9483, 5403811.2695999965], [-11521648.9615, 5404369.236500002], [-11521648.9741, 5404927.236400001], [-11521648.9332, 5405483.607799999], [-11521648.8915, 5406040.012100004], [-11521649.0174, 5406533.4690999985], [-11521649.0902, 5406599.167599998], [-11521649.2607, 5406931.498800002], [-11521649.4257, 5407158.373000003], [-11521650.2542, 5407717.786700003], [-11521651.1502, 5408277.276900001], [-11521651.4282, 5408836.623499997], [-11521097.3602, 5409121.506700002], [-11520543.69, 5409406.178400002], [-11520434.627, 5409461.749600001], [-11519432.162, 5409972.484399997], [-11519432.1618, 5409972.5178999975], [-11518875.6362, 5409973.384000003], [-11518319.3042, 5409974.2201000005], [-11517762.9204, 5409974.883100003], [-11517206.5785, 5409975.513099998]]]]}}, {"type": "Feature", "properties": {"OBJECTID": 106, "CreationDate": "2025-01-14T11:11:11Z", "Creator": "NPS_WASO_LANDS", "EditDate": "2025-01-14T11:11:11Z", "Editor": "NPS_WASO_LANDS", "GlobalID": "{976A4B8F-B978-426F-933C-BB6D2345F8DB}", "AreaID": 88, "UNIT_CODE": "JECA", "GIS_Notes": "Lands - http://landsnet.nps.gov/tractsnet/documents/JECA/Metadata/jeca_metadata.xml", "UNIT_NAME": "Jewel Cave National Monument", "DATE_EDIT": "2010-07-22T00:00:00Z", "STATE": "SD", "REGION": "MW", "GNIS_ID": "1261888", "UNIT_TYPE": "National Monument", "CREATED_BY": "Lands", "METADATA": "https://irma.nps.gov/DataStore/Reference/Profile/2165329", "PARKNAME": "Jewel Cave", "SHAPE_Length": 13690.524520003426, "SHAPE_Area": 9873220.821679004}, "geometry": {"type": "MultiPolygon", "coordinates": [[[[-11559000.1345, 5425022.702500001], [-11559000.6651, 5425579.4624999985], [-11558445.2847, 5425579.585500002], [-11557889.9188, 5425579.661200002], [-11557334.5943, 5425579.759599999], [-11556779.2703, 5425579.8103], [-11556779.3248, 5425023.377599999], [-11556779.3433, 5424466.561300002], [-11556779.3353, 5424466.145000003], [-11556779.3455, 5423908.9318], [-11556779.1891, 5423351.763499998], [-11556779.0459, 5422794.642499998], [-11556780.1122, 5422236.046499997], [-11557333.2718, 5422237.074299999], [-11557886.432, 5422238.068800002], [-11558439.7166, 5422239.073299997], [-11558992.9882, 5422240.030500002], [-11558992.0886, 5422797.242299996], [-11559544.5412, 5422799.860699996], [-11560096.9942, 5422802.487599999], [-11560098.8395, 5423358.911700003], [-11560098.8441, 5423360.337200001], [-11560095.1621, 5423362.383299999], [-11560075.984, 5423376.2042], [-11560065.253, 5423385.330700003], [-11560050.5332, 5423402.368900001], [-11560041.2569, 5423416.6985], [-11560030.3918, 5423437.288999997], [-11560023.5728, 5423458.6369], [-11560019.9224, 5423474.585699998], [-11560016.8408, 5423496.704099998], [-11560015.8385, 5423516.876000002], [-11560016.5554, 5423533.878300004], [-11560019.2638, 5423554.680799998], [-11560023.5879, 5423569.362199999], [-11560032.7181, 5423588.174999997], [-11560045.5992, 5423608.067400001], [-11560085.7621, 5423674.493100002], [-11560099.9609, 5423697.260399997], [-11560140.4319, 5423762.153399996], [-11560171.7394, 5423816.258699998], [-11560182.5158, 5423837.358599998], [-11560187.0101, 5423856.059100002], [-11560189.8245, 5423878.8571000025], [-11560191.0457, 5423900.483999997], [-11560188.4949, 5423915.826499999], [-11560188.0899, 5423918.2623], [-11560182.2823, 5423934.303499997], [-11560174.0215, 5423950.758699998], [-11560162.7566, 5423969.199900001], [-11560152.7852, 5423981.701399997], [-11560139.7243, 5423995.423], [-11560127.2218, 5424006.483800001], [-11560113.6249, 5424013.564900003], [-11560082.4761, 5424029.134000003], [-11560064.0648, 5424039.206900001], [-11560040.7995, 5424051.3442], [-11560023.0958, 5424063.554799996], [-11560010.3761, 5424076.792599998], [-11560000.5605, 5424093.004299998], [-11559984.413, 5424120.788999997], [-11559980.2241, 5424138.619900003], [-11559980.9325, 5424162.746799998], [-11559984.4411, 5424187.374200001], [-11559993.6938, 5424216.403499998], [-11560002.7069, 5424232.435400002], [-11560023.9507, 5424259.587099999], [-11560049.8573, 5424280.785999998], [-11560065.5608, 5424294.365800001], [-11560090.2262, 5424322.740999997], [-11560100.0861, 5424336.8785], [-11560110.7066, 5424354.391000003], [-11560115.3655, 5424369.678400002], [-11560122.3697, 5424396.635499999], [-11560127.118, 5424428.213200003], [-11560126.75, 5424456.1032000035], [-11560124.5812, 5424499.865099996], [-11560124.5218, 5424527.742299996], [-11560124.4928, 5424575.518100001], [-11560126.9424, 5424597.438299999], [-11560131.4455, 5424617.435900003], [-11560139.3365, 5424638.207199998], [-11560151.1337, 5424657.5891999975], [-11560165.8993, 5424674.519100003], [-11560182.5678, 5424693.694200002], [-11560200.4413, 5424712.512199998], [-11560213.8262, 5424726.723499998], [-11560228.258, 5424744.546899997], [-11560238.0827, 5424759.564800002], [-11560243.499, 5424776.485200003], [-11560247.7148, 5424795.449600004], [-11560249.0262, 5424816.4032000005], [-11560247.9842, 5424827.1664], [-11560245.0068, 5424842.728299998], [-11560238.8889, 5424854.779299997], [-11560229.4834, 5424869.9714], [-11560217.3912, 5424882.276000001], [-11560196.6028, 5424897.187600002], [-11560178.3283, 5424904.824000001], [-11560166.0704, 5424908.1316], [-11560152.2375, 5424909.576800004], [-11560136.439, 5424910.033500001], [-11560122.6931, 5424908.473399997], [-11560109.2295, 5424903.471299998], [-11560103.9563, 5424900.608000003], [-11560104.3577, 5425021.5293999985], [-11559552.253, 5425022.1118], [-11559000.1345, 5425022.702500001]]]]}}, {"type": "Feature", "properties": {"OBJECTID": 270, "CreationDate": "2025-01-14T11:11:12Z", "Creator": "NPS_WASO_LANDS", "EditDate": "2025-01-14T11:11:12Z", "Editor": "NPS_WASO_LANDS", "GlobalID": "{056E24F7-0A26-4179-942A-69E70CE5CB4D}", "AreaID": 282, "UNIT_CODE": "MIMI", "GIS_Notes": "Lands - http://landsnet.nps.gov/tractsnet/documents/MIMI/Metadata/mimi_metadata.xml", "UNIT_NAME": "Minuteman Missile National Historic Site", "DATE_EDIT": "2020-02-03T00:00:00Z", "STATE": "SD", "REGION": "MW", "GNIS_ID": "2733442", "UNIT_TYPE": "National Historic Site", "CREATED_BY": "Lands", "METADATA": "https://irma.nps.gov/DataStore/Reference/Profile/2208028", "PARKNAME": "Minuteman Missile", "SHAPE_Length": 5491.880243632692, "SHAPE_Area": 339067.4433076637}, "geometry": {"type": "MultiPolygon", "coordinates": [[[[-11372263.21, 5454737.353500001], [-11372436.8903, 5454737.332900003], [-11372436.9449, 5454962.056199998], [-11372263.2603, 5454962.076700002], [-11372263.21, 5454737.353500001]]], [[[-11349980.694, 5446714.7544], [-11349981.058, 5446484.831100002], [-11350104.5427, 5446485.1423999965], [-11350104.5991, 5446449.166599996], [-11350104.7707, 5446363.9362], [-11350182.4162, 5446316.892200001], [-11350219.9502, 5446379.277099997], [-11350243.5183, 5446418.448399998], [-11350301.3469, 5446383.409900002], [-11350331.8988, 5446434.186999999], [-11350306.5987, 5446449.516500004], [-11350329.3569, 5446487.340300001], [-11350329.3803, 5446487.3794], [-11350448.8901, 5446482.246600002], [-11350454.9306, 5446627.999600001], [-11350104.2964, 5446642.0217999965], [-11350104.1817, 5446715.065700002], [-11349980.694, 5446714.7544]]], [[[-11342916.2895, 5441562.3549000025], [-11342919.5711, 5441364.755800001], [-11343116.4778, 5441368.046800002], [-11343113.9027, 5441523.306000002], [-11343403.762, 5441528.142999999], [-11343431.6087, 5441528.6071000025], [-11343434.0621, 5441380.388700001], [-11343462.3313, 5441380.7962], [-11343466.325, 5441139.465400003], [-11343701.7551, 5441142.8552], [-11343692.4193, 5441707.854999997], [-11343428.7046, 5441704.057099998], [-11343430.908, 5441570.9472], [-11343403.0611, 5441570.482900001], [-11343113.2004, 5441565.6461], [-11342916.2895, 5441562.3549000025]]]]}}]}