{"type": "FeatureCollection", "name": "unknown_park", "crs": {"type": "name", "properties": {"name": "urn:ogc:def:crs:EPSG::3857"}}, "features": [{"type": "Feature", "properties": {"OBJECTID": 436, "CreationDate": "2025-01-14T11:11:14Z", "Creator": "NPS_WASO_LANDS", "EditDate": "2025-01-14T11:11:14Z", "Editor": "NPS_WASO_LANDS", "GlobalID": "{B5E93DF6-8BA8-43D7-8803-5BEBDE4AE66E}", "AreaID": 466, "UNIT_CODE": "AMME", "GIS_Notes": "Unofficial Boundary of American Memorial Park.", "UNIT_NAME": "American Memorial Park", "DATE_EDIT": "2015-04-22T00:00:00Z", "STATE": null, "REGION": "PW", "GNIS_ID": "1879026", "UNIT_TYPE": "Affiliated Area", "CREATED_BY": "Region", "METADATA": "Preliminary data. Contact the Land Resources Program for additional information.", "PARKNAME": "American Memorial Park", "SHAPE_Length": 7740.973837905575, "SHAPE_Area": 611358.4305563043}, "geometry": {"type": "MultiPolygon", "coordinates": [[[[16221864.905500002, 1714852.2063999996], [16221867.963, 1714841.6561000012], [16221869.463200003, 1714837.9732000008], [16221871.020499997, 1714832.8641000018], [16221871.464199997, 1714830.4569999985], [16221871.979400001, 1714823.8596], [16221872.4582, 1714822.0445000008], [16221873.204000004, 1714820.555300001], [16221875.388099998, 1714817.9175000004], [16221875.746100001, 1714816.6959000006], [16221875.931999996, 1714813.3511000015], [16221876.217, 1714812.6468000002], [16221876.698399998, 1714812.2027999982], [16221878.008900002, 1714811.7630999982], [16221878.924099997, 1714811.232900001], [16221879.651600003, 1714810.4809000008], [16221880.200800002, 1714809.4981000014], [16221880.5827, 1714808.2639999986], [16221880.879199997, 1714805.668299999], [16221880.960100003, 1714798.9001999982], [16221881.502899997, 1714795.9376000017], [16221882.4864, 1714793.5555000007], [16221885.2782, 1714787.9428000003], [16221886.3077, 1714784.9475000016], [16221887.181199998, 1714777.913899999], [16221888.164800003, 1714774.4145000018], [16221890.984300002, 1714767.3673], [16221891.985600002, 1714764.2862999998], [16221892.7487, 1714760.4699000008], [16221893.860100001, 1714751.9301999994], [16221894.605999999, 1714748.4609000012], [16221895.899400003, 1714744.8328999989], [16221899.5343, 1714736.8167999983], [16221900.721100003, 1714733.0747999996], [16221901.084799998, 1714730.7307000011], [16221901.195, 1714728.0584000014], [16221900.6523, 1714716.8016999997], [16221900.802900001, 1714714.4891999997], [16221901.156900004, 1714712.4140000008], [16221903.3407, 1714705.3803999983], [16221903.7214, 1714702.7815999985], [16221903.7104, 1714699.7914999984], [16221902.370300002, 1714689.8176000006], [16221902.142800003, 1714686.335000001], [16221902.437299997, 1714683.0887000002], [16221903.3394, 1714680.3238000013], [16221907.270800002, 1714674.169399999], [16221908.280699998, 1714672.0249999985], [16221909.089500003, 1714669.7018], [16221909.706200004, 1714667.1757999994], [16221910.142499998, 1714664.3988999985], [16221910.503399998, 1714659.0099], [16221910.642399997, 1714645.0227000006], [16221911.005000003, 1714641.1108999997], [16221911.637400001, 1714637.6832000017], [16221913.554399997, 1714626.6809], [16221914.5735, 1714622.5590999983], [16221915.358099997, 1714620.4514000006], [16221916.284599997, 1714618.6253999993], [16221917.3702, 1714617.047600001], [16221918.625799999, 1714615.703400001], [16221921.2592, 1714613.918299999], [16221922.120499998, 1714613.0654000007], [16221923.430799998, 1714609.5485999994], [16221924.493199997, 1714608.2868999988], [16221926.065399997, 1714607.196800001], [16221927.8882, 1714606.3427000009], [16221932.167499997, 1714604.7126000002], [16221937.558300003, 1714602.815200001], [16221944.398900002, 1714601.1948999986], [16221950.339000002, 1714600.2666999996], [16221956.5268, 1714599.8073999994], [16221962.881300002, 1714599.8231999986], [16221969.299000002, 1714600.3139999993], [16221974.864200003, 1714601.0896000005], [16221979.3464, 1714602.0716000013], [16221983.288000003, 1714603.3170999996], [16221987.258000001, 1714604.9191999994], [16221991.2073, 1714606.8583999984], [16221995.072999999, 1714609.1037000008], [16221997.2297, 1714610.6563000008], [16222001.924599998, 1714614.5804999992], [16222004.2474, 1714616.136500001], [16222005.879, 1714616.8447000012], [16222010.459200002, 1714618.2644000016], [16222011.645000003, 1714618.8904], [16222012.547600001, 1714619.6526000015], [16222014.7319, 1714623.1691000015], [16222017.217, 1714625.6882999986], [16222022.158600003, 1714629.3227000013], [16222029.0013, 1714634.2102000006], [16222031.771799996, 1714635.887699999], [16222034.390600003, 1714637.2344000004], [16222036.7812, 1714638.0273000002], [16222043.513800003, 1714639.3819000013], [16222045.274400003, 1714640.1484000012], [16222046.622500002, 1714641.1897], [16222048.3701, 1714643.387600001], [16222049.430799998, 1714644.2923999988], [16222050.780599996, 1714645.0703000017], [16222056.319799997, 1714647.122299999], [16222058.4177, 1714648.2221999988], [16222060.034900002, 1714649.4888000004], [16222064.970600002, 1714653.9362999983], [16222069.1003, 1714656.5659999996], [16222075.892099999, 1714660.0896999985], [16222081.016999997, 1714662.7391999997], [16222084.192500003, 1714664.045400001], [16222086.0467, 1714664.5031999983], [16222090.4912, 1714665.1860000007], [16222092.4925, 1714665.803100001], [16222094.1122, 1714666.7241000012], [16222095.732600003, 1714668.0777000003], [16222100.800800003, 1714673.8900999986], [16222102.977399997, 1714675.9127999991], [16222104.892499998, 1714677.2265000008], [16222107.121600002, 1714678.4809999987], [16222118.018, 1714683.315299999], [16222120.519299999, 1714684.6444999985], [16222122.636, 1714686.0218000002], [16222124.4304, 1714687.4879], [16222128.589699998, 1714691.3539999984], [16222130.936499998, 1714693.0544000007], [16222136.615599997, 1714695.6915999986], [16222138.621100001, 1714697.2721999995], [16222142.570100002, 1714701.518100001], [16222144.4793, 1714703.1640000008], [16222146.9239, 1714704.5749999993], [16222152.888499998, 1714707.0943999998], [16222155.400700003, 1714708.438099999], [16222158.75, 1714711.0329999998], [16222164.656499997, 1714716.7864999995], [16222167.1963, 1714718.987300001], [16222169.792400002, 1714720.8198000006], [16222176.325999998, 1714724.9233000018], [16222179.428400002, 1714727.3385000005], [16222184.212899998, 1714731.9677999988], [16222185.720799997, 1714733.8491999991], [16222186.855400003, 1714735.6900999993], [16222188.012000002, 1714738.1356999986], [16222188.602899998, 1714740.0857000016], [16222188.881700002, 1714742.7705000006], [16222188.603200004, 1714744.9213000014], [16222188.272, 1714745.610199999], [16222187.6901, 1714746.295499999], [16222184.5339, 1714748.8801999986], [16222183.798100002, 1714750.196800001], [16222183.7984, 1714753.2740999982], [16222183.364200003, 1714754.5152999982], [16222182.471100003, 1714755.7230999991], [16222178.180799998, 1714759.2575000003], [16222176.8094, 1714760.7474999987], [16222175.513400003, 1714762.9125000015], [16222172.441299997, 1714769.1000999995], [16222170.3574, 1714771.822999999], [16222165.346199997, 1714776.7305000015], [16222163.512000002, 1714778.829599999], [16222162.1065, 1714781.2203000002], [16222161.5211, 1714783.6075000018], [16222161.654200003, 1714785.515999999], [16222161.521300003, 1714786.245000001], [16222161.1303, 1714786.7133000009], [16222159.784500003, 1714787.5540000014], [16222159.3371, 1714788.0036000013], [16222158.9929, 1714788.887699999], [16222158.873999998, 1714790.0232999995], [16222158.996699996, 1714791.2820999995], [16222159.337399997, 1714792.3995000012], [16222159.8068, 1714793.1257000007], [16222160.561099999, 1714793.8341000006], [16222163.269199997, 1714795.4763000011], [16222164.9925, 1714796.3570000008], [16222166.327200003, 1714796.7949], [16222167.608499996, 1714796.9233999997], [16222169.029799998, 1714796.8136], [16222170.534100004, 1714796.4690000005], [16222172.0062, 1714795.9151999988], [16222173.936700001, 1714794.7115999982], [16222175.9375, 1714792.8377999999], [16222176.960900001, 1714791.502700001], [16222177.876199998, 1714789.8321999982], [16222179.8688, 1714784.485100001], [16222182.0524, 1714775.6931999996], [16222182.860699996, 1714773.853599999], [16222183.968999997, 1714771.917199999], [16222189.2777, 1714764.546], [16222191.2253, 1714761.185899999], [16222192.4313, 1714758.0146000013], [16222194.596900001, 1714750.4508999996], [16222196.029799998, 1714747.1187000014], [16222197.092699997, 1714745.4510999992], [16222199.8112, 1714741.8192000017], [16222200.834700003, 1714740.0848000012], [16222201.7623, 1714737.7756000012], [16222202.4247, 1714735.2358999997], [16222202.821900003, 1714732.4653999992], [16222202.954300001, 1714729.4627999999], [16222202.822400004, 1714726.2349000014], [16222202.426799998, 1714722.7666000016], [16222201.766400002, 1714719.0472000018], [16222200.833099999, 1714715.0282000005], [16222198.648599997, 1714708.4345000014], [16222197.937299997, 1714704.269200001], [16222197.697700001, 1714700.326299999], [16222197.935900003, 1714696.7166999988], [16222198.647600003, 1714693.4882999994], [16222199.430100001, 1714691.5901999995], [16222202.141999997, 1714686.4547999986], [16222203.027400002, 1714683.6239], [16222204.461900003, 1714676.7815000005], [16222205.635799997, 1714673.7063999996], [16222207.035800003, 1714671.6083999984], [16222211.078500003, 1714667.0874999985], [16222212.624700002, 1714664.9140000008], [16222214.439599998, 1714660.9915000014], [16222215.799900003, 1714656.3520000018], [16222216.743100002, 1714650.9316000007], [16222217.4287, 1714643.8134000003], [16222218.463100001, 1714637.6534999982], [16222218.647100002, 1714635.5315000005], [16222218.347000003, 1714633.7419999987], [16222217.9666, 1714633.1772999987], [16222217.428000003, 1714632.8236999996], [16222215.221100003, 1714632.4902999997], [16222213.059600003, 1714632.824000001], [16222212.397, 1714633.2791999988], [16222211.862300001, 1714634.0689999983], [16222210.4969, 1714638.322999999], [16222209.565300003, 1714639.8577000014], [16222208.2857, 1714641.124499999], [16222207.381099999, 1714641.6162], [16222206.347800002, 1714641.6182999983], [16222204.7601, 1714641.1768999994], [16222203.896799996, 1714640.738400001], [16222203.2808, 1714640.0557000004], [16222202.903800003, 1714639.1198000014], [16222202.756800003, 1714637.9101000018], [16222202.988700002, 1714635.2923999988], [16222204.490400001, 1714627.4221], [16222204.577799998, 1714625.3007999994], [16222204.3222, 1714623.5934999995], [16222203.4313, 1714620.5854999982], [16222202.574500002, 1714618.7580999993], [16222200.9859, 1714616.7886000015], [16222198.642700002, 1714614.802099999], [16222196.653499998, 1714613.5144999996], [16222194.710900001, 1714612.6044999994], [16222192.560599998, 1714611.8896999992], [16222190.798600003, 1714611.5143], [16222189.330300003, 1714611.4587000012], [16222188.158200003, 1714611.7259000018], [16222186.980800003, 1714612.4565999992], [16222185.824199997, 1714613.6294], [16222184.8481, 1714615.0830000006], [16222184.226899996, 1714616.5617000014], [16222184.000600003, 1714618.4230000004], [16222184.2271, 1714620.9574999996], [16222184.4907, 1714621.9723999985], [16222184.987000003, 1714623.0267000012], [16222188.5049, 1714627.8123000003], [16222189.14, 1714629.0317000002], [16222189.469800003, 1714630.1884999983], [16222189.6849, 1714632.7716999985], [16222189.470200002, 1714635.0240000002], [16222188.755500004, 1714636.8095000014], [16222185.975699998, 1714641.1785000004], [16222184.749200001, 1714644.2234000005], [16222183.938000001, 1714646.8092], [16222183.474299997, 1714649.1545000002], [16222183.355400003, 1714651.2892000005], [16222183.538800001, 1714653.3550000004], [16222183.979599997, 1714655.5009000003], [16222184.658200003, 1714657.6330000013], [16222185.54, 1714659.6413000003], [16222186.500500001, 1714660.9803000018], [16222189.479999997, 1714663.9715000018], [16222190.056699999, 1714664.886], [16222190.345700003, 1714665.7952000014], [16222190.544799998, 1714667.549800001], [16222190.3459, 1714668.432599999], [16222189.937399998, 1714668.6506999992], [16222189.237999998, 1714668.6523999982], [16222186.8512, 1714667.9935000017], [16222185.074500002, 1714667.1301999986], [16222183.356299996, 1714665.7956000008], [16222181.798600003, 1714663.7600000016], [16222180.297899999, 1714660.5210000016], [16222178.987099998, 1714655.6854000017], [16222176.076800004, 1714647.3608000018], [16222172.432300001, 1714639.3476999998], [16222170.359399997, 1714635.5132], [16222168.132600002, 1714631.818500001], [16222165.762100004, 1714628.2807999998], [16222163.258900002, 1714624.9156000018], [16222158.369400002, 1714619.606899999], [16222156.705799997, 1714617.4431999996], [16222156.042900003, 1714616.0936000012], [16222154.636, 1714612.0533000007], [16222153.9951, 1714611.0643000007], [16222153.210600004, 1714610.4100000001], [16222150.589500003, 1714609.5309999995], [16222149.720799997, 1714608.6851000004], [16222149.199299999, 1714607.352499999], [16222148.9965, 1714605.827399999], [16222148.822499998, 1714601.7487999983], [16222148.404700004, 1714599.8603999987], [16222145.788099997, 1714594.1616000012], [16222144.376000002, 1714591.771400001], [16222142.908100002, 1714589.7107000016], [16222141.3953, 1714587.9935999997], [16222139.8385, 1714586.6198000014], [16222138.2421, 1714585.5931999981], [16222136.6091, 1714584.9153999984], [16222134.5577, 1714584.4272999987], [16222132.451800004, 1714584.1810000017], [16222130.483400002, 1714584.1981999986], [16222128.745800003, 1714584.476399999], [16222127.098300003, 1714585.2489], [16222123.697700001, 1714587.7974999994], [16222122.193499997, 1714588.4332000017], [16222121.009999998, 1714588.5086999983], [16222118.144900002, 1714588.2221000008], [16222116.951300003, 1714588.433600001], [16222116.3706, 1714588.8156999983], [16222115.8398, 1714589.4360999987], [16222114.053800002, 1714592.9646000005], [16222113.020099998, 1714594.148600001], [16222112.266599998, 1714594.5069000013], [16222111.291599996, 1714594.6972000003], [16222106.721699998, 1714594.7848000005], [16222105.8336, 1714595.0375999995], [16222105.156900004, 1714595.4679000005], [16222104.5238, 1714596.2575999983], [16222102.972900003, 1714598.9849000014], [16222102.171999998, 1714599.7408000007], [16222101.212800004, 1714600.309700001], [16222100.085299999, 1714600.6977000013], [16222098.768700004, 1714600.9125000015], [16222095.994800001, 1714600.8979999982], [16222087.8913, 1714600.0837999992], [16222085.615900002, 1714600.2322999984], [16222083.752099998, 1714600.7448000014], [16222081.598499998, 1714601.9822000004], [16222076.780900002, 1714605.7261999995], [16222075.435599998, 1714606.4607000016], [16222074.141800001, 1714606.8997000009], [16222072.0678, 1714607.2617999986], [16222070.210199997, 1714607.3398000002], [16222068.476000004, 1714607.0366999991], [16222064.094400004, 1714605.581700001], [16222061.172600001, 1714605.2643], [16222054.394699998, 1714605.3735999987], [16222051.425800003, 1714605.1429999992], [16222048.850900002, 1714604.5229999982], [16222046.055600002, 1714603.4475999996], [16222037.564900003, 1714599.004999999], [16222034.765600003, 1714597.7058999985], [16222032.314400002, 1714596.8465000018], [16222030.020000003, 1714596.3530000001], [16222026.545000002, 1714596.2806000002], [16222018.221100003, 1714597.2111999989], [16222016.136200003, 1714597.139800001], [16222014.2936, 1714596.7938], [16222011.6725, 1714595.9147999994], [16222010.168499999, 1714595.0991000012], [16222008.660800003, 1714593.9068000019], [16222004.2236, 1714589.1391000003], [16222002.498300001, 1714587.5634000003], [16221998.564199999, 1714584.9719999991], [16221989.001999997, 1714579.8894999996], [16221986.845299996, 1714578.4706999995], [16221985.0242, 1714577.0146999992], [16221983.292499997, 1714575.1528000012], [16221979.295500003, 1714569.8770999983], [16221978.011799999, 1714568.6378999986], [16221976.723499998, 1714567.7839000002], [16221975.240099996, 1714567.2364000008], [16221973.4472, 1714566.9754000008], [16221965.8424, 1714567.2829000019], [16221964.1725, 1714567.1842], [16221962.744499996, 1714566.9057999998], [16221957.649099998, 1714565.3049000017], [16221953.948799998, 1714563.6440999992], [16221951.1321, 1714561.6939999983], [16221950.057999998, 1714560.6042999998], [16221949.202, 1714559.4338000007], [16221948.2782, 1714557.6534999982], [16221947.454400003, 1714555.4776999988], [16221946.7029, 1714552.3412000015], [16221946.452299997, 1714549.0978000015], [16221946.702699997, 1714545.7474999987], [16221947.4538, 1714542.2901000008], [16221948.789899997, 1714538.0883999988], [16221949.960900001, 1714533.4613000005], [16221950.852200001, 1714528.8643000014], [16221951.384400003, 1714524.7063000016], [16221951.461900003, 1714522.1169000007], [16221951.249499999, 1714516.2721000016], [16221951.383900002, 1714513.7166999988], [16221951.8121, 1714511.2917000018], [16221953.567500003, 1714504.0456000008], [16221953.883100003, 1714501.2679000013], [16221953.986199997, 1714498.1818999983], [16221953.361900002, 1714485.1444999985], [16221953.566299997, 1714479.4290000014], [16221954.168799996, 1714473.9505000003], [16221954.876199998, 1714470.6369999982], [16221957.933799997, 1714463.6035000011], [16221958.459700003, 1714461.488499999], [16221958.740000002, 1714459.0449], [16221958.863300003, 1714448.6689000018], [16221959.1695, 1714446.559799999], [16221959.680299997, 1714444.7010000013], [16221960.834799998, 1714442.1459], [16221964.118299998, 1714436.6730999984], [16221965.358599998, 1714434.1506000012], [16221965.772100002, 1714432.611200001], [16221966.531999998, 1714427.5346000008], [16221967.115000002, 1714426.381099999], [16221967.979400001, 1714425.7983999997], [16221971.037100002, 1714425.7982], [16221971.5436, 1714425.5870000012], [16221971.8935, 1714425.2201999985], [16221972.138899997, 1714423.997200001], [16221971.855999999, 1714422.2562999986], [16221970.450099997, 1714417.5122000016], [16221970.004, 1714415.3922999986], [16221970.007200003, 1714413.4941999987], [16221970.599600002, 1714412.1711000018], [16221973.220399998, 1714409.9728999995], [16221973.681699999, 1714409.0527000017], [16221973.832199998, 1714407.884399999], [16221972.990900002, 1714402.5001000017], [16221972.994099997, 1714401.302099999], [16221973.219999999, 1714400.302000001], [16221973.884999998, 1714398.683600001], [16221974.5304, 1714397.6645000018], [16221975.582400002, 1714396.9640999995], [16221978.482699998, 1714396.0907999985], [16221979.335500002, 1714395.4662000015], [16221979.9384, 1714394.3420999981], [16221980.645999998, 1714391.9494000003], [16221981.351400003, 1714388.5078999996], [16221981.359300002, 1714384.4686000012], [16221980.847000003, 1714380.4637000002], [16221979.079999998, 1714370.9565000013], [16221978.703199998, 1714366.4217000008], [16221978.821999997, 1714364.2743000016], [16221979.180799998, 1714362.3377999999], [16221979.7861, 1714360.5786999986], [16221980.644100003, 1714358.9809000008], [16221983.3024, 1714354.6950000003], [16221984.348800004, 1714353.7276000008], [16221985.449, 1714353.2657999992], [16221987.633299999, 1714353.2655999996], [16221988.732299998, 1714353.7454999983], [16221989.560000002, 1714354.8451999985], [16221990.143200003, 1714356.5075000003], [16221990.998499997, 1714360.6867999993], [16221991.497199997, 1714362.3927999996], [16221992.278499998, 1714363.8379000016], [16221993.312700003, 1714364.6942999996], [16221995.933799997, 1714365.5733000003], [16221996.887999997, 1714366.2595000006], [16221997.749799997, 1714367.2895999998], [16221999.902500004, 1714371.3313999996], [16222000.7394, 1714372.6063], [16222003.641000003, 1714375.677099999], [16222011.815899998, 1714382.3812999986], [16222013.6545, 1714384.1138000004], [16222015.1558, 1714385.7928999998], [16222019.0444, 1714391.2344000004], [16222023.019599997, 1714398.1006000005], [16222027.825400002, 1714408.6499999985], [16222029.677000001, 1714411.6607999988], [16222032.075800002, 1714414.8137999997], [16222040.473700002, 1714424.0273000002], [16222043.065700002, 1714427.0854000002], [16222045.036700003, 1714429.7791000009], [16222046.6109, 1714432.3861000016], [16222049.280100003, 1714438.4853999987], [16222050.542900003, 1714440.7380999997], [16222051.7315, 1714442.2082000002], [16222054.9265, 1714445.364599999], [16222056.222099997, 1714446.8918000013], [16222059.042999998, 1714451.4464999996], [16222060.148900002, 1714453.7873000018], [16222061.027999997, 1714456.1226000004], [16222062.338799998, 1714461.8370999992], [16222063.224100001, 1714463.9919000007], [16222064.538199998, 1714466.2219000012], [16222070.987999998, 1714474.3621000014], [16222072.283699997, 1714476.2848000005], [16222073.260799997, 1714478.1009000018], [16222076.318999998, 1714486.0132], [16222077.627700001, 1714488.6198000014], [16222079.2839, 1714491.4279000014], [16222086.804200001, 1714502.7168000005], [16222089.5431, 1714507.4655000009], [16222092.3917, 1714512.864], [16222101.8129, 1714532.3680999987], [16222105.755800001, 1714540.0285999998], [16222110.2253, 1714547.6464999989], [16222114.765100002, 1714554.1460000016], [16222118.2218, 1714559.2331000008], [16222119.322099999, 1714560.3971999995], [16222120.444399998, 1714561.1790000014], [16222123.0757, 1714562.2851000018], [16222125.536899999, 1714562.8399999999], [16222127.440800004, 1714562.7584999986], [16222128.170400001, 1714562.4847000018], [16222128.744499996, 1714562.057500001], [16222129.377999999, 1714561.2019999996], [16222130.055, 1714559.8594000004], [16222130.6827, 1714557.5920999981], [16222130.739200003, 1714554.9213000014], [16222130.215800002, 1714552.0280000009], [16222129.180699997, 1714549.3093000017], [16222127.837700002, 1714547.4367000014], [16222123.938199997, 1714543.5954000019], [16222116.743500002, 1714535.3427999988], [16222113.259499997, 1714530.5692999996], [16222111.898900002, 1714528.1358999982], [16222110.902900003, 1714525.7798999995], [16222110.257600002, 1714523.4664999992], [16222109.957900003, 1714521.1774999984], [16222109.7333, 1714519.0865000002], [16222109.9578, 1714518.1002999991], [16222110.566100001, 1714517.4695000015], [16222111.7051, 1714516.7815000005], [16222112.416900001, 1714516.5491999984], [16222113.327200003, 1714516.5121], [16222117.194300003, 1714517.0947999991], [16222118.257700004, 1714516.7809000015], [16222118.8953, 1714515.7228999995], [16222119.198299997, 1714514.0163000003], [16222119.127099998, 1714511.8339999989], [16222118.6941, 1714509.7474000007], [16222117.383500002, 1714507.1099999994], [16222116.269000001, 1714505.2448000014], [16222114.920000002, 1714503.4301999994], [16222111.4437, 1714499.8599999994], [16222107.681199998, 1714496.8317999989], [16222098.5938, 1714490.2912999988], [16222094.722900003, 1714487.0066], [16222091.920900002, 1714483.923700001], [16222089.860799998, 1714480.7371000014], [16222087.239500001, 1714475.0227000006], [16222085.792599998, 1714473.061999999], [16222082.0009, 1714469.047600001], [16222080.686399996, 1714467.1105999984], [16222079.791699998, 1714464.8271000013], [16222078.064900003, 1714458.3192000017], [16222077.222000003, 1714456.4409000017], [16222076.150799997, 1714454.5810000002], [16222073.264300004, 1714450.818599999], [16222070.046499997, 1714447.5271000005], [16222062.1628, 1714440.2749000005], [16222058.844999999, 1714436.7014000006], [16222056.520499997, 1714433.4488000013], [16222054.910800003, 1714430.1876999997], [16222053.163000003, 1714424.9127000012], [16222051.602899998, 1714421.7401], [16222049.382299997, 1714418.4847000018], [16222046.855300002, 1714415.4675000012], [16222039.9019, 1714407.881000001], [16222038.052500002, 1714405.5612000003], [16222036.561999999, 1714403.374400001], [16222034.5049, 1714399.609099999], [16222030.109899998, 1714390.2265999988], [16222028.762900002, 1714387.8376000002], [16222027.387400001, 1714385.7917000018], [16222025.539800003, 1714383.5788999982], [16222021.144900002, 1714378.9882000014], [16222019.523699999, 1714377.0007000007], [16222015.776100002, 1714371.3504999988], [16222014.443599999, 1714368.8498000018], [16222013.407300003, 1714366.4510999992], [16222012.328699999, 1714363.2210999988], [16222011.659699999, 1714360.2972000018], [16222010.865500003, 1714356.1449999996], [16222010.668200001, 1714353.9246999994], [16222010.913000003, 1714352.0350000001], [16222011.659199998, 1714350.6262999997], [16222013.402500004, 1714349.4382000007], [16222013.8433, 1714348.867800001], [16222013.843199998, 1714347.1094999984], [16222013.466300003, 1714345.6783000007], [16222012.550700001, 1714344.2936999984], [16222011.195699997, 1714342.9897000007], [16222006.7852, 1714339.4682999998], [16222005.733900003, 1714338.2360999994], [16222005.105899997, 1714336.9996000007], [16222004.519199997, 1714334.9437999986], [16222004.166699998, 1714332.9409999996], [16222004.070500001, 1714331.1191000007], [16222004.231799997, 1714329.5267999992], [16222005.14, 1714326.9376000017], [16222006.770099998, 1714324.2159000002], [16222008.643, 1714322.1429000013], [16222009.534599997, 1714321.506000001], [16222010.347099997, 1714321.1743], [16222011.314499997, 1714321.2606000006], [16222012.393600002, 1714321.9530000016], [16222017.364100002, 1714327.7829000019], [16222018.699100003, 1714328.9090000018], [16222019.957999997, 1714329.5256999992], [16222022.926799998, 1714330.3478000015], [16222024.9749, 1714330.6779999994], [16222026.327600002, 1714330.5535999984], [16222026.729000002, 1714330.3172999993], [16222026.947400004, 1714329.9648999982], [16222026.974, 1714328.4371000007], [16222026.5106, 1714326.887600001], [16222025.773100004, 1714326.2063999996], [16222023.414499998, 1714325.2751000002], [16222022.5788, 1714324.6900999993], [16222022.042599998, 1714323.7765000015], [16222021.3204, 1714321.2747999988], [16222020.831200004, 1714320.294300001], [16222019.717, 1714319.2698], [16222016.726300001, 1714317.6459], [16222015.5889, 1714316.7780999988], [16222013.481200002, 1714314.3038999997], [16222012.530900002, 1714312.3825000003], [16222012.6844, 1714311.2967000008], [16222013.642300002, 1714310.2683999985], [16222015.141000003, 1714309.3739], [16222020.428000003, 1714306.8209999986], [16222021.742399998, 1714305.8792999983], [16222022.577799998, 1714304.9087999985], [16222023.074600004, 1714303.8337000012], [16222023.4234, 1714302.4737000018], [16222023.980499998, 1714295.307], [16222024.284100004, 1714293.9585999995], [16222024.761100002, 1714293.039999999], [16222025.554700002, 1714292.373399999], [16222026.5783, 1714292.0949999988], [16222027.8455, 1714292.200199999], [16222029.387100004, 1714292.691399999], [16222032.5489, 1714294.3156000003], [16222042.261200003, 1714300.2806999981], [16222045.079800002, 1714301.5824999996], [16222047.477300003, 1714302.2694000006], [16222049.486000001, 1714302.489], [16222054.528700002, 1714302.673700001], [16222057.087800004, 1714303.1479000002], [16222059.007200003, 1714303.9409000017], [16222064.0775, 1714306.6640000008], [16222069.0638, 1714308.2897000015], [16222074.831, 1714309.3416000009], [16222081.212800004, 1714309.868999999], [16222092.0352, 1714310.1783999987], [16222098.3473, 1714310.5993999988], [16222100.1162, 1714310.4957000017], [16222101.645900004, 1714310.1776], [16222106.887599997, 1714307.5397000015], [16222108.972400002, 1714307.1198999994], [16222113.638400003, 1714306.9483000003], [16222115.624399997, 1714306.6598999985], [16222117.471699998, 1714306.0280000009], [16222121.559500001, 1714304.1455999985], [16222123.4872, 1714303.5819999985], [16222125.066600002, 1714303.5219999999], [16222129.046400003, 1714303.9497999996], [16222130.064199999, 1714303.8592999987], [16222130.913599998, 1714303.5815000013], [16222131.782399997, 1714302.946899999], [16222133.542000003, 1714301.0568000004], [16222134.408, 1714300.5042000003], [16222136.364600003, 1714300.193500001], [16222139.213100001, 1714300.503800001], [16222140.840800002, 1714301.011], [16222145.329099998, 1714303.1407999992], [16222147.517899998, 1714303.5923000015], [16222150.027800001, 1714303.7388000004], [16222158.237999998, 1714303.1667000018], [16222161.055299997, 1714303.1396000013], [16222170.882700004, 1714303.1171000004], [16222174.680100001, 1714303.3236000016], [16222178.4806, 1714304.0430999994], [16222181.586800002, 1714305.3357999995], [16222183.577299997, 1714306.808600001], [16222187.799199998, 1714311.1369000003], [16222189.8873, 1714312.8079000004], [16222193.609499998, 1714314.8663000017], [16222197.313600004, 1714316.324000001], [16222199.040399998, 1714316.7148999982], [16222203.590599999, 1714317.2082999982], [16222205.6136, 1714317.642099999], [16222209.332000002, 1714319.0133999996], [16222212.568499997, 1714320.6594000012], [16222215.267899998, 1714322.5516999997], [16222217.408799998, 1714324.6744000018], [16222218.719499998, 1714326.432599999], [16222219.0634, 1714327.3520000018], [16222219.1756, 1714328.4618000016], [16222218.661200002, 1714332.7155999988], [16222218.719899997, 1714334.3449999988], [16222219.336400002, 1714336.3627999984], [16222220.454599999, 1714338.4772000015], [16222225.4397, 1714345.0291999988], [16222227.0207, 1714347.5318000019], [16222227.869800001, 1714349.6303000003], [16222229.165299997, 1714354.4699000008], [16222229.859700002, 1714356.4239999987], [16222230.910300002, 1714358.1972999983], [16222232.2636, 1714359.3999999985], [16222234.010899998, 1714360.2791999988], [16222236.253799997, 1714360.8432999998], [16222238.869400002, 1714360.7630000003], [16222241.4076, 1714360.2281000018], [16222247.200800002, 1714358.5439000018], [16222249.737000003, 1714358.0799000002], [16222273.4261, 1714354.6750000007], [16222279.291199997, 1714354.1469999999], [16222284.442699999, 1714354.0265999995], [16222289.854000002, 1714354.3984999992], [16222294.709700003, 1714355.3335000016], [16222299.0893, 1714356.8476999998], [16222303.031499997, 1714358.9543999992], [16222307.836800002, 1714362.4706999995], [16222309.176, 1714363.1000000015], [16222310.657399997, 1714363.518199999], [16222312.2967, 1714363.7298000008], [16222314.126699999, 1714363.739599999], [16222317.622199997, 1714363.330699999], [16222325.845799997, 1714361.7375999987], [16222329.532200001, 1714361.4551], [16222332.479599997, 1714361.8401000015], [16222334.920900002, 1714362.9079000019], [16222337.442199998, 1714364.6959000006], [16222339.2896, 1714366.4239999987], [16222340.050700001, 1714367.4974999987], [16222341.497199997, 1714370.2032000013], [16222342.3477, 1714371.259300001], [16222344.212700002, 1714372.5650999993], [16222347.1532, 1714373.8962999992], [16222350.420500003, 1714374.7840999998], [16222354.262400001, 1714375.0097999983], [16222358.509099998, 1714374.6493999995], [16222365.937200002, 1714373.4549999982], [16222372.3081, 1714372.1997000016], [16222378.605400003, 1714370.3768000007], [16222382.536700003, 1714369.057599999], [16222385.115400001, 1714368.9098999985], [16222386.332099997, 1714369.118900001], [16222387.342200004, 1714369.4968000017], [16222388.2011, 1714370.1319000013], [16222389.006300002, 1714371.1297999993], [16222390.8371, 1714374.7716000006], [16222391.375500001, 1714376.8057000004], [16222391.783, 1714382.3425000012], [16222392.253700003, 1714383.5954999998], [16222393.022, 1714384.4422000013], [16222394.471, 1714385.179200001], [16222396.516900003, 1714385.760499999], [16222398.6276, 1714385.9591000006], [16222401.758900002, 1714385.7600999996], [16222404.183200002, 1714385.4387999997], [16222406.684600003, 1714384.8872999996], [16222411.806100003, 1714383.1217], [16222413.324900001, 1714382.315200001], [16222416.856600001, 1714379.9880999997], [16222418.7953, 1714379.1649000011], [16222422.092299998, 1714378.5480000004], [16222423.389200002, 1714378.5377999991], [16222424.474100001, 1714378.7247000001], [16222425.368199997, 1714379.1550999992], [16222426.243299998, 1714379.9277000017], [16222428.948299997, 1714383.6541000009], [16222430.153399996, 1714384.8783], [16222432.1862, 1714385.9470000006], [16222434.7276, 1714386.4690000005], [16222438.052199997, 1714386.4659000002], [16222445.594899997, 1714385.5986000001], [16222448.7588, 1714385.4736000001], [16222451.815899998, 1714385.9200999998], [16222453.0761, 1714386.4057999998], [16222454.179700002, 1714387.074000001], [16222456.726499997, 1714389.1061000004], [16222458.6157, 1714390.9765000008], [16222459.952399999, 1714392.7892000005], [16222460.733099997, 1714394.5463000014], [16222461.069399998, 1714396.1629000008], [16222461.185099997, 1714397.8988000005], [16222461.070200004, 1714399.5984999985], [16222460.733400002, 1714401.1400000006], [16222458.549500003, 1714405.0965000018], [16222457.808799997, 1714407.9957999997], [16222457.539899997, 1714410.5447999984], [16222457.795100003, 1714412.2237999998], [16222458.1113, 1714412.7303999998], [16222458.549999997, 1714413.0091000013], [16222460.024099998, 1714413.053199999], [16222462.044799998, 1714412.5691], [16222462.961900003, 1714412.0108000003], [16222463.7297, 1714411.0432000011], [16222465.877499998, 1714405.6259000003], [16222466.532499999, 1714404.5406999998], [16222467.286200002, 1714403.7769000009], [16222471.654399998, 1714401.5786000006], [16222472.628899999, 1714400.5425999984], [16222474.487400003, 1714397.6961999983], [16222475.585699998, 1714396.7426999994], [16222476.918700002, 1714396.1719000004], [16222478.3499, 1714395.7908000015], [16222479.5423, 1714395.6867999993], [16222480.391000003, 1714395.8632999994], [16222481.148599997, 1714396.666099999], [16222481.659100004, 1714398.199000001], [16222481.8657, 1714400.3396000005], [16222481.701899998, 1714402.4567999989], [16222481.257600002, 1714403.6349], [16222479.610299997, 1714406.1341999993], [16222479.081200004, 1714407.2923999988], [16222478.3574, 1714410.1031999998], [16222478.1276, 1714412.1757000014], [16222478.365900002, 1714413.7369999997], [16222479.081600003, 1714414.7652999982], [16222480.829099998, 1714415.6444000006], [16222482.140699998, 1714415.987399999], [16222483.652500004, 1714416.1011999995], [16222487.381700002, 1714415.6438000016], [16222489.076499999, 1714415.0502000004], [16222492.441100001, 1714413.199000001], [16222493.934, 1714412.5661000013], [16222496.017800003, 1714412.1528000012], [16222500.957099997, 1714411.8154999986], [16222503.107600003, 1714411.2463000007], [16222507.475900002, 1714408.6085], [16222509.123899996, 1714408.0251000002], [16222510.926700003, 1714407.6552000009], [16222512.889600001, 1714407.4974999987], [16222515.0224, 1714407.5513999984], [16222519.7843, 1714408.2773000002], [16222525.823200002, 1714409.9255000018], [16222529.3548, 1714411.0582999997], [16222531.7676, 1714412.0196000002], [16222533.793300003, 1714413.1004999988], [16222535.434, 1714414.3203000017], [16222537.2826, 1714416.1572000012], [16222538.492200002, 1714417.8368999995], [16222538.880099997, 1714418.7813999988], [16222539.085100003, 1714419.9131000005], [16222538.994999997, 1714424.9699000008], [16222539.3666, 1714427.068], [16222541.114200003, 1714430.5843999982], [16222541.3178, 1714432.1165000014], [16222540.964000002, 1714435.9774000011], [16222541.114699997, 1714437.617800001], [16222541.981600001, 1714439.7833999991], [16222543.417400002, 1714441.9719000012], [16222545.365000002, 1714444.0912999995], [16222547.667999998, 1714445.9692000002], [16222549.852300003, 1714447.2877000012], [16222550.567900002, 1714447.451200001], [16222551.499300003, 1714447.4208000004], [16222555.775300004, 1714446.5760999992], [16222556.511799999, 1714446.7501000017], [16222556.841700003, 1714447.2870999984], [16222556.841899998, 1714448.6059999987], [16222557.045599997, 1714449.4019999988], [16222557.481299996, 1714450.120000001], [16222559.062700003, 1714451.3405999988], [16222561.390699998, 1714452.2509000003], [16222566.0159, 1714453.4404000007], [16222569.5696, 1714453.934799999], [16222570.821099997, 1714454.3191], [16222572.199199997, 1714455.3460999988], [16222575.1901, 1714458.7144999988], [16222576.578500003, 1714459.7036999986], [16222578.272200003, 1714460.6081999987], [16222585.714199997, 1714463.6528000012], [16222588.295500003, 1714465.307], [16222589.6791, 1714466.6407999992], [16222592.582599998, 1714470.0524999984], [16222593.975100003, 1714471.4604999982], [16222595.616899997, 1714472.7270000018], [16222597.5827, 1714473.8960999995], [16222607.415399998, 1714478.1612999998], [16222609.6272, 1714479.3806000017], [16222611.4494, 1714480.6898999996], [16222612.873899996, 1714482.0595999993], [16222616.103299998, 1714485.7157000005], [16222618.002499998, 1714487.2831999995], [16222619.442699999, 1714488.0040999986], [16222622.839000002, 1714489.239500001], [16222624.118500002, 1714489.9200999998], [16222625.012000002, 1714490.6818999983], [16222625.8636, 1714491.7520000003], [16222629.0401, 1714497.1363000013], [16222630.0304, 1714498.1292000003], [16222631.1087, 1714498.7109999992], [16222632.1078, 1714498.817499999], [16222635.0379, 1714498.575100001], [16222635.630400002, 1714498.750599999], [16222635.914099999, 1714499.1501000002], [16222635.9142, 1714500.4690000005], [16222636.236500002, 1714500.5854999982], [16222637.661600001, 1714500.4686999992], [16222638.192900002, 1714500.8823999986], [16222639.409100004, 1714502.6664999984], [16222640.526500002, 1714503.1141000018], [16222643.189999998, 1714503.2930000015], [16222644.2144, 1714503.5452000014], [16222645.088799998, 1714504.0969000012], [16222645.927500002, 1714504.9846], [16222648.865400001, 1714509.4921999983], [16222649.582999997, 1714510.1695000008], [16222650.330700003, 1714510.5779], [16222651.157700002, 1714510.728599999], [16222652.178499997, 1714510.6435999982], [16222656.867700003, 1714509.4127999991], [16222657.8446, 1714509.4257000014], [16222658.6307, 1714509.697900001], [16222660.123599999, 1714510.996100001], [16222661.688900001, 1714513.2142000012], [16222662.147699997, 1714514.2859999985], [16222662.853799999, 1714516.9715999998], [16222663.4366, 1714518.0494999997], [16222664.282899998, 1714518.9127999991], [16222665.293200001, 1714519.6400999986], [16222667.805100001, 1714520.6865999997], [16222670.698799998, 1714521.7280000001], [16222673.029, 1714522.9142000005], [16222674.742700003, 1714524.1682000011], [16222675.989200003, 1714526.3629], [16222677.703100003, 1714527.616799999], [16222680.3517, 1714528.2437000014], [16222683.779200003, 1714529.9677000009], [16222686.739299998, 1714530.1242999993], [16222687.749399997, 1714530.6301999986], [16222690.322700001, 1714532.632199999], [16222691.591700003, 1714533.1031999998], [16222694.735100001, 1714533.7507000007], [16222696.0872, 1714534.1994000003], [16222698.424199998, 1714535.453400001], [16222699.737999998, 1714536.9222000018], [16222700.293899998, 1714537.3343000002], [16222701.228600003, 1714537.6477999985], [16222702.243, 1714538.2694000006], [16222703.185400002, 1714539.2199000008], [16222704.016800001, 1714540.4627999999], [16222704.656499997, 1714541.8801999986], [16222705.1241, 1714545.0157000013], [16222705.813299999, 1714546.2851000018], [16222706.838, 1714547.5238999985], [16222708.190800004, 1714548.3882], [16222711.5915, 1714549.3867999986], [16222712.9142, 1714550.0315999985], [16222715.7187, 1714552.5395999998], [16222717.051700003, 1714553.2752999999], [16222720.334299996, 1714554.5370000005], [16222721.639200002, 1714555.3608999997], [16222723.218400002, 1714556.8288000003], [16222723.9762, 1714558.0258999988], [16222724.2878, 1714560.2206000015], [16222725.222900003, 1714561.9450999983], [16222726.169, 1714563.058600001], [16222728.9771, 1714565.3099999987], [16222730.0528, 1714566.4908000007], [16222731.455200002, 1714568.9990000017], [16222732.4806, 1714570.1207000017], [16222733.6364, 1714571.0368000008], [16222735.505999997, 1714571.9772999994], [16222736.7174, 1714572.288899999], [16222739.536799997, 1714572.577300001], [16222740.647200003, 1714572.9173000008], [16222741.691, 1714573.613400001], [16222743.720200002, 1714575.621199999], [16222744.698200002, 1714576.3658999987], [16222747.814400002, 1714577.7763999999], [16222748.971100003, 1714578.6515999995], [16222751.274300002, 1714580.9360000007], [16222752.332599998, 1714581.6953000017], [16222753.863399997, 1714582.2349000014], [16222754.358000003, 1714582.6356999986], [16222754.632, 1714583.2866000012], [16222755.371699996, 1714586.2663000003], [16222755.760499999, 1714587.182], [16222757.630199999, 1714589.376699999], [16222758.326399997, 1714591.1772000007], [16222758.565300003, 1714593.1389999986], [16222758.306100003, 1714595.1259000003], [16222757.630999997, 1714596.7448999994], [16222755.868, 1714598.2303000018], [16222755.449900001, 1714598.7833000012], [16222755.1431, 1714599.8797999993], [16222755.138400003, 1714600.9780000001], [16222755.406099997, 1714601.683699999], [16222755.973899998, 1714602.4001000002], [16222758.098899998, 1714603.9563999996], [16222758.940700002, 1714604.3106999993], [16222761.022, 1714604.8038000017], [16222761.838100001, 1714605.210000001], [16222763.2403, 1714606.6207999997], [16222764.907799996, 1714607.193500001], [16222790.320799999, 1714581.1616000012], [16222702.534199998, 1714495.2980999984], [16222687.996699996, 1714481.5579000004], [16222673.057999998, 1714468.2879000008], [16222657.732500002, 1714455.5003999993], [16222478.309600003, 1714310.9169000015], [16222442.2689, 1714293.8878000006], [16222510.870899998, 1714217.631099999], [16222048.029, 1713807.1579000019], [16222026.924099997, 1713788.0555000007], [16222006.198299997, 1713768.5124999993], [16221985.860299997, 1713748.5368999988], [16221965.917599998, 1713728.1374000013], [16221946.379500002, 1713707.3220999986], [16221051.815899998, 1714298.9375], [16221052.956200004, 1714299.8808000013], [16221053.947499998, 1714300.988499999], [16221054.798500001, 1714302.2692999989], [16221055.522799999, 1714303.7446000017], [16221056.509800002, 1714306.7760999985], [16221058.073299997, 1714313.7932000011], [16221059.531800002, 1714320.1761999987], [16221061.7122, 1714333.9704999998], [16221063.128399998, 1714339.8748000003], [16221064.681400001, 1714344.3641000018], [16221066.744900003, 1714348.9734000005], [16221069.2896, 1714353.6363000013], [16221072.257600002, 1714358.2470000014], [16221075.215599999, 1714362.1853], [16221078.529, 1714365.9979999997], [16221082.133500002, 1714369.6103000008], [16221085.9512, 1714372.944600001], [16221088.506300002, 1714374.8048], [16221091.524099998, 1714376.5951999985], [16221104.4084, 1714382.7076999992], [16221107.252099998, 1714384.252700001], [16221109.6866, 1714385.8044000007], [16221115.238300003, 1714389.6992000006], [16221118.803000003, 1714392.4316000007], [16221121.827, 1714395.1077000014], [16221124.2931, 1714397.7459999993], [16221126.828100003, 1714401.1953000017], [16221129.224299997, 1714405.3310999982], [16221131.5308, 1714410.197999999], [16221134.335299999, 1714417.0368000008], [16221135.593199998, 1714420.6667000018], [16221136.670699999, 1714424.7861000001], [16221139.7566, 1714441.9169000015], [16221140.6431, 1714445.7864999995], [16221141.6391, 1714449.1884999983], [16221144.574500002, 1714457.5923999995], [16221147.426299997, 1714464.7302], [16221150.384999998, 1714471.077399999], [16221153.5071, 1714476.7470000014], [16221157.439099997, 1714482.8592000008], [16221161.6796, 1714488.6218999997], [16221166.167499997, 1714493.9532000013], [16221170.852700002, 1714498.7936000004], [16221174.1536, 1714501.9026000015], [16221176.335699998, 1714503.6834000014], [16221178.689800002, 1714505.1906000003], [16221181.676600002, 1714506.6915000007], [16221184.2975, 1714507.7311999984], [16221187.068400003, 1714508.5113000013], [16221197.258699998, 1714510.1459], [16221202.0057, 1714511.373399999], [16221205.936099999, 1714512.9178999998], [16221219.285400003, 1714518.794399999], [16221222.884999998, 1714520.1141999997], [16221225.627099998, 1714520.8381999992], [16221230.618100002, 1714521.613400001], [16221235.8605, 1714522.1268999986], [16221241.399800003, 1714522.3839000016], [16221247.320600003, 1714522.3883000016], [16221259.886, 1714521.7179000005], [16221285.824100003, 1714519.1856999993], [16221296.904799998, 1714518.4001999982], [16221302.8974, 1714518.2153999992], [16221308.471100003, 1714518.2522], [16221313.734700002, 1714518.511599999], [16221318.742600001, 1714518.9968999997], [16221332.1677, 1714521.1517999992], [16221337.000699997, 1714521.7518000007], [16221380.819799997, 1714524.5056000017], [16221389.686399996, 1714523.5284999982], [16221398.986199997, 1714522.7228999995], [16221419.283100002, 1714521.5940999985], [16221441.379600003, 1714521.0581], [16221477.586900003, 1714520.8260000013], [16221485.684, 1714521.0218999982], [16221494.693099998, 1714521.7219000012], [16221504.472400002, 1714522.8720999993], [16221532.6237, 1714526.7243999988], [16221541.345700003, 1714527.5700999983], [16221549.0924, 1714527.977499999], [16221557.9582, 1714527.8942999989], [16221566.092699997, 1714527.1435999982], [16221573.660899997, 1714525.7096000016], [16221580.744400002, 1714523.5760999992], [16221591.643, 1714519.7098999992], [16221597.752800003, 1714517.107900001], [16221600.545000002, 1714515.640900001], [16221603.032300003, 1714514.0995999984], [16221605.250799999, 1714512.4615999982], [16221607.218000002, 1714510.7135999985], [16221608.655000001, 1714509.4657000005], [16221610.243500002, 1714508.3889999986], [16221612.013999999, 1714507.4627999999], [16221614.024400003, 1714506.6563000008], [16221634.604199998, 1714492.3392999992], [16221636.220200002, 1714491.5951000005], [16221638.256800003, 1714490.3005999997], [16221647.645400003, 1714483.0238000005], [16221651.222499996, 1714480.7553000003], [16221668.380400002, 1714468.4529], [16221675.8239, 1714461.1677], [16221679.343099996, 1714458.0954999998], [16221682.221100003, 1714455.8583000004], [16221686.279700004, 1714452.7375000007], [16221689.754, 1714449.5775000006], [16221692.419200003, 1714446.5846999995], [16221694.232900001, 1714443.8114], [16221696.193099998, 1714439.7005000003], [16221697.035499997, 1714436.7993], [16221697.177000001, 1714433.7811000012], [16221696.678499997, 1714428.950100001], [16221691.2007, 1714418.8454000019], [16221690.5356, 1714418.4127000012], [16221689.7628, 1714417.5896999985], [16221686.677100003, 1714413.2925999984], [16221685.994199999, 1714412.7393999994], [16221685.248800002, 1714412.4496], [16221682.027199998, 1714412.2886999995], [16221678.324600004, 1714411.308600001], [16221677.513499998, 1714411.5892999992], [16221676.4089, 1714412.489500001], [16221670.984300002, 1714416.3200999983], [16221669.2914, 1714417.928199999], [16221667.060999997, 1714420.682599999], [16221664.2161, 1714423.2338000014], [16221660.915799998, 1714425.4373999983], [16221657.424000002, 1714427.1152000017], [16221651.7768, 1714428.9338000007], [16221649.233800001, 1714429.4633000009], [16221646.9613, 1714429.7201999985], [16221645.004, 1714429.7025999986], [16221643.3517, 1714429.4149000011], [16221642.012900002, 1714428.8583000004], [16221640.991899997, 1714428.0350000001], [16221640.322700001, 1714427.0733000003], [16221639.727200001, 1714425.7479999997], [16221638.252999999, 1714420.6860000007], [16221637.596900001, 1714418.1649000011], [16221637.167900003, 1714415.4803999998], [16221636.9608, 1714412.6042000018], [16221636.971500002, 1714409.4791], [16221637.447099999, 1714403.6755999997], [16221639.231799997, 1714390.3055000007], [16221639.581100002, 1714384.2007], [16221639.252499998, 1714379.194699999], [16221638.251400001, 1714374.7545000017], [16221636.575900003, 1714368.3145999983], [16221635.682800002, 1714365.7170999981], [16221634.393399999, 1714363.4305000007], [16221632.7733, 1714361.8940999992], [16221630.7174, 1714360.8436000012], [16221628.208899997, 1714360.0571000017], [16221624.5981, 1714359.6611000001], [16221620.905699998, 1714360.057500001], [16221619.6356, 1714360.4714000002], [16221618.2927, 1714361.1673000008], [16221613.706200004, 1714364.4710000008], [16221611.777000003, 1714365.5700000003], [16221609.117799997, 1714366.5210000016], [16221606.138899997, 1714367.1361999996], [16221596.732, 1714367.7804999985], [16221593.617299996, 1714368.1952], [16221590.7791, 1714368.9642999992], [16221588.256899998, 1714370.1246000007], [16221584.411399998, 1714372.5122999996], [16221581.370800003, 1714374.8498999998], [16221578.976099998, 1714377.2600000016], [16221577.213699996, 1714379.7621], [16221576.0462, 1714381.2993], [16221572.7795, 1714384.3944999985], [16221571.6105, 1714385.7820000015], [16221570.047700003, 1714387.7292000018], [16221568.404200003, 1714388.9488999993], [16221566.4652, 1714389.6728999987], [16221562.876999997, 1714390.4034000002], [16221560.4885, 1714391.1042999998], [16221552.414899997, 1714394.0176], [16221550.621100001, 1714394.7210999988], [16221546.900200002, 1714396.9422999993], [16221545.137000002, 1714397.7258000001], [16221542.5154, 1714398.3354000002], [16221539.6681, 1714398.5438], [16221536.816299997, 1714398.3355999999], [16221534.182300001, 1714397.726399999], [16221531.222000003, 1714396.3713000007], [16221527.7918, 1714394.052099999], [16221526.005500004, 1714392.3332999982], [16221524.700499997, 1714390.2501999997], [16221523.8605, 1714387.7793000005], [16221523.466799997, 1714384.8663999997], [16221523.461499996, 1714382.2054999992], [16221523.724, 1714379.0896999985], [16221525.7733, 1714365.2096000016], [16221525.9529, 1714362.1601000018], [16221525.872599997, 1714359.4831999987], [16221525.776100002, 1714356.5544000007], [16221525.924599998, 1714352.955699999], [16221527.228699997, 1714339.605799999], [16221527.6259, 1714336.6673000008], [16221528.3887, 1714333.7928999998], [16221529.525899999, 1714330.9485], [16221531.061899997, 1714328.071899999], [16221534.368500002, 1714323.2994000018], [16221541.720799997, 1714314.3893], [16221544.665299997, 1714310.4924999997], [16221545.061499998, 1714309.1832999997], [16221544.9172, 1714307.1235000007], [16221542.770499997, 1714298.8748000003], [16221542.2989, 1714296.3291999996], [16221542.341300003, 1714294.5234999992], [16221542.9216, 1714293.4261999987], [16221545.987800002, 1714291.1116000004], [16221550.2799, 1714289.457800001], [16221553.349100001, 1714287.4902000017], [16221558.713600002, 1714283.2333999984], [16221562.639300004, 1714279.5703000017], [16221566.263499998, 1714275.5284000002], [16221573.1453, 1714267.1239], [16221575.752800003, 1714264.6031999998], [16221583.473399997, 1714258.0923999995], [16221674.413999997, 1714215.4342], [16221887.590300001, 1714214.5408000015], [16221901.132600002, 1714222.8918999992], [16221933.024999999, 1714285.7498000003], [16221937.8314, 1714312.5639999993], [16221936.524999999, 1714390.546], [16221931.2857, 1714447.2529999986], [16221894.161799997, 1714596.2752999999], [16221891.9775, 1714597.5940999985], [16221845.247100003, 1714850.0099], [16221849.178900003, 1714853.0868000016], [16221857.0422, 1714855.2842000015], [16221864.905500002, 1714852.2063999996]]]]}}]}