{"type": "FeatureCollection", "name": "Vermont_park", "crs": {"type": "name", "properties": {"name": "urn:ogc:def:crs:EPSG::3857"}}, "features": [{"type": "Feature", "properties": {"OBJECTID": 64, "CreationDate": "2025-01-14T11:11:11Z", "Creator": "NPS_WASO_LANDS", "EditDate": "2025-01-14T11:11:11Z", "Editor": "NPS_WASO_LANDS", "GlobalID": "{288D2AE0-4A2A-40CA-94D7-EBA8621A0A93}", "AreaID": 43, "UNIT_CODE": "MABI", "GIS_Notes": "Lands - http://landsnet.nps.gov/tractsnet/documents/MABI/Metadata/mabi_metadata.xml", "UNIT_NAME": "Marsh-Billings-Rockefeller National Historical Park", "DATE_EDIT": "2011-09-21T00:00:00Z", "STATE": "VT", "REGION": "NE", "GNIS_ID": "1888942", "UNIT_TYPE": "National Historical Park", "CREATED_BY": "Lands", "METADATA": "https://irma.nps.gov/DataStore/Reference/Profile/2196723", "PARKNAME": "Marsh - Billings - Rockefeller", "SHAPE_Length": 16454.04293851683, "SHAPE_Area": 4988704.032069299}, "geometry": {"type": "MultiPolygon", "coordinates": [[[[-8071972.0437, 5409131.129900001], [-8071943.4332, 5409122.1652000025], [-8071919.98, 5409106.367299996], [-8071909.1274, 5409092.674500003], [-8071901.774800001, 5409074.416599996], [-8071894.4179, 5409026.312600002], [-8071890.566, 5409014.023400001], [-8071880.764, 5409000.6818], [-8071870.525900001, 5408988.257200003], [-8071874.2271, 5408971.336000003], [-8071885.0469, 5408956.859499998], [-8071915.9606, 5408914.981399998], [-8071939.145099999, 5408878.7907000035], [-8071957.1765, 5408844.6686], [-8071966.4476, 5408812.098899998], [-8071969.966700001, 5408778.262500003], [-8071970.049900001, 5408777.462300003], [-8071971.589199999, 5408730.419200003], [-8071967.9769, 5408694.233099997], [-8071971.100099999, 5408658.162100002], [-8071969.5483, 5408616.2896], [-8071963.8758000005, 5408585.7905], [-8071947.8959, 5408545.9881], [-8071929.8565, 5408517.0418], [-8071911.818, 5408495.332800001], [-8071890.173699999, 5408480.861299999], [-8071821.635500001, 5408450.370800003], [-8071803.2325, 5408435.778300002], [-8071774.373500001, 5408414.070100002], [-8071756.3365, 5408399.598399997], [-8071732.6316, 5408386.677599996], [-8071716.6567, 5408379.959399998], [-8071696.5605, 5408381.512500003], [-8071678.5254, 5408381.5145], [-8071658.943299999, 5408372.211800002], [-8071630.086200001, 5408363.427100003], [-8071595.560699999, 5408352.575000003], [-8071570.3105, 5408341.722000003], [-8071550.7282, 5408327.249899998], [-8071537.8444, 5408310.709200002], [-8071529.0825, 5408289.516000003], [-8071525.4384, 5408266.414800003], [-8071525.4364, 5408244.703699999], [-8071541.920700001, 5408194.043499999], [-8071586.7436999995, 5408132.525600001], [-8071624.8708999995, 5408099.955600001], [-8071658.8763, 5408074.623000003], [-8071695.3641, 5408043.9432], [-8071731.430299999, 5408018.610200003], [-8071779.862199999, 5407989.657300003], [-8071807.169600001, 5407975.697300002], [-8071825.204, 5407975.695200004], [-8071843.2388, 5407979.311300002], [-8071929.809900001, 5408022.720299996], [-8071973.094799999, 5408038.738700002], [-8071997.8279, 5408038.735200003], [-8072016.3782, 5408042.350900002], [-8072052.4496, 5408058.8869], [-8072095.733999999, 5408067.667800002], [-8072130.1587000005, 5408078.6193], [-8072169.8355, 5408082.231399998], [-8072216.725400001, 5408082.223499998], [-8072270.8301, 5408087.900300004], [-8072303.2927, 5408089.445299998], [-8072335.7557, 5408093.057999998], [-8072357.3981, 5408098.2233000025], [-8072398.623199999, 5408114.756999999], [-8072429.5419, 5408125.606399998], [-8072430.1291000005, 5408125.815899998], [-8072414.0408, 5408223.886699997], [-8072505.705700001, 5408239.8369999975], [-8072503.1282, 5408257.5205999985], [-8072504.616900001, 5408257.739], [-8072457.3665, 5408359.5380000025], [-8072548.4417, 5408401.003600001], [-8072540.1434, 5408421.988799997], [-8072534.434, 5408441.6404], [-8072529.5943, 5408461.238300003], [-8072525.5436, 5408481.068899997], [-8072522.566299999, 5408505.6536], [-8072522.203500001, 5408517.940300003], [-8072522.321900001, 5408533.3728], [-8072523.0886, 5408548.8112], [-8072524.512, 5408564.318499997], [-8072529.2381, 5408594.485299997], [-8072535.029100001, 5408624.345399998], [-8072543.4222, 5408659.704700001], [-8072553.5349, 5408698.503799997], [-8072554.3519, 5408711.1373], [-8072554.386299999, 5408724.4186], [-8072553.598300001, 5408737.6765], [-8072552.018300001, 5408750.6329], [-8072550.1329, 5408758.802299999], [-8072547.452, 5408766.731600001], [-8072543.563200001, 5408775.123899996], [-8072539.183499999, 5408782.892499998], [-8072532.386, 5408791.229099996], [-8072524.535499999, 5408799.626100004], [-8072489.7468, 5408834.726099998], [-8072463.0331, 5408860.965000004], [-8072435.3708, 5408886.823700003], [-8072414.766799999, 5408907.465800002], [-8072376.191299999, 5408943.703699999], [-8072331.3663, 5408987.602499999], [-8072285.3937, 5409031.040299997], [-8072264.4736, 5409053.629500002], [-8072203.4037999995, 5409023.82], [-8072132.106799999, 5409131.994499996], [-8072121.119999999, 5409130.6027000025], [-8072074.5677000005, 5409131.6635000035], [-8072051.4662999995, 5409130.613600001], [-8072021.839400001, 5409135.848200001], [-8071972.0437, 5409131.129900001]]], [[[-8075485.522600001, 5409852.059900001], [-8075335.829700001, 5409805.8527000025], [-8075126.8390999995, 5409721.8369999975], [-8075016.4683, 5409675.812600002], [-8074940.014799999, 5409644.556100003], [-8074850.9058, 5409608.7962], [-8074773.396299999, 5409576.663800001], [-8074693.4300999995, 5409544.542199999], [-8074615.2097, 5409512.245899998], [-8074479.9021000005, 5409459.3046], [-8074422.226500001, 5409441.691500001], [-8074488.631100001, 5409266.603799999], [-8074418.6318, 5409281.990900002], [-8074200.6083, 5409254.541199997], [-8073908.6899, 5409218.372400001], [-8073570.643100001, 5409201.850400001], [-8073393.9573, 5409031.9196000025], [-8073383.396500001, 5409042.030599996], [-8073237.7765999995, 5409181.445299998], [-8073200.6194, 5409132.6294], [-8073174.2622, 5409096.067299999], [-8073161.915899999, 5409079.665899999], [-8073142.9826, 5409055.434199996], [-8073123.581599999, 5409031.436800003], [-8073110.341399999, 5409016.304300003], [-8073096.459899999, 5409001.762000002], [-8073077.7862, 5408983.666599996], [-8073058.5297, 5408966.169200003], [-8073046.295600001, 5408955.9695999995], [-8073027.6577, 5408941.3276999965], [-8073012.8355, 5408929.256800003], [-8073005.4782, 5408923.942500003], [-8072997.9070999995, 5408919.153499998], [-8072982.557, 5408910.195500001], [-8072966.822699999, 5408901.7804000005], [-8072951.7641, 5408894.6647000015], [-8072936.3522, 5408888.279799998], [-8072915.6307, 5408881.343800001], [-8072894.768999999, 5408874.629299998], [-8072883.804199999, 5408871.327399999], [-8072863.539000001, 5408866.515299998], [-8072847.5229, 5408863.531499997], [-8072839.592499999, 5408861.659699999], [-8072827.8389, 5408857.991599999], [-8072804.3379999995, 5408848.6589], [-8072792.331700001, 5408843.270499997], [-8072746.2949, 5408824.322700001], [-8072705.310900001, 5408805.788099997], [-8072667.2963, 5408786.255500004], [-8072625.6733, 5408765.9661], [-8072619.294299999, 5408761.2839], [-8072612.878799999, 5408755.671599999], [-8072602.121099999, 5408744.376900002], [-8072592.1972, 5408732.639799997], [-8072587.889799999, 5408725.873400003], [-8072584.056399999, 5408718.460100003], [-8072573.7795, 5408693.6501], [-8072563.592, 5408654.542099997], [-8072555.375700001, 5408619.928400002], [-8072549.3422, 5408588.3303999975], [-8072545.1756, 5408561.736000001], [-8072543.8533, 5408547.333300002], [-8072543.1304, 5408532.772399999], [-8072543.3508, 5408506.908299997], [-8072544.354699999, 5408495.811700001], [-8072546.0383, 5408484.743900001], [-8072549.897500001, 5408465.849100001], [-8072554.5331999995, 5408447.077500001], [-8072559.8495000005, 5408428.7786], [-8072567.680600001, 5408408.9749], [-8072576.188999999, 5408389.075499997], [-8072585.203, 5408369.499700002], [-8072601.9847, 5408336.949199997], [-8072606.8684, 5408328.792000003], [-8072612.157, 5408320.793399997], [-8072617.9025, 5408312.943000004], [-8072624.0341, 5408305.446400002], [-8072646.6214000005, 5408280.771200001], [-8072658.5318, 5408271.146499999], [-8072683.6624, 5408252.066600002], [-8072689.758400001, 5408246.465999998], [-8072692.1096, 5408247.406900004], [-8072701.622300001, 5408250.719999999], [-8072715.180500001, 5408254.626599997], [-8072728.862, 5408258.105599999], [-8072741.5294, 5408260.5798999965], [-8072754.398700001, 5408262.189999998], [-8072767.2785, 5408262.9125000015], [-8072782.1938000005, 5408262.926299997], [-8072797.0370000005, 5408262.288099997], [-8072811.7787, 5408261.004699998], [-8072859.2874, 5408255.316100001], [-8072867.3862, 5408253.994499996], [-8072875.5825, 5408252.151000001], [-8072884.360200001, 5408249.422700003], [-8072892.9092, 5408245.873300001], [-8072905.047599999, 5408239.071699999], [-8072957.974300001, 5408298.950199999], [-8073042.922, 5408237.220200002], [-8073039.7798999995, 5408254.135600001], [-8073164.3026, 5408293.078299999], [-8073238.1588, 5408113.027999997], [-8073427.475099999, 5408167.8785], [-8073428.6679, 5408193.930100001], [-8073400.0956999995, 5408729.092699997], [-8073922.361199999, 5408617.9597999975], [-8073947.403999999, 5408610.173600003], [-8074465.4374, 5408511.0603], [-8074636.3704, 5408186.9130000025], [-8074691.8762, 5408048.344400004], [-8074886.695699999, 5408204.607900001], [-8075067.076199999, 5408165.207000002], [-8075046.2676, 5407862.615900002], [-8075509.370999999, 5408009.256499998], [-8075924.3354, 5408136.071099997], [-8075835.146199999, 5408431.7272000015], [-8075919.941500001, 5408621.819600001], [-8075910.7632, 5408870.937399998], [-8076484.415100001, 5409044.2773], [-8076489.550100001, 5408961.733599998], [-8076685.5524, 5408968.246699996], [-8076690.8192, 5408980.9485], [-8076700.145, 5409004.565399997], [-8076705.7268, 5409019.394900002], [-8076710.446599999, 5409034.1972], [-8076715.6631000005, 5409060.646899998], [-8076717.4276, 5409079.6417], [-8076717.545399999, 5409088.1492], [-8076716.1324000005, 5409106.173299998], [-8076713.8026, 5409124.423299998], [-8076708.9991999995, 5409152.456299998], [-8076699.445800001, 5409198.306900002], [-8076688.8595, 5409258.436499998], [-8076680.531099999, 5409305.302199997], [-8076665.062000001, 5409403.114], [-8076643.5945999995, 5409553.903999999], [-8076638.8703000005, 5409584.0342999995], [-8076636.1765, 5409604.208800003], [-8076633.8628, 5409630.486299999], [-8076633.754799999, 5409643.7465], [-8076635.4997000005, 5409680.6439], [-8076637.516799999, 5409695.007299997], [-8076640.271299999, 5409709.038999997], [-8076646.534700001, 5409733.755900003], [-8076680.3333, 5409839.387599997], [-8076596.976199999, 5409919.248400003], [-8076053.476600001, 5409846.666299999], [-8075812.049699999, 5409936.208800003], [-8075612.164899999, 5409884.752800003], [-8075485.522600001, 5409852.059900001]]]]}}]}