{"type": "FeatureCollection", "name": "Wisconsin_park", "crs": {"type": "name", "properties": {"name": "urn:ogc:def:crs:EPSG::3857"}}, "features": [{"type": "Feature", "properties": {"OBJECTID": 1, "CreationDate": "2025-01-14T11:11:09Z", "Creator": "NPS_WASO_LANDS", "EditDate": "2025-01-14T11:11:09Z", "Editor": "NPS_WASO_LANDS", "GlobalID": "{5B7E3AC2-BCC0-4470-B73E-067F4578B8E7}", "AreaID": 236, "UNIT_CODE": "APIS", "GIS_Notes": "Lands - http://landsnet.nps.gov/tractsnet/documents/APIS/Metadata/apis_metadata.xml", "UNIT_NAME": "Apostle Islands National Lakeshore", "DATE_EDIT": "2024-10-17T00:00:00Z", "STATE": "WI", "REGION": "MW", "GNIS_ID": "1581059", "UNIT_TYPE": "National Lakeshore", "CREATED_BY": "Lands", "METADATA": "https://irma.nps.gov/DataStore/Reference/Profile/2221817", "PARKNAME": "Apostle Islands", "SHAPE_Length": 491210.397759677, "SHAPE_Area": 632061125.7085712}, "geometry": {"type": "MultiPolygon", "coordinates": [[[[-10115638.3648, 5881591.068999998], [-10115646.5986, 5881576.232000001], [-10115667.4047, 5881587.406000003], [-10115659.1709, 5881602.243000001], [-10115638.3648, 5881591.068999998]]], [[[-10134283.0656, 5931834.729500003], [-10134431.4257, 5931826.5803999975], [-10134553.2537, 5931839.4548999965], [-10134686.0391, 5931901.810599998], [-10134827.3976, 5931988.865400001], [-10134917.1616, 5932072.463500001], [-10134986.5807, 5932177.008199997], [-10135065.0077, 5932339.335699998], [-10135127.6047, 5932514.259199999], [-10135158.0248, 5932625.8543], [-10135170.5149, 5932789.538999997], [-10135142.3372, 5932984.493199997], [-10135079.5269, 5933236.243500002], [-10135032.8537, 5933406.962200001], [-10134929.9617, 5933653.865500003], [-10134846.3542, 5933784.572700001], [-10134697.9997, 5933941.426899999], [-10134531.3858, 5934038.078900002], [-10134318.0173, 5934096.093199998], [-10134074.9881, 5934147.333400004], [-10133962.3804, 5934161.9152000025], [-10133787.4368, 5934116.8895], [-10133655.711, 5934082.610600002], [-10133411.5502, 5933839.984700002], [-10133312.1254, 5933602.572300002], [-10133269.805, 5933429.661499999], [-10133253.7186, 5933231.478600003], [-10133261.9204, 5932932.185099997], [-10133284.9958, 5932733.419699997], [-10133428.4316, 5932492.115599997], [-10133762.9343, 5932124.874300003], [-10133923.9091, 5931965.565300003], [-10134040.6205, 5931902.005400002], [-10134153.5564, 5931865.375200003], [-10134283.0656, 5931834.729500003]]], [[[-10083957.35, 5951194.471500002], [-10084133.2701, 5951187.4016999975], [-10084363.4145, 5951202.991599999], [-10084618.2168, 5951286.438100003], [-10084751.9294, 5951394.902400002], [-10084818.2636, 5951473.064400002], [-10084919.8773, 5951641.189499997], [-10085027.5656, 5951886.059299998], [-10085064.3759, 5952012.244999997], [-10085107.7618, 5952243.9646999985], [-10085120.1616, 5952475.317100003], [-10085171.732, 5952698.358000003], [-10085201.1601, 5952908.769900002], [-10085217.5534, 5953112.620999999], [-10085193.0082, 5953243.099699996], [-10085133.7817, 5953390.128899999], [-10085097.8074, 5953543.9651999995], [-10085064.2569, 5953711.746600002], [-10085026.6378, 5953956.3483000025], [-10084987.5644, 5954199.336000003], [-10084921.5903, 5954402.8715], [-10084808.8416, 5954576.421599999], [-10084575.2398, 5954774.215899996], [-10084424.7401, 5954880.3653], [-10084160.3318, 5955006.031300001], [-10083949.2156, 5955083.5876], [-10083795.4871, 5955101.2117], [-10083601.6981, 5955101.461900003], [-10083471.927, 5955022.329700001], [-10083350.1217, 5954907.806599997], [-10083282.2984, 5954786.999700002], [-10083113.9466, 5954265.128600001], [-10083035.124, 5953952.722199999], [-10082998.4954, 5953668.472000003], [-10083027.7716, 5953470.454499997], [-10083031.0883, 5953276.183799997], [-10083038.8819, 5953135.607199997], [-10083072.8542, 5952876.585600004], [-10083065.9543, 5952555.654600002], [-10083123.699, 5952321.382299997], [-10083200.0461, 5952130.538900003], [-10083377.0106, 5951943.546499997], [-10083489.7446, 5951804.817100003], [-10083564.2963, 5951652.5222999975], [-10083638.4586, 5951447.352300003], [-10083738.3918, 5951317.865999997], [-10083824.9883, 5951245.955700003], [-10083957.35, 5951194.471500002]]], [[[-10099687.1628, 5951533.213299997], [-10099827.4983, 5951528.960000001], [-10099967.9694, 5951539.5205999985], [-10100055.8483, 5951615.760200001], [-10100287.0191, 5951869.9221], [-10100466.9955, 5952054.414999999], [-10100554.1481, 5952238.292499997], [-10100619.4907, 5952453.4038999975], [-10100723.1995, 5953022.8347999975], [-10100766.9932, 5953157.678099997], [-10100805.2042, 5953329.200000003], [-10100801.832, 5953927.322999999], [-10100809.0569, 5954076.671999998], [-10100849.5882, 5954222.4168], [-10100895.7167, 5954484.902099997], [-10100891.4463, 5954652.919500001], [-10100841.0914, 5954892.178800002], [-10100757.4114, 5955109.972099997], [-10100694.9471, 5955321.467299998], [-10100654.9784, 5955477.7465], [-10100581.5266, 5955628.033399999], [-10100424.4567, 5955799.475900002], [-10100219.3633, 5955948.082400002], [-10099985.3939, 5956028.211800002], [-10099811.3509, 5956048.584700003], [-10099654.1897, 5956025.482500002], [-10099495.274, 5955967.740199998], [-10099304.2059, 5955821.8950999975], [-10098985.1973, 5955459.280699998], [-10098678.8815, 5954819.503399998], [-10098544.9385, 5954562.469499998], [-10098421.5713, 5954207.789999999], [-10098406.2008, 5954147.600599997], [-10098406.6889, 5954034.4646999985], [-10098375.6517, 5953759.736299999], [-10098360.8168, 5953447.644299999], [-10098364.4612, 5953136.799599998], [-10098329.7107, 5952930.191699997], [-10098275.5744, 5952739.084100001], [-10098260.6949, 5952580.975900002], [-10098292.1319, 5952500.4472], [-10098370.7183, 5952380.2108], [-10099093.977, 5951677.7326000035], [-10099161.954, 5951656.307499997], [-10099321.711, 5951623.640799999], [-10099490.3715, 5951592.376000002], [-10099687.1628, 5951533.213299997]]], [[[-10090100.5485, 5945554.569200002], [-10090229.802, 5945553.521899998], [-10090308.0797, 5945566.081600003], [-10090501.8297, 5945650.520199999], [-10090570.7506, 5945679.3675], [-10090644.8858, 5945684.954400003], [-10090792.7614, 5945691.137599997], [-10090919.2327, 5945730.213799998], [-10091088.993, 5945795.159900002], [-10091257.6589, 5945914.108800001], [-10091403.3541, 5946045.587399997], [-10091491.8406, 5946142.053599998], [-10091767.2411, 5946595.700599998], [-10091898.6603, 5946905.366499998], [-10091989.4241, 5947322.346900001], [-10091998.9091, 5947544.699699998], [-10091971.5545, 5947752.023699999], [-10091917.8133, 5947905.438100003], [-10091798.3373, 5948030.3279], [-10091552.2009, 5948215.848700002], [-10091516.4759, 5948310.705600001], [-10091489.9628, 5948416.163800001], [-10091462.1036, 5948542.9877], [-10091435.5145, 5948639.297600001], [-10091354.8071, 5948813.843800001], [-10091300.8632, 5948913.432099998], [-10091237.9167, 5949028.348399997], [-10091160.0365, 5949104.232500002], [-10090989.2018, 5949210.773199998], [-10090765.0564, 5949327.696900003], [-10090455.9217, 5949420.787100002], [-10090154.1889, 5949466.9602999985], [-10089985.7662, 5949437.0918999985], [-10089809.4838, 5949397.9142], [-10089686.0082, 5949341.131499998], [-10089419.6603, 5949176.368600003], [-10089244.3808, 5948994.122900002], [-10089140.2243, 5948777.071500003], [-10089000.5271, 5948382.895999998], [-10088927.3397, 5947795.614], [-10089057.8886, 5947478.058700003], [-10089059.458, 5947285.660099998], [-10089063.2111, 5946978.442000002], [-10089074.6043, 5946565.557700001], [-10089090.0399, 5946365.237000003], [-10089163.0145, 5946200.154299997], [-10089230.1418, 5946078.572499998], [-10089391.5129, 5945937.615099996], [-10089576.3998, 5945835.2632], [-10089709.0901, 5945772.730999999], [-10090007.0475, 5945573.953599997], [-10090100.5485, 5945554.569200002]]], [[[-10106072.6566, 5939557.8609], [-10105850.1084, 5939371.9296], [-10105701.4331, 5939262.7326000035], [-10105628.2987, 5939154.173], [-10105525.7036, 5938930.370399997], [-10105458.4919, 5938667.607799999], [-10105390.3895, 5938394.093099996], [-10105433.7964, 5938205.281499997], [-10105485.0652, 5938119.523800001], [-10105691.6124, 5937927.7348000035], [-10105880.7326, 5937777.366899997], [-10106028.0286, 5937685.440800004], [-10106065.6303, 5937616.5207], [-10106044.3695, 5937539.9586], [-10106006.5977, 5937452.593199998], [-10105946.6178, 5937331.1756], [-10105874.2178, 5937162.299099997], [-10105833.3641, 5937027.384000003], [-10105844.6104, 5936923.393200003], [-10105902.0873, 5936808.012100004], [-10105985.6455, 5936711.509099998], [-10106125.8314, 5936593.3478000015], [-10106239.4522, 5936539.072400004], [-10106377.6657, 5936498.178999998], [-10106684.5507, 5936473.318499997], [-10107049.2808, 5936431.866300002], [-10107155.7062, 5936369.6548999995], [-10107383.8357, 5936283.120800003], [-10107451.3742, 5936262.060199998], [-10107761.6723, 5936263.5436], [-10107921.0624, 5936260.5776999965], [-10108017.3157, 5936293.4728000015], [-10108292.7216, 5936444.586800002], [-10108424.4635, 5936441.214500003], [-10108592.3163, 5936435.195200004], [-10108672.3596, 5936513.845799997], [-10108896.9168, 5936670.487499997], [-10109033.3736, 5936748.559699997], [-10109174.1472, 5936872.5647], [-10109234.7002, 5937031.763499998], [-10109231.0148, 5937195.653700002], [-10109190.0924, 5937363.901799999], [-10109105.3161, 5937562.9692], [-10109099.8535, 5937682.214000002], [-10109086.7182, 5937796.040399998], [-10109068.7314, 5937991.1818], [-10108978.2571, 5938129.6492], [-10108858.4454, 5938264.411700003], [-10108691.3489, 5938332.887400001], [-10108456.5481, 5938383.125399999], [-10108345.1359, 5938408.5363000035], [-10108253.5867, 5938464.046099998], [-10108202.0127, 5938608.717500001], [-10108144.9917, 5938779.591499999], [-10108098.3157, 5938981.010200001], [-10108049.1283, 5939233.234300002], [-10107980.301, 5939425.950400002], [-10107845.364, 5939530.284000002], [-10107680.9515, 5939601.518299997], [-10107534.0031, 5939615.523100004], [-10107380.8087, 5939603.6532000005], [-10107221.1189, 5939545.5988000035], [-10107075.8044, 5939541.506700002], [-10106974.9801, 5939559.1652000025], [-10106845.4342, 5939610.407799996], [-10106652.4547, 5939683.0929000005], [-10106500.5679, 5939723.764600001], [-10106341.6632, 5939697.677699998], [-10106214.3218, 5939654.674599998], [-10106072.6566, 5939557.8609]]], [[[-10115326.6226, 5940306.460900001], [-10115156.5654, 5940238.632799998], [-10115008.7588, 5940241.515299998], [-10114895.0647, 5940244.0233], [-10114726.1636, 5940282.6096], [-10114561.0787, 5940323.685500003], [-10114362.9109, 5940376.962899998], [-10114161.27, 5940371.567599997], [-10113870.1195, 5940360.817100003], [-10113714.9274, 5940339.749499999], [-10113525.3585, 5940284.937799998], [-10113415.2491, 5940238.112599999], [-10113190.6721, 5940092.506899998], [-10113012.9949, 5939921.8376], [-10112956.4601, 5939802.7776999995], [-10112924.2939, 5939466.793799996], [-10112936.3331, 5939093.7836000025], [-10112954.7412, 5938940.376699999], [-10113050.5688, 5938781.483000003], [-10113121.7783, 5938634.043399997], [-10113229.0023, 5938444.1532000005], [-10113232.0788, 5938362.2896], [-10113235.1081, 5938143.540600002], [-10113263.1902, 5938069.546700001], [-10113313.5503, 5937992.682300001], [-10113428.0065, 5937896.707199998], [-10113567.6714, 5937826.7786], [-10113684.153, 5937797.890900001], [-10113762.4562, 5937757.570100002], [-10113841.6583, 5937668.571400002], [-10113938.3545, 5937535.013300002], [-10114033.2067, 5937473.636], [-10114190.7666, 5937403.707400002], [-10114356.866, 5937397.971299998], [-10114550.7291, 5937452.512599997], [-10114688.227, 5937500.727600001], [-10114792.0954, 5937575.4706000015], [-10114946.7108, 5937758.2403], [-10115173.732, 5938023.641500004], [-10115399.1848, 5938300.322899997], [-10115632.6694, 5938602.926799998], [-10115919.4045, 5938846.9054000005], [-10116060.3902, 5938928.597099997], [-10116196.9875, 5938964.809600003], [-10116318.4224, 5939037.608999997], [-10116533.6611, 5939169.8006], [-10116745.7535, 5939340.732799999], [-10116897.2342, 5939511.045000002], [-10117025.355, 5939803.825599998], [-10117031.0411, 5939968.818300001], [-10117050.8996, 5940136.234999999], [-10117111.7901, 5940293.7333], [-10117146.9637, 5940459.208899997], [-10117137.3786, 5940635.4738000035], [-10117085.4749, 5940802.7971], [-10116994.0411, 5940974.337700002], [-10116840.9449, 5941174.284500003], [-10116715.8504, 5941275.391800001], [-10116519.5227, 5941391.351599999], [-10116385.957, 5941418.400899999], [-10116232.9599, 5941417.5375000015], [-10116065.6184, 5941387.425800003], [-10115857.0383, 5941316.855899997], [-10115694.5947, 5941235.498499997], [-10115611.7065, 5941094.922399998], [-10115575.5121, 5940923.243900001], [-10115556.4661, 5940545.232500002], [-10115525.222, 5940469.325300001], [-10115451.2813, 5940382.387100004], [-10115326.6226, 5940306.460900001]]], [[[-10104735.1754, 5897673.628899999], [-10104416.11, 5897282.414499998], [-10104147.7855, 5896884.229500003], [-10103979.8978, 5896660.713299997], [-10103802.0664, 5896361.284599997], [-10103618.7667, 5896011.5154], [-10103486.583, 5895677.707400002], [-10103373.498, 5895425.277999997], [-10103277.096, 5895249.569399998], [-10103156.9436, 5895073.670000002], [-10103090.6966, 5894947.3423999995], [-10102962.4925, 5894819.709200002], [-10102829.6424, 5894733.654100001], [-10102294.6862, 5893999.090300001], [-10102161.6627, 5893816.417499997], [-10102161.8496, 5893816.331500001], [-10102494.0545, 5893663.390100002], [-10102609.8948, 5893605.160999998], [-10102677.8396, 5893567.858999997], [-10102677.8764, 5893567.838799998], [-10102726.8902, 5893540.929499999], [-10102726.9383, 5893540.902999997], [-10102737.9261, 5893534.870700002], [-10102737.9733, 5893534.844700001], [-10102784.529, 5893509.284599997], [-10102784.6261, 5893509.231399998], [-10102862.8484, 5893466.284999996], [-10103266.8778, 5893287.281999998], [-10103304.3853, 5893335.2217999995], [-10103367.0512, 5893398.711099997], [-10103443.5487, 5893455.565300003], [-10103505.1659, 5893506.060099997], [-10103576.292, 5893598.4736], [-10103703.8226, 5893813.1862], [-10103873.3206, 5894062.550800003], [-10104022.3348, 5894173.340300001], [-10104251.3056, 5894293.136699997], [-10104534.9112, 5894832.4912], [-10104707.3441, 5895156.0397000015], [-10104836.0187, 5895407.956], [-10104943.1379, 5895627.500399999], [-10105105.6821, 5895898.556199998], [-10105191.6609, 5896025.188699998], [-10105276.1644, 5896128.090599999], [-10105568.7824, 5896393.4147000015], [-10105810.3436, 5896569.2348000035], [-10106309.3115, 5896847.427100003], [-10106629.4689, 5896989.198799998], [-10106805.667, 5897065.495499998], [-10106984.2154, 5897129.3759], [-10107317.3714, 5897248.9987], [-10107475.0396, 5897318.682599999], [-10107680.8758, 5897359.269699998], [-10107796.6908, 5897356.246600002], [-10107902.5478, 5897343.435800001], [-10107962.9227, 5897342.2070999965], [-10108116.1641, 5897333.888800003], [-10108240.1257, 5897324.008699998], [-10108336.9918, 5897307.011600003], [-10108409.3312, 5897293.9582], [-10108584.7573, 5897235.847199999], [-10108695.8721, 5897202.7817], [-10108816.8946, 5897180.667199999], [-10108911.1754, 5897178.475100003], [-10109010.6796, 5897208.160599999], [-10109111.3964, 5897236.604599997], [-10109190.1588, 5897273.869999997], [-10109281.3933, 5897333.113899998], [-10109358.1346, 5897412.157300003], [-10109447.3621, 5897514.408], [-10109496.0322, 5897606.742399998], [-10109569.3435, 5897727.2711], [-10109604.7641, 5897882.956900001], [-10109600.8435, 5897974.310999997], [-10109582.1428, 5898045.120099999], [-10109556.1205, 5898112.352600001], [-10109508.4697, 5898201.724399999], [-10109441.3813, 5898290.079099998], [-10109440.5716, 5898290.8191], [-10109338.3744, 5898384.2311], [-10109184.1376, 5898455.0141], [-10109074.5137, 5898508.3413999975], [-10108981.8235, 5898560.280299999], [-10108850.6916, 5898641.748599999], [-10108560.3148, 5898762.865800001], [-10108277.3906, 5898837.164800003], [-10108050.8394, 5898861.949500002], [-10107858.3669, 5898872.346500002], [-10107657.3606, 5898871.962300003], [-10107422.4635, 5898865.410899997], [-10107142.7396, 5898854.982699998], [-10106856.7419, 5898816.928999998], [-10106594.6381, 5898767.7971], [-10106364.7933, 5898703.8957], [-10106081.589, 5898611.5669], [-10105711.1722, 5898494.5951000005], [-10105571.7744, 5898440.093999997], [-10105371.2878, 5898319.394000001], [-10105158.442, 5898154.531999998], [-10105054.1671, 5898047.246299997], [-10104975.5869, 5897968.909900002], [-10104841.1322, 5897806.634099998], [-10104735.1754, 5897673.628899999]]], [[[-10087458.6167, 5939636.261600003], [-10087591.8127, 5939635.2223000005], [-10087714.0108, 5939700.2299000025], [-10087798.7485, 5939811.704400003], [-10087924.7152, 5939937.698200002], [-10088466.108, 5940540.606200002], [-10088642.3575, 5940848.364799999], [-10088714.897, 5941126.348899998], [-10088834.1348, 5941523.8596], [-10088945.1697, 5941729.2936], [-10089184.5886, 5942106.717100002], [-10089250.0425, 5942448.8950999975], [-10089238.8243, 5942673.9793], [-10089201.1132, 5942838.953900002], [-10089140.4314, 5942978.027500004], [-10089048.7529, 5943104.306199998], [-10088870.1926, 5943310.160999998], [-10088693.301, 5943493.653300002], [-10088540.3111, 5943624.930399999], [-10088334.6082, 5943650.943999998], [-10088204.0276, 5943746.272], [-10088116.8749, 5943797.3596], [-10088026.3842, 5943860.332800001], [-10087847.081, 5944026.672200002], [-10087672.0371, 5944119.4032000005], [-10087479.8328, 5944202.766000003], [-10087312.0671, 5944235.512400001], [-10087111.0745, 5944233.8488000035], [-10086988.0324, 5944228.353], [-10086577.3119, 5944140.549000002], [-10086271.0054, 5944085.387999997], [-10086117.2708, 5943981.125200003], [-10085881.6313, 5943789.621100001], [-10085667.0761, 5943543.827299997], [-10085356.3262, 5943197.364], [-10085161.5974, 5942857.9934], [-10085084.5111, 5942532.080700003], [-10085096.4891, 5942145.464599997], [-10085097.7551, 5941891.4903], [-10085149.9298, 5941672.058799997], [-10085303.1557, 5941420.126100004], [-10085541.9315, 5941180.247299999], [-10085657.898, 5941027.004600003], [-10085843.8359, 5940754.583800003], [-10086286.0597, 5940217.971900001], [-10086619.698, 5939974.194300003], [-10087023.4556, 5939796.516999997], [-10087261.6075, 5939679.021700002], [-10087458.6167, 5939636.261600003]]], [[[-10095558.0739, 5921822.370399997], [-10095809.7014, 5921818.906000003], [-10096032.4106, 5921834.710000001], [-10096121.0152, 5921844.077799998], [-10096453.714, 5921961.542800002], [-10096821.1034, 5922156.817599997], [-10096999.7998, 5922258.920999996], [-10097068.5457, 5922332.916000001], [-10097302.1964, 5922627.5502], [-10097449.3228, 5922771.236599997], [-10097549.789, 5922898.948700003], [-10097672.9277, 5923244.1603000015], [-10097729.7897, 5923434.755000003], [-10097725.1669, 5923619.617799997], [-10097679.0922, 5923796.0546], [-10097568.3026, 5924031.3728], [-10097462.1849, 5924189.0326000005], [-10097314.4784, 5924309.236699998], [-10097190.4829, 5924384.0945999995], [-10097024.8765, 5924546.8266], [-10096786.1253, 5924756.4604], [-10096649.1673, 5924842.211300001], [-10096549.9096, 5924863.031400003], [-10096389.9231, 5924904.329400003], [-10096257.1271, 5924927.934799999], [-10096100.9322, 5924976.6734], [-10095896.7835, 5925065.9384], [-10095784.4182, 5925119.140799999], [-10095657.336, 5925191.120399997], [-10095457.4713, 5925343.691], [-10095241.7939, 5925493.093500003], [-10095099.9093, 5925575.305200003], [-10094870.7365, 5925587.794500001], [-10094799.0774, 5925606.995899998], [-10094530.4498, 5925742.422200002], [-10094314.8504, 5925823.366999999], [-10094217.1755, 5925824.203900002], [-10094094.8323, 5925795.864100002], [-10093960.0314, 5925738.243199997], [-10093767.0216, 5925727.643700004], [-10093468.2497, 5925627.331200004], [-10093189.0808, 5925534.190300003], [-10093014.9341, 5925442.606200002], [-10092892.2727, 5925375.074100003], [-10092818.0793, 5925263.056699999], [-10092537.7927, 5924760.205899999], [-10092438.0343, 5924508.841799997], [-10092386.915, 5924246.5956000015], [-10092392.0899, 5923990.2233000025], [-10092424.6482, 5923806.863799997], [-10092501.0403, 5923625.582199998], [-10092746.3688, 5923269.574600004], [-10092958.1743, 5922982.201899998], [-10093267.1104, 5922687.035599999], [-10093710.1109, 5922440.714900002], [-10094163.2149, 5922247.654299997], [-10094635.5646, 5922044.706799999], [-10094987.5506, 5921910.693000004], [-10095117.4642, 5921856.630800001], [-10095279.5893, 5921831.059299998], [-10095558.0739, 5921822.370399997]]], [[[-10095399.1936, 5938816.879500002], [-10095515.4245, 5938707.6428999975], [-10095641.2509, 5938638.5198], [-10095723.8482, 5938614.278499998], [-10095839.3208, 5938634.8508], [-10095976.5959, 5938687.6027000025], [-10096121.5984, 5938744.909699999], [-10096230.8711, 5938759.3653], [-10096326.1479, 5938755.4441], [-10096431.8067, 5938708.267200001], [-10096595.727, 5938643.618199997], [-10096644.7024, 5938619.596299998], [-10096729.3984, 5938612.309199996], [-10096817.6417, 5938637.680799998], [-10096911.1929, 5938710.406000003], [-10097002.9425, 5938763.532200001], [-10097105.6407, 5938764.2544], [-10097222.0994, 5938738.608000003], [-10097360.7027, 5938652.873000003], [-10097477.1666, 5938629.083700001], [-10097618.2962, 5938645.696900003], [-10097781.1862, 5938740.112899996], [-10098002.0418, 5938973.759000003], [-10098117.7309, 5939044.220700003], [-10098360.6878, 5939335.555], [-10098504.3897, 5939682.640799999], [-10098587.5938, 5939954.1765], [-10098633.4079, 5940210.667099997], [-10098639.7548, 5940378.652599998], [-10098605.1123, 5940643.9507], [-10098544.5298, 5940874.8948], [-10098448.41, 5941085.219899997], [-10098209.1625, 5941526.831500001], [-10098112.1955, 5941791.188299999], [-10098052.8403, 5941962.0266999975], [-10097886.5886, 5942311.7236], [-10097821.1377, 5942496.545500003], [-10097653.7402, 5942895.364200003], [-10097522.4481, 5943158.098399997], [-10097387.5162, 5943340.818400003], [-10097205.5095, 5943587.650700003], [-10097016.5231, 5943764.485299997], [-10096849.3102, 5943890.170999996], [-10096643.8447, 5944000.2695999965], [-10096410.0232, 5944092.444499999], [-10096264.3829, 5944101.668200001], [-10095972.8246, 5944088.3440999985], [-10095682.8923, 5944079.761299998], [-10095404.0746, 5944074.248800002], [-10095081.9753, 5944008.746799998], [-10094833.1148, 5943986.5942], [-10094564.5369, 5943974.6554000005], [-10094414.2743, 5943947.440899998], [-10094223.6312, 5943814.4663999975], [-10094066.1551, 5943681.206600003], [-10093844.8099, 5943464.561099999], [-10093552.85, 5943235.276600003], [-10093336.2654, 5943056.072800003], [-10093180.264, 5942986.551200002], [-10093075.9744, 5942905.571900003], [-10092966.5559, 5942774.261200003], [-10092839.6241, 5942613.189400002], [-10092707.1818, 5942372.460199997], [-10092642.5007, 5942123.4538], [-10092601.9119, 5941948.0154], [-10092585.021, 5941799.061800003], [-10092607.672, 5941699.999700002], [-10092678.6258, 5941575.423600003], [-10092771.7612, 5941483.619000003], [-10092902.01, 5941396.728299998], [-10093010.9824, 5941366.080799997], [-10093134.9796, 5941266.457000002], [-10093355.3948, 5941128.463799998], [-10093524.5397, 5941017.501999997], [-10093671.2952, 5940875.530100003], [-10093902.6996, 5940644.230999999], [-10094221.0444, 5940393.467600003], [-10094405.6869, 5940219.318700001], [-10094610.4247, 5940037.133699998], [-10094845.8523, 5939817.354599997], [-10095037.0348, 5939552.893100001], [-10095237.3137, 5939175.437200002], [-10095317.6245, 5939012.396499999], [-10095341.5309, 5938924.060800001], [-10095399.1936, 5938816.879500002]]], [[[-10090520.7853, 5950146.428000003], [-10090653.1491, 5949910.500299998], [-10090804.2908, 5949680.685500003], [-10091068.0072, 5949407.494900003], [-10091155.8371, 5949332.426399998], [-10091345.4902, 5949170.7294000015], [-10091633.2423, 5948927.329000004], [-10091919.7412, 5948733.460100003], [-10092189.5003, 5948624.4760000035], [-10092454.8286, 5948554.7773], [-10092605.2094, 5948479.451499999], [-10092719.5215, 5948409.364200003], [-10092776.2647, 5948324.946500003], [-10092787.9657, 5948153.676100001], [-10092783.259, 5947817.016099997], [-10092827.9389, 5947680.439199999], [-10092890.5208, 5947532.2271], [-10092928.5843, 5947387.505199999], [-10092965.0786, 5947251.003300004], [-10092996.8557, 5947137.515000001], [-10093193.9013, 5946706.679899998], [-10093400.0016, 5946382.652599998], [-10093546.49, 5946149.111500002], [-10093584.4118, 5946003.196800001], [-10093658.9646, 5945705.3423999995], [-10093664.1477, 5945548.721500002], [-10093615.7717, 5945405.606200002], [-10093596.9048, 5945289.968500003], [-10093551.9491, 5945166.399099998], [-10093498.066, 5944948.314900003], [-10093492.614, 5944779.521600001], [-10093573.9502, 5944681.7601], [-10093681.0785, 5944652.299900003], [-10093822.4105, 5944627.441299997], [-10093930.1158, 5944570.239100002], [-10094010.0675, 5944501.852799997], [-10094069.1679, 5944468.719800003], [-10094240.4729, 5944432.607199997], [-10094367.9253, 5944446.1543999985], [-10094431.2184, 5944449.677699998], [-10094573.5198, 5944492.373899996], [-10094761.0038, 5944556.7064], [-10094916.2343, 5944646.193000004], [-10095190.7834, 5944749.8609], [-10095524.7637, 5944873.625399999], [-10095723.7181, 5944907.234700002], [-10095919.9729, 5944998.700300001], [-10096094.0555, 5945119.275799997], [-10096152.5421, 5945211.9463], [-10096277.4439, 5945570.7399], [-10096423.914, 5945829.737999998], [-10096538.3484, 5946089.024099998], [-10096568.2685, 5946333.622100003], [-10096525.8527, 5946600.053000003], [-10096509.2732, 5946896.717299998], [-10096485.7121, 5947090.373899996], [-10096414.3081, 5947308.357500002], [-10096407.1947, 5947588.1118], [-10096420.2924, 5947954.803900003], [-10096412.6832, 5948174.797799997], [-10096382.0157, 5948302.564300001], [-10096316.6637, 5948462.512500003], [-10096211.2307, 5948714.694600001], [-10096123.7355, 5949039.650799997], [-10096060.5924, 5949249.979800001], [-10095943.0757, 5949569.642700002], [-10095805.924, 5949789.5244999975], [-10095628.9306, 5949971.724100001], [-10095452.7428, 5950065.1721], [-10095191.461, 5950111.232699998], [-10095018.1715, 5950115.894100003], [-10094762.9097, 5950116.5189], [-10094527.9284, 5950093.260899998], [-10094247.296, 5950075.127899997], [-10093996.5073, 5950045.6708], [-10093703.4507, 5949991.490599997], [-10093493.8978, 5949993.2700999975], [-10093306.4561, 5950001.1778], [-10093139.8014, 5950045.248000003], [-10092998.5399, 5950111.222099997], [-10092856.0836, 5950223.027800001], [-10092749.9427, 5950344.008500002], [-10092650.3536, 5950513.888899997], [-10092513.0174, 5950814.395999998], [-10092449.0592, 5951059.1504999995], [-10092417.8431, 5951170.891800001], [-10092337.0449, 5951251.690300003], [-10092249.7185, 5951301.1219], [-10092113.7087, 5951336.818499997], [-10091918.3474, 5951395.001100004], [-10091710.4245, 5951450.141500004], [-10091494.0323, 5951530.521300003], [-10091213.2788, 5951685.2321000025], [-10091052.5634, 5951766.68], [-10090928.9858, 5951791.259999998], [-10090800.4521, 5951784.455899999], [-10090696.986, 5951777.445299998], [-10090533.2987, 5951686.082699999], [-10090416.2342, 5951547.205700003], [-10090332.8436, 5951328.7195999995], [-10090296.5612, 5950909.549199998], [-10090333.5221, 5950545.6426], [-10090520.7853, 5950146.428000003]]], [[[-10093202.726, 5933130.145900004], [-10093386.599, 5933128.590800002], [-10093524.4832, 5933170.810099997], [-10093724.8375, 5933310.477399997], [-10093842.5266, 5933425.739200003], [-10093978.3008, 5933461.870399997], [-10094146.5679, 5933492.118900001], [-10094217.2873, 5933561.068999998], [-10094278.9838, 5933656.373400003], [-10094331.514, 5933922.457999997], [-10094421.177, 5934103.791199997], [-10094478.8115, 5934185.652900003], [-10094662.4911, 5934409.234899998], [-10094777.4462, 5934633.411799997], [-10094801.4755, 5934879.556699999], [-10094775.7243, 5935073.752400003], [-10094719.5109, 5935268.2148], [-10094639.5469, 5935372.569499999], [-10094204.6677, 5936111.581799999], [-10093953.4119, 5936663.4868], [-10093877.3363, 5936803.4991], [-10093702.1264, 5936977.622100003], [-10093523.5192, 5937107.857799999], [-10093444.985, 5937191.303900003], [-10093409.5239, 5937270.0918999985], [-10093371.2804, 5937376.073200002], [-10093330.1273, 5937494.1554000005], [-10093234.813, 5937615.7157000005], [-10093133.3238, 5937719.215300001], [-10092957.5876, 5937847.416000001], [-10092875.064, 5937854.132799998], [-10092741.8209, 5937900.421300001], [-10092596.9918, 5937997.9969], [-10092492.9348, 5938123.8379999995], [-10092421.4179, 5938190.685800001], [-10092324.5386, 5938277.319300003], [-10092201.3797, 5938396.9086000025], [-10092029.6817, 5938635.548299998], [-10091936.7154, 5938799.969700001], [-10091817.7689, 5938941.998499997], [-10091581.9931, 5939135.569399998], [-10091378.4485, 5939255.516099997], [-10091228.0753, 5939319.450000003], [-10090934.3688, 5939432.279200003], [-10090655.3409, 5939521.1054000035], [-10090495.1987, 5939591.050399996], [-10090174.9546, 5939736.902099997], [-10089874.8621, 5939799.017099999], [-10089535.1779, 5939788.378399998], [-10089160.2394, 5939657.4758], [-10088883.229, 5939525.780699998], [-10088712.41, 5939312.8967999965], [-10088594.5607, 5939043.0612], [-10088487.1594, 5938591.654600002], [-10088464.8147, 5938106.844400004], [-10088503.6843, 5937783.201200001], [-10088540.5037, 5937575.269199997], [-10088583.3068, 5937376.192900002], [-10088726.062, 5937099.209100001], [-10088884.192, 5936818.253600001], [-10089086.2906, 5936567.502099998], [-10089244.6057, 5936391.249499999], [-10089379.208, 5936209.2557], [-10089714.0491, 5935918.887699999], [-10089917.127, 5935795.656900004], [-10090052.6599, 5935732.282700002], [-10090220.816, 5935680.504799999], [-10090373.7972, 5935625.835500002], [-10090500.2898, 5935557.174199998], [-10090606.4369, 5935395.242399998], [-10090659.4215, 5935176.7491], [-10090757.3411, 5934940.938299999], [-10090877.151, 5934762.2368], [-10091175.2385, 5934522.835600004], [-10091359.2769, 5934405.963100001], [-10091809.9427, 5934053.318099998], [-10092776.5423, 5933352.226499997], [-10093057.5467, 5933139.118900001], [-10093202.726, 5933130.145900004]]], [[[-10081328.1961, 5940713.0207], [-10081556.0303, 5940711.400300004], [-10081700.232, 5940713.941600002], [-10081851.9091, 5940766.406999998], [-10081950.036, 5940797.833999999], [-10082061.4517, 5940945.191200003], [-10082096.7632, 5941153.789300002], [-10082150.2357, 5941415.6259], [-10082062.2445, 5941770.4673999995], [-10082066.8237, 5941914.614], [-10082062.1466, 5942005.428499997], [-10082047.2003, 5942149.719400004], [-10082064.952, 5942316.2073], [-10082164.6935, 5942650.949299999], [-10082290.6873, 5942942.913400002], [-10082411.3439, 5943273.225699998], [-10082521.1782, 5943575.0867], [-10082573.0673, 5943918.0864999965], [-10082619.322, 5944288.512599997], [-10082636.7503, 5944509.002099998], [-10082685.5289, 5944683.380199999], [-10082800.0414, 5944980.461000003], [-10082822.9437, 5945235.480899997], [-10082838.56, 5945696.4811], [-10082818.0339, 5945993.1017], [-10082866.2477, 5946126.126800001], [-10082958.0866, 5946241.286499999], [-10083051.1437, 5946282.727600001], [-10083218.1374, 5946383.297799997], [-10083325.811, 5946508.871299997], [-10083379.1461, 5946699.049800001], [-10083408.9924, 5946963.0757], [-10083442.1648, 5947204.334100001], [-10083448.3355, 5947571.804300003], [-10083414.1322, 5947730.324699998], [-10083328.7405, 5947952.571099997], [-10083241.5409, 5948166.110200003], [-10083178.0665, 5948292.2228000015], [-10082883.7583, 5948632.112599999], [-10082276.4481, 5949122.009300001], [-10082058.6339, 5949240.169799998], [-10081894.0148, 5949274.4146], [-10081585.8185, 5949374.069600001], [-10081410.7338, 5949401.419699997], [-10081179.9209, 5949401.317100003], [-10081039.077, 5949362.288099997], [-10080845.8889, 5949253.047600001], [-10080622.3124, 5948952.714000002], [-10080550.6391, 5948599.270999998], [-10080526.311, 5948335.726599999], [-10080532.1194, 5948176.0726], [-10080688.2327, 5947905.531900004], [-10080924.5473, 5947668.665299997], [-10081014.657, 5947519.707999997], [-10081018.7024, 5947361.012900002], [-10080990.097, 5947206.000500001], [-10080875.2054, 5947008.485600002], [-10080779.8263, 5946895.3376], [-10080518.0013, 5946738.7676], [-10080140.0976, 5946482.533], [-10079796.5, 5946239.767099999], [-10079614.1279, 5946071.3112], [-10079445.8428, 5945765.6822], [-10079270.6863, 5945575.455600001], [-10079145.7199, 5945495.981399998], [-10078974.4944, 5945380.930100001], [-10078885.0344, 5945258.482799999], [-10078849.6396, 5945065.5951000005], [-10078873.5679, 5944766.911499999], [-10078859.7334, 5944480.733000003], [-10078806.2281, 5944358.412199996], [-10078735.2258, 5944161.239100002], [-10078730.9405, 5944030.067599997], [-10078784.7998, 5943842.322899997], [-10078884.7585, 5943636.681500003], [-10078900.2713, 5943433.314300001], [-10078850.0375, 5943249.0317], [-10078818.4308, 5943071.401100002], [-10078875.4324, 5942868.017099999], [-10079000.6961, 5942538.4943], [-10079143.0858, 5942242.865999997], [-10079389.9616, 5942005.455200002], [-10079577.0885, 5941871.157399997], [-10079804.8281, 5941724.996299997], [-10080061.1206, 5941506.669500001], [-10080360.1518, 5941177.2544], [-10080455.1761, 5941121.196800001], [-10080588.8496, 5941086.688500002], [-10080779.9842, 5941072.414899997], [-10080953.2367, 5941026.005400002], [-10081034.3325, 5940928.3618], [-10081153.6345, 5940805.343900003], [-10081217.9185, 5940748.863200001], [-10081328.1961, 5940713.0207]]], [[[-10101343.1949, 5941904.337399997], [-10101349.0859, 5941744.428499997], [-10101402.6868, 5941635.878399998], [-10101492.7132, 5941476.664899997], [-10101590.3192, 5941396.8583], [-10101731.7338, 5941322.792800002], [-10101875.1546, 5941305.113300003], [-10102052.7712, 5941303.436399996], [-10102210.127, 5941350.932599999], [-10102346.3853, 5941398.4485], [-10102441.4493, 5941403.501400001], [-10102518.8398, 5941423.608900003], [-10102772.0265, 5941351.227600001], [-10102939.6324, 5941334.740900002], [-10103097.0162, 5941336.2136999965], [-10103320.4694, 5941415.953900002], [-10103524.1831, 5941528.416599996], [-10103668.4946, 5941627.362199999], [-10103800.6764, 5941706.9553999975], [-10103892.082, 5941739.019199997], [-10103987.7667, 5941750.074699998], [-10104134.0931, 5941747.1611], [-10104265.4869, 5941744.389700003], [-10104391.0377, 5941755.151299998], [-10104466.0487, 5941790.363700002], [-10104595.7028, 5941916.3961], [-10104800.4915, 5942089.619099997], [-10104973.7182, 5942285.7377], [-10105045.398, 5942417.217299998], [-10105125.271, 5942620.718800001], [-10105204.1478, 5942875.306699999], [-10105290.1665, 5943093.7786], [-10105322.8218, 5943269.230599999], [-10105341.0972, 5943448.3407000005], [-10105383.6174, 5943648.309600003], [-10105502.2328, 5944100.6664], [-10105546.0448, 5944319.0429000035], [-10105554.7137, 5944432.632100001], [-10105563.9022, 5944599.266999997], [-10105567.4014, 5944802.338399999], [-10105603.7367, 5944962.6494999975], [-10105625.0329, 5945130.690800004], [-10105658.2435, 5945280.427699998], [-10105761.2485, 5945384.751100004], [-10105886.4113, 5945506.3028], [-10105950.9289, 5945570.491499998], [-10105968.2661, 5945616.8994999975], [-10106020.916, 5945801.322099999], [-10106026.6639, 5945953.345200002], [-10105996.3321, 5946183.9021999985], [-10105900.4943, 5946383.842600003], [-10105796.7374, 5946526.136200003], [-10105714.8494, 5946583.967799999], [-10105598.844, 5946642.135300003], [-10105431.8291, 5946717.9108000025], [-10105334.6203, 5946808.680200003], [-10105166.2153, 5947034.159000002], [-10104963.2904, 5947295.2739999965], [-10104797.5827, 5947461.813900001], [-10104599.6169, 5947694.638300002], [-10104355.4211, 5947880.585500002], [-10104092.8171, 5948086.786899999], [-10103810.9747, 5948303.693099998], [-10103575.616, 5948442.6149], [-10103406.7733, 5948487.392200001], [-10102970.7253, 5948491.569499999], [-10102831.4929, 5948420.0315999985], [-10102612.1282, 5948195.623000003], [-10102335.1363, 5947763.9553999975], [-10102135.2314, 5947525.681900002], [-10102012.5966, 5947372.0383], [-10101826.009, 5947123.2597], [-10101729.4746, 5947012.446800001], [-10101621.6939, 5946936.561899997], [-10101508.5339, 5946904.254100002], [-10101395.4963, 5946885.001900002], [-10101242.7355, 5946795.026100002], [-10101127.2886, 5946677.273699999], [-10101078.0963, 5946536.586800002], [-10101082.2928, 5946363.391500004], [-10101089.9448, 5946249.824699998], [-10100739.4726, 5945776.754299998], [-10100503.2973, 5945330.991599999], [-10100394.2945, 5945148.7535], [-10100281.755, 5944875.540899999], [-10100224.1814, 5944644.861699998], [-10100200.5335, 5944453.383900002], [-10100239.3455, 5944150.067500003], [-10100362.1168, 5943814.334899999], [-10100540.2706, 5943414.259400003], [-10100748.0522, 5943104.287299998], [-10101024.9413, 5942679.695799999], [-10101178.3202, 5942554.284900002], [-10101248.4402, 5942497.544200003], [-10101289.952, 5942371.7042], [-10101342.7549, 5942194.104999997], [-10101343.1949, 5941904.337399997]]], [[[-10103252.4274, 5913879.441799998], [-10103451.2333, 5913870.324600004], [-10103648.0794, 5913906.878899999], [-10103811.4742, 5913953.363799997], [-10103984.7091, 5914026.184299998], [-10104132.26, 5914168.939999998], [-10104249.2383, 5914358.971900001], [-10104302.4746, 5914550.217299998], [-10104304.9527, 5914683.230599999], [-10104295.5609, 5914824.7509], [-10104223.2965, 5915034.393299997], [-10104163.573, 5915270.187100001], [-10104162.0278, 5915479.929700002], [-10104191.6866, 5915721.550099999], [-10104177.2568, 5915827.490400001], [-10104151.8724, 5915890.527500004], [-10104077.4525, 5916014.462399997], [-10103996.0449, 5916149.128700003], [-10103886.9966, 5916412.502099998], [-10103866.4799, 5916706.063199997], [-10103861.6187, 5916931.5295], [-10103826.4535, 5917171.383599997], [-10103725.4961, 5917622.120099999], [-10103677.5655, 5917737.314499997], [-10103528.6132, 5918066.338600002], [-10103444.6644, 5918243.550300002], [-10103307.9431, 5918470.016199999], [-10103106.2998, 5918767.241499998], [-10102953.7058, 5918988.6613000035], [-10102921.4832, 5919123.223099999], [-10102886.3436, 5919289.236000001], [-10102801.2684, 5919513.256999999], [-10102701.3456, 5919850.924900003], [-10102657.4273, 5920050.108900003], [-10102598.2382, 5920205.614399999], [-10102559.1809, 5920311.577500001], [-10102505.1686, 5920409.649599999], [-10102400.3796, 5920544.2914], [-10102265.2489, 5920689.295000002], [-10102087.15, 5920862.081600003], [-10101981.5824, 5921006.806299999], [-10101861.2225, 5921253.5326000005], [-10101791.5879, 5921326.9826000035], [-10101697.1923, 5921421.139300004], [-10101566.6079, 5921527.010200001], [-10101417.937, 5921639.874899998], [-10101271.5095, 5921750.442299999], [-10101169.0797, 5921889.2971], [-10101005.6309, 5922070.021499999], [-10100836.9171, 5922171.402000003], [-10100676.7438, 5922218.259800002], [-10100337.7968, 5922257.697899997], [-10100057.0734, 5922233.071199998], [-10099827.8775, 5922153.520999998], [-10099638.8813, 5922016.888599999], [-10099486.3481, 5921909.407899998], [-10099169.7965, 5921741.953599997], [-10098974.0749, 5921546.978299998], [-10098766.8828, 5921329.491700001], [-10098616.1771, 5921122.801600002], [-10098491.0506, 5920857.248800002], [-10098397.8785, 5920497.333499998], [-10098365.3732, 5920132.374799997], [-10098384.7714, 5919711.5722], [-10098430.5093, 5919562.798699997], [-10098473.9435, 5919407.305], [-10098599.3549, 5919145.426200002], [-10098820.8103, 5918662.976999998], [-10099205.8746, 5917998.382100001], [-10099595.9522, 5917328.293200001], [-10099863.8776, 5916903.582699999], [-10100125.2177, 5916492.3488000035], [-10100439.7131, 5916017.495399997], [-10100691.5382, 5915627.613499999], [-10100907.4503, 5915398.298299998], [-10101267.315, 5915057.5304000005], [-10101476.168, 5914877.560099997], [-10101724.0908, 5914658.303800002], [-10101977.0114, 5914460.6906], [-10102194.7338, 5914354.993699998], [-10102433.58, 5914196.069200002], [-10102932.242, 5913976.223200001], [-10103252.4274, 5913879.441799998]]], [[[-10073583.7698, 5920538.0396], [-10074110.649, 5920507.9636999965], [-10074425.3829, 5920527.313600004], [-10074575.4697, 5920536.468900003], [-10074693.1599, 5920557.055100001], [-10074773.9469, 5920584.610600002], [-10075304.565, 5920816.111599997], [-10075965.2438, 5921119.816600002], [-10076087.4473, 5921132.511299998], [-10076282.7377, 5921135.689099997], [-10076473.721, 5921158.917300001], [-10076635.874, 5921184.556100003], [-10076747.1679, 5921237.2293], [-10076854.3459, 5921338.883100003], [-10076952.972, 5921489.548799999], [-10077052.1423, 5921722.549199998], [-10077075.5325, 5921904.872500002], [-10077054.3802, 5922063.014799997], [-10076979.6703, 5922294.1061], [-10076865.6576, 5922454.624600001], [-10076711.7098, 5922599.8741], [-10076560.0129, 5922751.765600003], [-10076304.1635, 5922882.146600001], [-10076059.3998, 5923016.888300002], [-10075876.2898, 5923167.7007], [-10075777.2566, 5923208.170199998], [-10075636.385, 5923262.185199998], [-10075381.2559, 5923392.1657000035], [-10075203.0236, 5923470.754900001], [-10075101.9739, 5923542.2097999975], [-10074940.1912, 5923780.012100004], [-10074769.2655, 5923969.192599997], [-10074604.7854, 5924131.7776999995], [-10074471.4848, 5924244.308399998], [-10074225.9819, 5924393.691799998], [-10074034.8326, 5924439.023000002], [-10073821.4039, 5924440.358999997], [-10073581.6811, 5924459.505500004], [-10073370.4932, 5924467.436499998], [-10073205.5315, 5924496.068300001], [-10073017.8396, 5924567.422600001], [-10072485.8501, 5924860.249499999], [-10072228.1163, 5924927.629199997], [-10071883.3744, 5925078.890000001], [-10071468.9947, 5925294.177599996], [-10071116.9539, 5925503.5424000025], [-10070769.3173, 5925739.663099997], [-10070386.4663, 5925925.668300003], [-10069921.1325, 5926186.519199997], [-10069458.2268, 5926429.091499999], [-10069222.9173, 5926621.836599998], [-10069108.7339, 5926757.338399999], [-10069005.4659, 5926905.828400001], [-10068897.758, 5927036.944600001], [-10068735.7796, 5927210.2820999995], [-10068514.0251, 5927389.375500001], [-10068322.1396, 5927496.7277000025], [-10068073.8497, 5927574.0293999985], [-10067862.0097, 5927594.731700003], [-10067660.887, 5927598.018799998], [-10067452.9782, 5927547.118199997], [-10067322.6802, 5927450.240699999], [-10067228.8661, 5927301.111400001], [-10067167.0226, 5926861.326099999], [-10067176.5406, 5926629.909500003], [-10067246.8079, 5926467.3554000035], [-10067368.2739, 5926205.061999999], [-10067460.0234, 5926029.422700003], [-10067592.6804, 5925883.589599997], [-10067752.9188, 5925703.7744999975], [-10068035.7316, 5925146.042199999], [-10068150.5688, 5924923.3781], [-10068257.2235, 5924776.2053999975], [-10068467.4619, 5924474.342200004], [-10068727.196, 5924167.705300003], [-10068955.4009, 5923972.997299999], [-10069106.8541, 5923849.641999997], [-10069403.8187, 5923567.222900003], [-10069611.4429, 5923325.264899999], [-10069753.9752, 5923135.2754999995], [-10069861.2949, 5922973.436099999], [-10070000.3463, 5922771.310000002], [-10070206.4774, 5922567.577399999], [-10070348.9857, 5922449.942599997], [-10070483.5542, 5922437.366499998], [-10070596.6386, 5922405.626599997], [-10070748.0883, 5922344.655100003], [-10070822.0024, 5922230.966799997], [-10070854.2327, 5922095.089400001], [-10070908.9037, 5921970.833300002], [-10070975.1978, 5921830.484300002], [-10071130.4534, 5921652.577200003], [-10071363.8882, 5921429.624899998], [-10071521.4127, 5921324.413599998], [-10071831.78, 5921155.807899997], [-10072068.1035, 5921030.2522], [-10072536.7135, 5920843.642499998], [-10072981.8481, 5920688.994400002], [-10073227.1561, 5920614.57], [-10073583.7698, 5920538.0396]]], [[[-10115956.1882, 5934668.594899997], [-10115957.4793, 5934077.6521999985], [-10116534.8233, 5934093.796400003], [-10116536.0759, 5933502.891500004], [-10117113.3835, 5933518.996699996], [-10117116.5499, 5932922.188000001], [-10117119.6362, 5932340.428999998], [-10117186.4773, 5932340.688000001], [-10117253.3183, 5932340.946199998], [-10117297.8789, 5932341.118199997], [-10117387.0005, 5932341.461400002], [-10117431.5611, 5932341.632700004], [-10117476.1218, 5932341.803800002], [-10117565.2432, 5932342.145199999], [-10117709.1743, 5932342.694600001], [-10118290.3728, 5932344.8895], [-10118847.9226, 5932346.959100001], [-10119405.4728, 5932348.9934], [-10119434.1342, 5931759.2184000015], [-10119430.8437, 5931169.238499999], [-10120016.8088, 5931155.5929000005], [-10120016.2742, 5930550.809699997], [-10120015.7395, 5929946.067699999], [-10120595.8582, 5929948.901000001], [-10121756.0967, 5929954.452799998], [-10122356.9298, 5929968.2880000025], [-10122367.9954, 5930550.845299996], [-10122970.6886, 5930567.233199999], [-10122957.8263, 5929982.083300002], [-10124159.8004, 5930009.554300003], [-10124176.3533, 5930599.8917], [-10124761.275, 5930602.974699996], [-10124777.8729, 5931189.6919], [-10125362.8375, 5931189.076899998], [-10125365.6887, 5931779.079999998], [-10125600.9574, 5931778.823600002], [-10125950.692, 5931778.430699997], [-10126535.6952, 5931777.7425], [-10127092.6178, 5931779.887199998], [-10127091.8789, 5931632.915399998], [-10127089.6517, 5931189.875], [-10127079.3558, 5930611.747500002], [-10127642.6689, 5930611.4684000015], [-10127634.9331, 5929450.5493], [-10127631.066, 5928870.146399997], [-10128213.655, 5928862.6642], [-10128206.37, 5928272.370200001], [-10128795.7274, 5928265.031499997], [-10128795.2118, 5927674.958400004], [-10129947.5795, 5927670.057899997], [-10131099.9459, 5927665.006899998], [-10131096.6339, 5927352.036700003], [-10131677.1327, 5927353.387100004], [-10131675.4293, 5927058.5254999995], [-10132257.3454, 5927059.840800002], [-10132256.755, 5926452.060800001], [-10132841.5916, 5926453.344300002], [-10132837.7468, 5925867.2924000025], [-10133423.6694, 5925866.7346], [-10133416.7735, 5924397.268399999], [-10133415.3946, 5924103.404100001], [-10133419.513, 5923808.813699998], [-10134007.3516, 5923808.1445999965], [-10134010.7424, 5923507.4755000025], [-10134304.7191, 5923503.328299999], [-10134318.148, 5922432.341499999], [-10134784.2472, 5922409.721199997], [-10134803.5392, 5922417.305], [-10134872.1148, 5922487.4614999965], [-10134893.0906, 5922466.828400001], [-10134893.1088, 5922402.199500002], [-10134959.7972, 5922398.960199997], [-10135050.1149, 5922423.629699998], [-10135138.0637, 5922399.239500001], [-10135538.1931, 5922379.7852], [-10135582.8675, 5922382.0823], [-10135787.3079, 5922372.134499997], [-10135780.953, 5922911.7399], [-10136084.6955, 5923463.3926], [-10135918.8078, 5923573.684100002], [-10135542.964, 5923876.4036], [-10135250.0565, 5924153.041199997], [-10134978.8575, 5924466.160499997], [-10134841.5476, 5924683.817400001], [-10134777.4491, 5924864.896200001], [-10134708.4932, 5925350.815200001], [-10134665.6316, 5925776.372400001], [-10134613.4715, 5926152.4397], [-10134561.2816, 5926367.432499997], [-10134477.8725, 5926532.408500001], [-10134424.4618, 5926636.266500004], [-10134356.2939, 5926718.550099999], [-10134282.2012, 5926779.481700003], [-10134186.4351, 5926868.248899996], [-10134121.7099, 5926932.650799997], [-10134046.8628, 5927003.029200003], [-10133988.4062, 5927045.433399998], [-10133936.7926, 5927079.842100002], [-10133905.5852, 5927096.867399998], [-10133870.2519, 5927104.205200002], [-10133794.0504, 5927132.7051], [-10133726.6561, 5927179.426600002], [-10133673.8018, 5927207.7918], [-10133573.4445, 5927245.956900001], [-10133522.2903, 5927276.288999997], [-10133478.7898, 5927309.218000002], [-10133420.429, 5927371.5568], [-10133356.6241, 5927419.881200001], [-10133300.45, 5927469.119400002], [-10133206.3803, 5927589.355899997], [-10133120.2931, 5927674.517800003], [-10133035.2615, 5927726.563600004], [-10132932.1894, 5927796.1413], [-10132851.3128, 5927907.494400002], [-10132727.8073, 5928018.515100002], [-10132635.4747, 5928094.243900001], [-10132566.1285, 5928125.509800002], [-10132431.2302, 5928174.328000002], [-10132330.1326, 5928234.256300002], [-10132228.0684, 5928287.9782000035], [-10132150.7108, 5928334.275300004], [-10132051.4984, 5928385.1351], [-10131975.3754, 5928405.628799997], [-10131838.9131, 5928425.432599999], [-10131736.7692, 5928465.773500003], [-10131637.2094, 5928608.7228000015], [-10131554.7448, 5928681.376000002], [-10131441.7206, 5928751.1401999965], [-10131358.2807, 5928775.0293999985], [-10131231.3022, 5928824.406400003], [-10131152.9031, 5928852.9582], [-10131049.7292, 5928895.572899997], [-10130973.952, 5928938.723200001], [-10130895.7401, 5928979.493699998], [-10130815.6408, 5929013.658399999], [-10130734.8897, 5929035.031099997], [-10130658.094, 5929045.081299998], [-10130588.7144, 5929045.205899999], [-10130513.9804, 5929039.347499996], [-10130474.7044, 5929034.551799998], [-10130428.8519, 5929046.4767], [-10130349.1062, 5929061.855300002], [-10130299.4063, 5929065.7897000015], [-10130214.2522, 5929063.597400002], [-10130145.961, 5929057.016000003], [-10130088.2295, 5929041.4602999985], [-10130024.531, 5929031.097400002], [-10129992.4048, 5929034.228600003], [-10129945.3929, 5929068.054399997], [-10129764.0888, 5929249.620399997], [-10129672.6824, 5929371.626500003], [-10129441.6147, 5929625.300800003], [-10129293.1283, 5929793.931100003], [-10129163.074, 5929937.440499999], [-10129051.2257, 5930048.433799997], [-10129008.6144, 5930075.051200002], [-10128949.5276, 5930124.871399999], [-10128887.5435, 5930199.681000002], [-10128822.4286, 5930310.848099999], [-10128785.1033, 5930398.421899997], [-10128733.1781, 5930481.989399999], [-10128686.8107, 5930550.891999997], [-10128614.891, 5930664.011600003], [-10128548.3195, 5930738.5276999995], [-10128457.0284, 5930906.007100001], [-10128415.3157, 5930993.564599998], [-10128395.9682, 5931086.284500003], [-10128356.6541, 5931270.525600001], [-10128283.0101, 5931476.917300001], [-10128190.2908, 5931754.303099997], [-10128053.1974, 5932113.668700002], [-10127968.0259, 5932271.980499998], [-10127829.3009, 5932485.615999997], [-10127755.5313, 5932660.543899998], [-10127599.0783, 5932901.860399999], [-10127467.8819, 5933024.6087], [-10127401.9752, 5933063.424500003], [-10127380.2453, 5933084.827200003], [-10127342.7113, 5933125.262000002], [-10127250.735, 5933200.412299998], [-10127183.2279, 5933253.116300002], [-10127118.7933, 5933288.491300002], [-10127065.6202, 5933304.789499998], [-10126891.4051, 5933427.968199998], [-10126857.134, 5933445.680200003], [-10126784.6755, 5933474.976300001], [-10126709.549, 5933493.981299996], [-10126640.8072, 5933508.386399999], [-10126566.2299, 5933519.633199997], [-10126482.5427, 5933523.240099996], [-10126393.7325, 5933515.581100002], [-10126309.9712, 5933515.468699999], [-10126227.9694, 5933520.441799998], [-10126186.6614, 5933520.9454], [-10126110.5745, 5933500.306699999], [-10125966.3599, 5933447.125600003], [-10125898.2124, 5933421.2535], [-10125821.0454, 5933383.411600001], [-10125759.7184, 5933344.7412], [-10125692.5414, 5933294.062799998], [-10125639.3941, 5933237.534699999], [-10125598.3944, 5933177.694700003], [-10125563.2655, 5933109.805699997], [-10125538.8541, 5933064.7249], [-10125468.5007, 5933019.7700999975], [-10125397.0966, 5932964.776600003], [-10125321.2584, 5932911.512199998], [-10125276.9917, 5932889.704400003], [-10125241.1194, 5932871.146600001], [-10125190.4138, 5932828.2673999965], [-10125160.3081, 5932795.332500003], [-10125133.3237, 5932767.617700003], [-10124976.9719, 5932694.220299996], [-10124908.941, 5932653.322499998], [-10125606.2394, 5932614.907499999], [-10125555.286, 5932569.881499998], [-10124811.0267, 5932569.103799999], [-10124775.7111, 5932562.657799996], [-10124724.4051, 5932569.655000001], [-10124635.1484, 5932586.297899999], [-10124597.1643, 5932594.1445999965], [-10124544.9755, 5932595.387000002], [-10124487.8448, 5932594.2250000015], [-10124415.3182, 5932589.552100003], [-10124329.7866, 5932575.795999996], [-10124234.2495, 5932553.667099997], [-10124142.8819, 5932517.6647000015], [-10124030.5079, 5932464.910400003], [-10124000.1993, 5932443.633699998], [-10123912.1918, 5932365.8576000035], [-10123823.5435, 5932298.9081000015], [-10123784.5769, 5932262.278300002], [-10123762.103, 5932251.726999998], [-10123724.9069, 5932234.395900004], [-10123638.7025, 5932222.405500002], [-10123609.5974, 5932207.060900003], [-10123538.04, 5932170.349299997], [-10123473.7742, 5932148.765799999], [-10123387.5604, 5932115.555699997], [-10123588.9036, 5931598.603100002], [-10123588.6871, 5931192.089299999], [-10122984.4654, 5931193.869000003], [-10122746.0978, 5931194.559600003], [-10122490.097, 5931697.6954], [-10122458.6332, 5931678.258199997], [-10122406.7725, 5931642.938699998], [-10122338.4261, 5931611.958499998], [-10122261.5443, 5931586.9749], [-10122210.1083, 5931575.440099999], [-10122178.3557, 5931571.188600004], [-10122113.4215, 5931539.002899997], [-10122049.6672, 5931509.115400001], [-10121971.7002, 5931496.156300001], [-10121904.711, 5931485.380099997], [-10121818.1261, 5931458.984300002], [-10121785.5327, 5931443.6206], [-10121770.7688, 5930869.668099999], [-10121765.3942, 5930534.418499999], [-10120599.3148, 5930545.384599999], [-10120602.772, 5931141.908200003], [-10120615.3227, 5931153.156499997], [-10121069.0174, 5931598.883599997], [-10121043.1887, 5931620.597999997], [-10121017.3044, 5931640.538599998], [-10120996.6371, 5931665.9318], [-10120982.9206, 5931716.252099998], [-10120972.0823, 5931785.991800003], [-10120964.7905, 5931826.721000001], [-10120960.2772, 5931902.0198], [-10120941.3098, 5931993.395199999], [-10120914.3428, 5932047.967699997], [-10120869.3732, 5932117.2205], [-10120829.2432, 5932165.428000003], [-10120791.8991, 5932230.096299998], [-10120753.2027, 5932327.767099999], [-10120651.9187, 5932478.247199997], [-10120330.3851, 5932906.4113000035], [-10120040.17, 5933138.727600001], [-10119635.7516, 5933369.859399997], [-10119146.5637, 5933640.306699999], [-10118896.4288, 5933731.010300003], [-10118706.3303, 5933793.692900002], [-10118587.7322, 5933808.704000004], [-10118512.0727, 5933806.6721], [-10118474.8247, 5933805.178999998], [-10118419.4876, 5933837.5901999995], [-10118284.214, 5933908.307099998], [-10118206.5895, 5933942.829999998], [-10118084.5964, 5933985.423299998], [-10117970.0191, 5934016.155000001], [-10117868.8608, 5934046.734399997], [-10117781.6313, 5934094.456500001], [-10117701.336, 5934168.382700004], [-10117634.1093, 5934220.876999997], [-10117543.4459, 5934286.938299999], [-10117505.4426, 5934316.191100001], [-10117463.7376, 5934344.006800003], [-10117426.4623, 5934372.512100004], [-10117401.0124, 5934403.841499999], [-10117388.7428, 5934442.2289], [-10117386.068, 5934492.919], [-10117392.9991, 5934533.759199999], [-10117400.1614, 5934595.380900003], [-10117403.4326, 5934636.776600003], [-10117401.9778, 5934669.083400004], [-10117399.0564, 5934691.855999999], [-10116780.8668, 5934691.643700004], [-10115956.1882, 5934668.594899997]]], [[[-10121360.6962, 5941211.346500002], [-10121282.7143, 5941076.148699999], [-10121134.8028, 5940880.510399997], [-10121007.9917, 5940731.456200004], [-10120915.8023, 5940527.265900001], [-10120877.4071, 5940247.1413], [-10120887.5732, 5940046.923299998], [-10120967.0715, 5939861.822499998], [-10121019.9635, 5939729.329999998], [-10121109.7279, 5939598.770199999], [-10121369.4531, 5939380.380500004], [-10121424.7569, 5939275.454099998], [-10121493.2802, 5939140.903999999], [-10121627.7865, 5939022.263899997], [-10121787.6255, 5938964.8571000025], [-10121964.5599, 5938919.715499997], [-10122042.8922, 5938851.924500003], [-10122091.5452, 5938725.451300003], [-10122098.2309, 5938475.402900003], [-10122060.0884, 5938286.624300003], [-10122012.8849, 5938091.197899997], [-10121926.8779, 5937814.128200002], [-10121846.2193, 5937544.6699], [-10121793.5538, 5937445.965499997], [-10121722.4773, 5937209.772500001], [-10121751.3728, 5936996.737199999], [-10121756.8391, 5936775.001699999], [-10121748.7443, 5936462.627300002], [-10121753.3765, 5936284.504299998], [-10121807.8446, 5936150.932700001], [-10121946.9274, 5935854.520999998], [-10122116.1261, 5935623.821500003], [-10122335.823, 5935423.0779], [-10122417.77, 5935405.4155], [-10122500.6314, 5935371.0424000025], [-10122793.3896, 5935342.516599998], [-10123310.4612, 5935310.178400002], [-10123767.152, 5935304.748899996], [-10124064.4519, 5935303.3609], [-10124296.9803, 5935274.017200001], [-10124429.5878, 5935287.922899999], [-10124621.6076, 5935360.002400003], [-10124781.7985, 5935412.149800003], [-10124912.7623, 5935412.7804000005], [-10124997.222, 5935389.692000002], [-10125075.2279, 5935358.548199996], [-10125223.747, 5935227.667099997], [-10125337.6894, 5935144.132600002], [-10125430.0055, 5935092.740699999], [-10125565.5999, 5935081.288699999], [-10125759.8951, 5935070.348499998], [-10125894.3996, 5935069.9406], [-10126094.9853, 5935073.631099999], [-10126273.3958, 5935088.6329], [-10126409.3048, 5935135.879199997], [-10126473.4088, 5935193.782700002], [-10126536.8738, 5935299.377499998], [-10126615.5793, 5935354.6570999995], [-10126738.8128, 5935391.997100003], [-10126874.4649, 5935450.069799997], [-10127052.5043, 5935594.1778], [-10127145.3248, 5935728.360600002], [-10127314.0656, 5936071.364600003], [-10127428.4024, 5936403.862999998], [-10127509.5946, 5936519.225100003], [-10127583.7049, 5936549.825599998], [-10127867.0659, 5936531.066100001], [-10127959.4981, 5936598.810800001], [-10128088.292, 5936683.024700001], [-10128220.1847, 5936822.795900002], [-10128404.2575, 5937046.022200003], [-10128618.8793, 5937353.251199998], [-10128688.4499, 5937554.185800001], [-10128776.3714, 5937882.228299998], [-10128833.1436, 5938269.197999999], [-10128911.8606, 5938644.331799999], [-10128963.5339, 5939198.0874999985], [-10128950.5254, 5939335.467799999], [-10128910.385, 5939461.433300003], [-10128844.3205, 5939620.676899999], [-10128771.5933, 5939791.960900001], [-10128658.3241, 5939951.838299997], [-10128472.4115, 5940173.676200002], [-10128368.147, 5940268.827200003], [-10128101.6495, 5940464.466499999], [-10127900.9175, 5940567.644400001], [-10127766.5743, 5940594.183600001], [-10127450.2335, 5940614.674900003], [-10127383.5786, 5940639.570100002], [-10127174.1793, 5940853.574299999], [-10127095.662, 5940886.431500003], [-10126877.8702, 5940896.192900002], [-10126766.4901, 5940938.899700001], [-10126663.6403, 5941005.124200001], [-10126561.022, 5941050.098200001], [-10126422.0526, 5941115.395000003], [-10126305.1931, 5941163.931400001], [-10126143.3946, 5941187.1039], [-10126035.5001, 5941200.195299998], [-10125858.2206, 5941205.884599999], [-10125453.4271, 5941213.303000003], [-10125322.0055, 5941191.406800002], [-10125172.7115, 5941143.890000001], [-10125042.5331, 5941127.8464], [-10124894.9185, 5941122.579599999], [-10124757.7578, 5941125.8565], [-10124576.7888, 5941126.860399999], [-10124447.6341, 5941164.707000002], [-10124327.9853, 5941216.488300003], [-10124233.1724, 5941294.901600003], [-10124130.3799, 5941389.802500002], [-10124027.4353, 5941518.400799997], [-10123960.388, 5941656.9661], [-10123962.7191, 5941847.2949], [-10123966.6132, 5941979.909199998], [-10123998.9627, 5942163.389200002], [-10124110.577, 5942412.8803], [-10124106.35, 5942643.443400003], [-10124052.2294, 5942779.615500003], [-10123947.4194, 5942948.518799998], [-10123807.9897, 5943097.982199997], [-10123592.109, 5943246.824100003], [-10123388.3517, 5943344.439099997], [-10123169.9338, 5943377.212899998], [-10122961.5505, 5943377.357500002], [-10122786.545, 5943360.850299999], [-10122642.4671, 5943316.113700002], [-10122438.8198, 5943216.333499998], [-10122213.994, 5943040.7236], [-10121976.7012, 5942773.571800001], [-10121616.0718, 5942211.950499997], [-10121507.7096, 5941943.618600003], [-10121461.5247, 5941644.807899997], [-10121435.2973, 5941448.380999997], [-10121408.6717, 5941316.013700001], [-10121360.6962, 5941211.346500002]]], [[[-10095531.0779, 5927908.851999998], [-10095690.3127, 5927842.318300001], [-10095864.289, 5927827.769000001], [-10096078.6412, 5927824.588200003], [-10096317.6634, 5927866.795199998], [-10096567.1288, 5927867.202100001], [-10096722.8355, 5927843.676600002], [-10096857.5481, 5927796.882700004], [-10096983.3604, 5927772.314900003], [-10097236.671, 5927757.543799996], [-10097451.5051, 5927733.543899998], [-10097727.3699, 5927725.880199999], [-10097939.7968, 5927722.6752], [-10098112.0443, 5927717.228699997], [-10098240.2728, 5927714.7742], [-10098437.9772, 5927710.8825], [-10098613.4316, 5927687.274899997], [-10098772.0365, 5927657.340599999], [-10098997.4378, 5927586.642800003], [-10099142.9717, 5927539.982699998], [-10099377.3512, 5927466.890299998], [-10099580.4509, 5927424.995300002], [-10099786.1123, 5927381.7808], [-10100072.5608, 5927353.918499999], [-10100437.0, 5927342.825599998], [-10100509.5185, 5927343.377099998], [-10100550.4126, 5927342.997599997], [-10100660.6905, 5927373.085600004], [-10100779.4039, 5927400.265600003], [-10100881.2749, 5927436.086000003], [-10100963.47, 5927479.1603000015], [-10101196.1681, 5927657.795000002], [-10101410.3491, 5927856.025899999], [-10101528.6733, 5928028.363700002], [-10101633.2452, 5928259.492200002], [-10101685.3226, 5928430.544799998], [-10101763.2976, 5928671.6635000035], [-10101886.8362, 5928984.714100003], [-10101935.1196, 5929064.1774], [-10102148.3634, 5929289.303400002], [-10102282.9338, 5929503.327100001], [-10102394.7775, 5929684.015600003], [-10102538.2013, 5929812.676200002], [-10102664.4768, 5929896.759800002], [-10102776.1642, 5929912.473099999], [-10102872.9015, 5929968.873499997], [-10103065.8764, 5930141.213299997], [-10103229.9617, 5930291.597000003], [-10103363.656, 5930461.789399996], [-10103457.0415, 5930632.370700002], [-10103489.1029, 5930786.813900001], [-10103476.9102, 5930996.490999997], [-10103431.3342, 5931159.575000003], [-10103420.4775, 5931329.279200003], [-10103428.4969, 5931443.197300002], [-10103473.2409, 5931570.293300003], [-10103569.6577, 5931678.872299999], [-10103695.236, 5931801.0326000005], [-10103947.306, 5931995.439800002], [-10104136.7046, 5932192.951899998], [-10104249.7262, 5932335.6052], [-10104333.2297, 5932561.480599999], [-10104431.3335, 5932923.660599999], [-10104443.7765, 5933215.7359], [-10104431.441, 5933503.9265], [-10104407.1429, 5933728.067500003], [-10104360.3374, 5933865.034199998], [-10104283.4549, 5934025.216200002], [-10104156.5789, 5934189.523100004], [-10104000.4748, 5934299.296999998], [-10103769.3011, 5934419.386699997], [-10103629.3118, 5934491.0901999995], [-10103554.8113, 5934635.073899999], [-10103495.4559, 5934721.628899999], [-10102903.2336, 5935521.182400003], [-10102553.968, 5935950.121100001], [-10102385.9675, 5936173.266999997], [-10102215.6439, 5936409.9186], [-10102084.6837, 5936521.9252], [-10101979.0213, 5936602.622699998], [-10101838.8163, 5936734.9782000035], [-10101696.7421, 5936811.9648], [-10101550.5487, 5936880.883299999], [-10101418.8556, 5936915.891599998], [-10101275.0133, 5936915.200099997], [-10101137.9185, 5936905.707199998], [-10100984.5698, 5936881.547499999], [-10100763.9062, 5936840.501800001], [-10100613.37, 5936829.778800003], [-10100510.9309, 5936756.918700002], [-10100370.2554, 5936599.812399998], [-10100278.9704, 5936430.613499999], [-10100192.0602, 5936265.506999999], [-10100046.5497, 5936111.646899998], [-10099869.7112, 5936032.999700002], [-10099330.3889, 5936000.484499998], [-10098924.336, 5935950.670199998], [-10098433.1286, 5935822.865699999], [-10098269.9489, 5935790.866999999], [-10097971.0024, 5935781.438199997], [-10097910.8854, 5935757.948700003], [-10097761.022, 5935672.5205999985], [-10097642.9901, 5935573.456200004], [-10097578.099, 5935461.902000003], [-10097502.1531, 5935329.834200002], [-10097388.5626, 5935088.699000001], [-10097370.9916, 5934902.5913999975], [-10097343.044, 5934743.188699998], [-10097279.7107, 5934482.994400002], [-10097236.2476, 5934368.9692], [-10097163.8602, 5934284.4706000015], [-10097009.2599, 5934022.844999999], [-10096897.0192, 5933785.629199997], [-10096723.8855, 5933564.925700001], [-10096557.0215, 5933301.586800002], [-10096424.0454, 5933131.505599998], [-10096281.2784, 5932994.778099999], [-10095990.7778, 5932757.1875], [-10095721.4477, 5932518.082400002], [-10095538.6703, 5932341.901600003], [-10095374.6938, 5932097.6022000015], [-10095251.2031, 5931850.001500003], [-10095161.5895, 5931553.173500001], [-10095093.2657, 5931223.706299998], [-10095061.2057, 5931012.986199997], [-10095031.2555, 5930741.593500003], [-10095008.6182, 5930360.0397000015], [-10094988.8965, 5930201.125100002], [-10094941.8825, 5930070.058399998], [-10094863.1328, 5929838.086599998], [-10094775.8005, 5929562.256700002], [-10094712.3032, 5929321.6197], [-10094694.6548, 5929092.3904], [-10094669.3132, 5928879.552100003], [-10094690.4202, 5928604.931999996], [-10094736.0891, 5928459.481600001], [-10094782.1152, 5928355.847499996], [-10094972.2922, 5928200.345700003], [-10095289.0631, 5928019.098700002], [-10095531.0779, 5927908.851999998]]], [[[-10064536.9328, 5954894.408200003], [-10064292.7427, 5954895.255000003], [-10064184.4277, 5954895.813900001], [-10064094.0293, 5954951.851599999], [-10063956.3998, 5955131.9070999995], [-10063818.6235, 5955284.177500002], [-10063615.1029, 5955388.786600001], [-10063479.11, 5955397.056000002], [-10063320.3306, 5955382.703599997], [-10063138.9304, 5955378.566600002], [-10062780.6169, 5955259.110299997], [-10062437.2532, 5955104.202200003], [-10062179.3362, 5954905.920699999], [-10061993.8848, 5954674.532799996], [-10061919.8247, 5954423.045199998], [-10061911.2366, 5954206.501400001], [-10062028.3039, 5953916.825400002], [-10062208.2391, 5953609.391800001], [-10062200.1525, 5953492.633100003], [-10062153.124, 5953320.894199997], [-10062003.2704, 5953063.682800002], [-10061999.0361, 5952963.5315999985], [-10062036.827, 5952562.7073], [-10062097.7745, 5952338.435099997], [-10062116.9459, 5952198.982900001], [-10062098.7845, 5952037.320200004], [-10062130.2198, 5951748.326800004], [-10062319.682, 5951120.865800001], [-10062627.264, 5950413.848099999], [-10062673.1493, 5950243.450099997], [-10062764.7193, 5949863.206100002], [-10062775.8038, 5949619.010399997], [-10062757.1459, 5949328.116800003], [-10062790.7494, 5949103.680299997], [-10062887.8066, 5948899.127099998], [-10063138.6279, 5948556.126100004], [-10063310.5154, 5948281.472000003], [-10063377.0526, 5948140.136799999], [-10063373.7809, 5947975.8618], [-10063356.4533, 5947873.588799998], [-10063202.0157, 5947617.191399999], [-10063178.0984, 5947452.770800002], [-10063182.3862, 5947338.181699999], [-10063225.493, 5947109.281000003], [-10063223.9219, 5947037.592299998], [-10063183.9637, 5946893.823100001], [-10063124.8808, 5946707.964000002], [-10063109.1836, 5946450.376800001], [-10063095.8408, 5946183.153399996], [-10063094.8296, 5945980.889700003], [-10063133.8553, 5945802.740000002], [-10063240.2308, 5945530.912699997], [-10063363.2733, 5945242.203299999], [-10063463.01, 5945080.852899998], [-10063563.4041, 5944980.375699997], [-10063679.5075, 5944844.5451000035], [-10063781.0172, 5944740.769400001], [-10063840.2013, 5944657.060199998], [-10063854.8561, 5944540.2173999995], [-10063891.4771, 5944381.561499998], [-10063939.3063, 5944246.481600001], [-10064002.4951, 5944133.564900003], [-10064065.7746, 5944038.718800001], [-10064202.1541, 5943904.5735], [-10064353.2872, 5943816.735600002], [-10064529.2779, 5943739.821800001], [-10064735.846, 5943713.873499997], [-10064898.3392, 5943692.296700001], [-10065088.4271, 5943677.481200002], [-10065234.608, 5943597.756700002], [-10065365.8245, 5943467.553499997], [-10065493.8172, 5943247.8147], [-10065606.8444, 5943057.090499997], [-10065637.7071, 5942917.780299999], [-10065682.2851, 5942774.266000003], [-10065753.2848, 5942691.229099996], [-10065893.4013, 5942594.656800002], [-10066057.0024, 5942449.553900003], [-10066156.4568, 5942348.749300003], [-10066269.2306, 5942177.8226], [-10066595.7206, 5941773.993799999], [-10066832.7022, 5941532.388899997], [-10067018.4596, 5941388.006800003], [-10067159.6825, 5941317.5978000015], [-10067340.3054, 5941231.950999998], [-10067530.0846, 5941176.077299997], [-10067687.4103, 5941147.978], [-10067876.29, 5941179.600100003], [-10068245.6652, 5941199.315399997], [-10068476.4567, 5941199.377899997], [-10068674.5751, 5941183.283200003], [-10068816.6386, 5941153.174000002], [-10068996.1719, 5941065.280599996], [-10069103.6784, 5940927.5744], [-10069214.0819, 5940823.785400003], [-10069311.4273, 5940804.2250000015], [-10069395.4851, 5940828.174400002], [-10069539.0519, 5940843.636399999], [-10069658.1467, 5940840.2346], [-10069818.9195, 5940787.726199999], [-10069910.5046, 5940708.4706000015], [-10070002.0725, 5940626.500399999], [-10070118.8879, 5940451.188000001], [-10070201.0547, 5940281.253399998], [-10070256.0533, 5940052.3072], [-10070330.0111, 5939855.5309000015], [-10070412.231, 5939696.363600001], [-10070601.6797, 5939528.499799997], [-10070756.7449, 5939444.211599998], [-10070887.9074, 5939400.405000001], [-10071094.2889, 5939377.666100003], [-10071268.614, 5939376.629199997], [-10071389.5558, 5939418.939499997], [-10071564.6822, 5939552.366999999], [-10071705.3491, 5939753.239600003], [-10071755.0722, 5939995.006700002], [-10071761.9473, 5940247.796599999], [-10071731.3677, 5940516.957900003], [-10071641.6508, 5940825.806100003], [-10071566.1979, 5941180.294699997], [-10071533.9335, 5941601.594800003], [-10071476.531, 5941973.108400002], [-10071438.1458, 5942246.145000003], [-10071364.7356, 5942460.555600002], [-10071245.8871, 5942775.770300001], [-10071083.4699, 5943195.457800001], [-10070809.1407, 5943583.817199998], [-10070521.6964, 5944093.844499998], [-10070427.759, 5944406.480800003], [-10070230.7649, 5944980.3527000025], [-10070122.1842, 5945483.517300002], [-10070056.6437, 5945816.877700001], [-10070036.9038, 5946063.749799997], [-10070071.4994, 5946290.527000003], [-10070103.8936, 5946417.330200002], [-10070196.6478, 5946715.7566], [-10070222.8489, 5946914.000799999], [-10070258.4421, 5947153.862599999], [-10070258.166, 5947388.133100003], [-10070214.3975, 5947527.7553], [-10070186.4986, 5947690.953199998], [-10070182.23, 5947859.275600001], [-10070234.2822, 5948242.9125000015], [-10070249.9162, 5948791.128799997], [-10070276.4785, 5949315.8618], [-10070240.1446, 5949572.4179000035], [-10070184.093, 5949802.937600002], [-10070163.0778, 5949905.946500003], [-10070180.1694, 5950171.013700001], [-10070221.0172, 5950508.744800001], [-10070190.5249, 5950615.515699998], [-10070173.0552, 5950732.611500002], [-10070150.7461, 5950909.534999996], [-10070102.9456, 5951162.010499999], [-10070056.3762, 5951335.139300004], [-10069977.4328, 5951542.996799998], [-10069906.421, 5951781.923199996], [-10069766.3601, 5952153.4815], [-10069625.7715, 5952547.157899998], [-10069569.663, 5952653.476099998], [-10069413.6735, 5952876.7080999985], [-10069156.9227, 5953131.122500002], [-10068400.0816, 5953976.386399999], [-10068262.2683, 5954168.011600003], [-10067936.0473, 5954455.701700002], [-10067633.3017, 5954664.403800003], [-10067355.8409, 5954817.648000002], [-10067198.8556, 5954868.514399998], [-10066528.918, 5955111.928800002], [-10066317.526, 5955141.5342999995], [-10065556.0886, 5955377.6010000035], [-10065255.3235, 5955473.520499997], [-10065167.2371, 5955457.947700001], [-10065020.8064, 5955329.0792], [-10064907.1999, 5955174.619800001], [-10064730.2288, 5955020.492200002], [-10064536.9328, 5954894.408200003]]], [[[-10077183.8857, 5930591.873000003], [-10077354.3121, 5930554.610399999], [-10077570.3354, 5930530.351800002], [-10077908.1851, 5930519.888499998], [-10078053.7828, 5930520.806199998], [-10078222.2725, 5930551.904299997], [-10078364.2168, 5930571.802100003], [-10078509.8154, 5930572.712300003], [-10078613.4599, 5930520.815099999], [-10078707.5085, 5930448.125500001], [-10078806.7785, 5930309.038900003], [-10078862.1368, 5930107.685199998], [-10078887.0631, 5929880.000500001], [-10078924.8488, 5929597.253200002], [-10078952.6042, 5929296.185400002], [-10078927.8906, 5929137.996299997], [-10078897.0356, 5929018.170199998], [-10078788.7006, 5928839.866400003], [-10078673.4131, 5928744.534900002], [-10078592.4002, 5928714.931500003], [-10078434.3497, 5928687.733900003], [-10078279.8817, 5928634.125200003], [-10078157.262, 5928565.2227], [-10078000.8555, 5928414.621600002], [-10077977.2542, 5928247.547799997], [-10077923.1487, 5928001.7654], [-10077910.5408, 5927797.046999998], [-10077941.1132, 5927605.195600003], [-10078047.274, 5927373.965099998], [-10078249.2557, 5927129.075499997], [-10078473.8431, 5926914.006399997], [-10078769.2979, 5926683.4690999985], [-10079116.3736, 5926486.732500002], [-10079342.473, 5926349.329000004], [-10079562.0783, 5926280.306400001], [-10079737.0094, 5926260.421599999], [-10079932.8246, 5926298.284400001], [-10080184.7701, 5926373.104800001], [-10080379.0129, 5926452.057499997], [-10080592.4037, 5926605.579499997], [-10080727.2272, 5926709.223399997], [-10080869.7002, 5926840.8288], [-10080956.597, 5927024.935999997], [-10081011.7976, 5927216.366400003], [-10081013.1179, 5927404.456500001], [-10080971.5798, 5927572.366400003], [-10080919.2362, 5927740.2321000025], [-10080829.8387, 5927932.136399999], [-10080794.0107, 5928105.096299998], [-10080815.5763, 5928275.798100002], [-10080872.0689, 5928409.114100002], [-10081067.0924, 5928728.307300001], [-10081277.0968, 5928917.556000002], [-10081451.3567, 5929012.613600001], [-10081708.6395, 5929095.965000004], [-10081910.0859, 5929099.0254999995], [-10082084.2274, 5929060.9548999965], [-10082242.0429, 5929050.614500001], [-10082379.4657, 5929012.8028], [-10082479.9727, 5928947.641000003], [-10082563.5985, 5928832.893600002], [-10082666.3456, 5928649.873400003], [-10082842.0879, 5928398.963200003], [-10083034.5987, 5928190.1499999985], [-10083214.8626, 5928060.3510000035], [-10083551.3984, 5927909.656400003], [-10083877.2162, 5927793.7927], [-10084154.1333, 5927729.521499999], [-10084365.5831, 5927696.839900002], [-10084689.082, 5927672.935400002], [-10084886.9062, 5927682.369099997], [-10085066.6847, 5927704.669500001], [-10085194.0303, 5927751.012999997], [-10085399.4827, 5927809.499899998], [-10085544.9736, 5927855.7016], [-10085815.3798, 5928039.022600003], [-10085991.0028, 5928297.100100003], [-10086096.1574, 5928327.137400001], [-10086209.6403, 5928262.775399998], [-10086295.711, 5928162.340499997], [-10086366.6308, 5927973.1329], [-10086408.7777, 5927791.907399997], [-10086566.8762, 5927474.173199996], [-10086695.3302, 5927290.512199998], [-10086923.1903, 5927135.022100002], [-10087142.6389, 5927059.170500003], [-10087555.6406, 5926919.5955], [-10087651.8182, 5926865.325400002], [-10087782.5121, 5926805.8486], [-10088023.632, 5926758.028800003], [-10088144.2075, 5926736.203900002], [-10088275.1089, 5926703.858000003], [-10088399.5349, 5926642.334899999], [-10088542.4806, 5926553.525200002], [-10088753.0015, 5926418.048500001], [-10088933.4253, 5926331.024400003], [-10089193.0615, 5926257.977300003], [-10089542.6173, 5926236.3891], [-10089911.14, 5926243.859200001], [-10090082.1147, 5926277.965000004], [-10090387.193, 5926373.761200003], [-10090608.3106, 5926509.3374999985], [-10090788.3632, 5926699.365500003], [-10091031.761, 5927020.014300004], [-10091270.7699, 5927309.479099996], [-10091670.4345, 5927785.823600002], [-10092015.0331, 5928156.597099997], [-10092219.9771, 5928408.138999999], [-10092331.653, 5928657.2324], [-10092411.4704, 5928917.190700002], [-10092423.4657, 5929246.418300003], [-10092381.6342, 5929431.064499997], [-10092233.5276, 5929917.389600001], [-10092196.9207, 5930083.4287], [-10092111.9478, 5930235.461099997], [-10092038.6098, 5930305.043200001], [-10091811.0121, 5930561.010799997], [-10091726.9044, 5930749.409100004], [-10091661.7682, 5930887.376800001], [-10091572.9396, 5931009.75], [-10091329.1278, 5931273.087300003], [-10091176.2448, 5931452.3904], [-10091087.5709, 5931588.678499997], [-10090961.91, 5931806.3374999985], [-10090796.2288, 5932145.510300003], [-10090507.6798, 5932712.957500003], [-10090457.38, 5932772.136299998], [-10090289.3824, 5932926.228399999], [-10089894.1652, 5933260.437899999], [-10089640.5767, 5933480.4661], [-10089521.8472, 5933555.209600002], [-10089350.4557, 5933635.359999999], [-10089095.743, 5933714.472999997], [-10088840.4551, 5933780.139399998], [-10088565.9501, 5933798.226199999], [-10088065.7106, 5933817.884800002], [-10087883.33, 5933846.7936], [-10087689.2871, 5933909.396300003], [-10087499.4309, 5934005.460000001], [-10087315.4499, 5934099.504699998], [-10087074.6803, 5934219.603100002], [-10086626.8897, 5934464.297200002], [-10086194.1847, 5934762.340899996], [-10085928.9279, 5934923.5205999985], [-10085346.5868, 5935248.5625], [-10085130.4782, 5935350.112599999], [-10084951.1488, 5935406.319700003], [-10084801.0498, 5935452.508299999], [-10084420.4338, 5935561.961599998], [-10084252.6976, 5935610.249799997], [-10084036.1338, 5935663.796999998], [-10083776.8988, 5935762.735200003], [-10083495.7361, 5935872.074000001], [-10083278.2328, 5935967.442699999], [-10083021.649, 5936047.4626], [-10082764.6539, 5936102.333400004], [-10082504.1371, 5936178.460900001], [-10082251.2965, 5936238.896499999], [-10082023.9431, 5936265.948899999], [-10081538.3931, 5936279.160999998], [-10081227.706, 5936296.952500001], [-10080843.5987, 5936371.742399998], [-10080651.427, 5936392.574100003], [-10080339.2666, 5936489.664899997], [-10080060.9111, 5936571.241099998], [-10079947.0917, 5936638.072099999], [-10079821.6361, 5936703.0402000025], [-10079709.9771, 5936802.874799997], [-10079587.1469, 5936968.828199998], [-10079450.4075, 5937084.375], [-10079291.9224, 5937176.876400001], [-10078931.6174, 5937305.236100003], [-10078634.397, 5937338.249600001], [-10078437.7105, 5937386.067699999], [-10078187.4956, 5937453.021200001], [-10078076.2416, 5937519.431400001], [-10077967.3886, 5937657.279600002], [-10077839.197, 5937783.670599997], [-10077691.6278, 5937892.809699997], [-10077564.4839, 5937887.865099996], [-10077452.5936, 5937859.641900003], [-10077326.8277, 5937771.6404], [-10077210.8587, 5937708.679300003], [-10076887.1091, 5937677.989399999], [-10076665.5417, 5937663.998199999], [-10076466.6951, 5937589.984899998], [-10076293.679, 5937432.0977], [-10076166.2288, 5937321.248899996], [-10076037.0483, 5937239.293099999], [-10075826.7078, 5937076.992600001], [-10075666.1962, 5936898.965300001], [-10075351.1975, 5936581.380599998], [-10075041.6515, 5936295.223200001], [-10074806.3783, 5936022.216600001], [-10074629.9619, 5935670.138999999], [-10074581.1545, 5935518.807700001], [-10074584.7526, 5935316.754299998], [-10074552.7456, 5935099.022], [-10074558.3518, 5934926.621399999], [-10074608.9254, 5934775.116800003], [-10074665.3065, 5934636.973399997], [-10074727.5918, 5934527.498800002], [-10075155.8673, 5934054.021300003], [-10075247.2187, 5933928.107000001], [-10075299.9635, 5933820.611699998], [-10075398.5379, 5933718.563500002], [-10075818.7618, 5933191.5735], [-10076005.0019, 5932961.423299998], [-10076093.2903, 5932787.2478], [-10076151.3361, 5932643.794299997], [-10076161.6385, 5932472.0396], [-10076216.6677, 5932162.603799999], [-10076222.6398, 5931913.409500003], [-10076260.951, 5931679.2260000035], [-10076318.2617, 5931450.629900001], [-10076375.9276, 5931277.188699998], [-10076505.4563, 5931072.851899996], [-10076603.886, 5930926.5911], [-10076720.6642, 5930804.1149], [-10076939.9767, 5930701.880900003], [-10077183.8857, 5930591.873000003]]]]}}, {"type": "Feature", "properties": {"OBJECTID": 237, "CreationDate": "2025-01-14T11:11:12Z", "Creator": "NPS_WASO_LANDS", "EditDate": "2025-01-14T11:11:12Z", "Editor": "NPS_WASO_LANDS", "GlobalID": "{F734E441-853D-448B-BE36-6C0A87A03EBB}", "AreaID": 241, "UNIT_CODE": "IATR", "GIS_Notes": "Lands - http://landsnet.nps.gov/tractsnet/documents/IATR/Metadata/iatr_metadata.xml", "UNIT_NAME": "Ice Age National Scenic Trail", "DATE_EDIT": "2023-12-14T00:00:00Z", "STATE": "WI", "REGION": "MW", "GNIS_ID": "2733461", "UNIT_TYPE": "National Scenic Trail", "CREATED_BY": "Lands", "METADATA": "https://irma.nps.gov/DataStore/Reference/Profile/1048397", "PARKNAME": "Ice Age", "SHAPE_Length": 10243.738937005204, "SHAPE_Area": 1775403.6274295743}, "geometry": {"type": "MultiPolygon", "coordinates": [[[[-9904633.4347, 5647961.866899997], [-9904650.2339, 5647534.582199998], [-9904664.5591, 5647533.822800003], [-9904686.3575, 5647232.7786], [-9904696.7954, 5647199.975699998], [-9904799.6876, 5646991.776900001], [-9904813.5059, 5646975.699699998], [-9904834.5897, 5646968.439499997], [-9904899.238, 5646965.4943], [-9904974.2365, 5646964.308499999], [-9905140.1019, 5646960.0634], [-9905162.3212, 5646952.741300002], [-9905157.5589, 5647051.678099997], [-9905260.2496, 5647049.994999997], [-9905238.8765, 5647083.0484], [-9905236.3279, 5647108.955899999], [-9905244.2418, 5647126.799999997], [-9905255.926, 5647131.3178], [-9905269.4105, 5647132.454099998], [-9905280.6501, 5647129.3046], [-9905286.9467, 5647123.896499999], [-9905306.5169, 5647098.2016], [-9905318.434, 5647089.865800001], [-9905340.4577, 5647093.036899999], [-9905355.736, 5647100.714000002], [-9905371.0102, 5647114.479800001], [-9905382.2455, 5647121.796700001], [-9905408.2256, 5647124.474399999], [-9905418.738, 5647151.4174000025], [-9905420.9788, 5647171.061099999], [-9905422.6716, 5647185.900600001], [-9905425.4483, 5647194.505599998], [-9905432.699, 5647200.161899999], [-9905447.9563, 5647204.249399997], [-9905444.3443, 5647487.057599999], [-9905413.8126, 5647492.241099998], [-9905327.5562, 5647510.064199999], [-9905282.5197, 5647519.369599998], [-9905314.4932, 5647819.905000001], [-9905530.7606, 5647878.2299000025], [-9905507.5915, 5647914.468900003], [-9905503.9869, 5647933.772], [-9905393.7283, 5647884.497500002], [-9905312.9695, 5647871.9826000035], [-9905194.8466, 5647832.140100002], [-9905145.6994, 5647805.296300001], [-9904979.4409, 5647805.620399997], [-9904798.91, 5647806.020199999], [-9904792.8587, 5647961.5205999985], [-9904633.4347, 5647961.866899997]]], [[[-9976450.1894, 5324588.594800003], [-9976411.4626, 5324529.788199998], [-9976384.5222, 5324494.5123], [-9976379.312, 5324487.689999998], [-9976360.9413, 5324477.3483000025], [-9976331.7518, 5324461.569399998], [-9976294.7169, 5324453.563900001], [-9976247.8856, 5324453.321800001], [-9976199.0526, 5324462.836900003], [-9976156.0434, 5324478.242600001], [-9976111.787, 5324490.095700003], [-9976112.6659, 5324099.592], [-9976081.1526, 5324072.234700002], [-9975979.579, 5324070.658799998], [-9975979.6377, 5323943.6005000025], [-9975812.3945, 5323942.935699999], [-9975717.3802, 5324061.194899999], [-9975712.2699, 5324429.155500002], [-9975629.8177, 5324461.978100002], [-9975596.1814, 5324484.174000002], [-9975582.434, 5324491.282300003], [-9975432.1836, 5324489.872400001], [-9975432.5086, 5323938.154799998], [-9975432.6683, 5323727.2902000025], [-9975432.9264, 5323386.389600001], [-9975980.3644, 5323392.008100003], [-9976527.8029, 5323397.637100004], [-9976526.2366, 5323949.011799999], [-9976800.7945, 5323953.659900002], [-9976808.4872, 5324506.266800001], [-9976777.6016, 5324505.2698], [-9976745.4534, 5324523.0396], [-9976697.71, 5324580.6329], [-9976667.5529, 5324594.8901999965], [-9976634.2179, 5324595.069600001], [-9976593.1721, 5324587.860799998], [-9976525.0083, 5324559.557499997], [-9976524.7471, 5324688.9804000035], [-9976515.7393, 5324677.151299998], [-9976485.064, 5324637.613700002], [-9976450.1894, 5324588.594800003]]]]}}]}